{
  "type": "Feature",
  "geometry": {
    "type": "Polygon",
    "coordinates": [
      [
        [
          115.9961793,
          22.8340912
        ],
        [
          115.98437068823932,
          22.845749838489848
        ],
        [
          115.97204380309672,
          22.850212028087547
        ],
        [
          115.97718036437126,
          22.85494197605285
        ],
        [
          115.98437003793016,
          22.85602785859381
        ],
        [
          115.98454154837904,
          22.856343232453845
        ],
        [
          115.98248697408604,
          22.85903717740657
        ],
        [
          115.98419922416976,
          22.86045562466747
        ],
        [
          115.9876229871333,
          22.857282768450386
        ],
        [
          115.99087589763778,
          22.857273063898056
        ],
        [
          115.99446959282872,
          22.85979225867838
        ],
        [
          115.99549677999435,
          22.858207775266195
        ],
        [
          115.99755084044364,
          22.859782937819695
        ],
        [
          115.99635308566822,
          22.86231656961451
        ],
        [
          115.99943421531653,
          22.863888610392877
        ],
        [
          115.99960419633692,
          22.872267766774772
        ],
        [
          115.99840650708214,
          22.87385276543589
        ],
        [
          115.9843688168004,
          22.875317226950333
        ],
        [
          115.98197224268516,
          22.87674763951579
        ],
        [
          115.9780347622991,
          22.87644205127832
        ],
        [
          115.97803458234868,
          22.87928890663741
        ],
        [
          115.9749524136792,
          22.882142400580733
        ],
        [
          115.97649331269264,
          22.88403533455004
        ],
        [
          115.97358285815258,
          22.882936860608943
        ],
        [
          115.9737532555176,
          22.885624302824315
        ],
        [
          115.97255513208498,
          22.887998617401777
        ],
        [
          115.96981490369592,
          22.88832186662377
        ],
        [
          115.96964422044654,
          22.88990367575894
        ],
        [
          115.96724589451895,
          22.89149033050421
        ],
        [
          115.96930074692868,
          22.894804582159704
        ],
        [
          115.96981434515004,
          22.897174245141425
        ],
        [
          115.96810239059704,
          22.898760113293378
        ],
        [
          115.96827266193436,
          22.90381757852349
        ],
        [
          115.96793041287798,
          22.90492501636641
        ],
        [
          115.9638199734874,
          22.905568277921823
        ],
        [
          115.96193603579496,
          22.90825983027464
        ],
        [
          115.96210645791732,
          22.911420096393815
        ],
        [
          115.959366367011,
          22.91237531760994
        ],
        [
          115.95731092018625,
          22.90858671000932
        ],
        [
          115.9540553809824,
          22.909700592315968
        ],
        [
          115.95080041256897,
          22.91144585020261
        ],
        [
          115.9513143103523,
          22.913973717000445
        ],
        [
          115.94908600662512,
          22.91903620346299
        ],
        [
          115.94994313671718,
          22.924566127107926
        ],
        [
          115.9511417320201,
          22.928198101694164
        ],
        [
          115.95833741742167,
          22.930236236360543
        ],
        [
          115.95919340857944,
          22.933394881586633
        ],
        [
          115.95610958947816,
          22.936878557614815
        ],
        [
          115.9617624532428,
          22.939394145334695
        ],
        [
          115.96655840189158,
          22.94080448526225
        ],
        [
          115.9656482,
          22.9435647
        ],
        [
          115.9686959,
          22.9428287
        ],
        [
          115.9693112,
          22.9424954
        ],
        [
          115.9680263,
          22.9418788
        ],
        [
          115.9682859,
          22.9415235
        ],
        [
          115.9709951,
          22.9423615
        ],
        [
          115.9715148,
          22.9448229
        ],
        [
          115.972287,
          22.9450144
        ],
        [
          115.9751084,
          22.9420196
        ],
        [
          115.9757686,
          22.9411494
        ],
        [
          115.975828,
          22.9401784
        ],
        [
          115.9741921,
          22.9389441
        ],
        [
          115.9732778,
          22.9379901
        ],
        [
          115.9731342,
          22.9371308
        ],
        [
          115.9734529,
          22.9350866
        ],
        [
          115.9758581,
          22.9322084
        ],
        [
          115.9765743,
          22.9299102
        ],
        [
          115.9776894,
          22.9283358
        ],
        [
          115.9793859,
          22.9276573
        ],
        [
          115.9855592,
          22.9335951
        ],
        [
          115.9885329,
          22.9353949
        ],
        [
          115.9935626,
          22.9365058
        ],
        [
          115.9957507,
          22.9385814
        ],
        [
          115.9981742,
          22.9423951
        ],
        [
          116.0006297,
          22.9450263
        ],
        [
          116.0022593,
          22.9477191
        ],
        [
          116.0042065,
          22.9488585
        ],
        [
          116.0064834,
          22.9487146
        ],
        [
          116.0086315,
          22.9471217
        ],
        [
          116.0095244,
          22.9454772
        ],
        [
          116.0091572,
          22.9428716
        ],
        [
          116.0096765,
          22.9406121
        ],
        [
          116.0126008,
          22.9365006
        ],
        [
          116.0149251,
          22.9359574
        ],
        [
          116.016309,
          22.9372731
        ],
        [
          116.0173136,
          22.9400483
        ],
        [
          116.0190547,
          22.9409323
        ],
        [
          116.0223417,
          22.9413413
        ],
        [
          116.0259257,
          22.9408511
        ],
        [
          116.0289538,
          22.938228
        ],
        [
          116.0325922,
          22.9375254
        ],
        [
          116.0349254,
          22.9320136
        ],
        [
          116.0409825,
          22.9304736
        ],
        [
          116.0432917,
          22.9256057
        ],
        [
          116.0476364,
          22.9241235
        ],
        [
          116.0553909,
          22.9226155
        ],
        [
          116.059969,
          22.920096
        ],
        [
          116.0663967,
          22.918926
        ],
        [
          116.0771163,
          22.9179376
        ],
        [
          116.0791059,
          22.9153113
        ],
        [
          116.0845698,
          22.9037786
        ],
        [
          116.0920393,
          22.9009388
        ],
        [
          116.0968458,
          22.8984172
        ],
        [
          116.09841,
          22.8936237
        ],
        [
          116.1140791,
          22.8956946
        ],
        [
          116.122153,
          22.8957481
        ],
        [
          116.1259846,
          22.897028
        ],
        [
          116.1278821,
          22.9011173
        ],
        [
          116.12932,
          22.9020806
        ],
        [
          116.131301,
          22.9019767
        ],
        [
          116.1383848,
          22.8983284
        ],
        [
          116.1399342,
          22.8952414
        ],
        [
          116.1404147,
          22.8935988
        ],
        [
          116.1411939,
          22.8926466
        ],
        [
          116.1432881,
          22.8918415
        ],
        [
          116.1448464,
          22.8915779
        ],
        [
          116.1464048,
          22.8914753
        ],
        [
          116.1512744,
          22.888973
        ],
        [
          116.1521967,
          22.8895883
        ],
        [
          116.1578416,
          22.8907602
        ],
        [
          116.1582546,
          22.8920259
        ],
        [
          116.1577457,
          22.8923628
        ],
        [
          116.1580002,
          22.8935786
        ],
        [
          116.1601945,
          22.893271
        ],
        [
          116.1621504,
          22.8940181
        ],
        [
          116.1641222,
          22.8937105
        ],
        [
          116.1680123,
          22.8961652
        ],
        [
          116.1682988,
          22.8989717
        ],
        [
          116.1666733,
          22.899324
        ],
        [
          116.1660594,
          22.9026117
        ],
        [
          116.1654857,
          22.9082926
        ],
        [
          116.1657332,
          22.9093087
        ],
        [
          116.1666176,
          22.9093747
        ],
        [
          116.1666123,
          22.9103224
        ],
        [
          116.1668677,
          22.9106047
        ],
        [
          116.1671401,
          22.9106517
        ],
        [
          116.1677282,
          22.9102632
        ],
        [
          116.1678474,
          22.911518
        ],
        [
          116.1682561,
          22.9121454
        ],
        [
          116.1719511,
          22.9144039
        ],
        [
          116.170822,
          22.9178327
        ],
        [
          116.1706347,
          22.9207969
        ],
        [
          116.1708357,
          22.9225581
        ],
        [
          116.1723214,
          22.922971
        ],
        [
          116.1752092,
          22.9264142
        ],
        [
          116.1804297,
          22.9270294
        ],
        [
          116.1862361,
          22.9303697
        ],
        [
          116.203317,
          22.932258
        ],
        [
          116.2038595,
          22.9314454
        ],
        [
          116.2053689,
          22.930957
        ],
        [
          116.2054197,
          22.9304962
        ],
        [
          116.2060995,
          22.9303226
        ],
        [
          116.2071548,
          22.9302641
        ],
        [
          116.2083657,
          22.9304438
        ],
        [
          116.2089421,
          22.9288485
        ],
        [
          116.21034,
          22.9290169
        ],
        [
          116.2115522,
          22.9270815
        ],
        [
          116.2144658,
          22.9278181
        ],
        [
          116.2159203,
          22.9248832
        ],
        [
          116.2164856,
          22.9250669
        ],
        [
          116.2168992,
          22.9246637
        ],
        [
          116.2193287,
          22.9236174
        ],
        [
          116.2183805,
          22.9209492
        ],
        [
          116.219591,
          22.9199088
        ],
        [
          116.1912703,
          22.8974072
        ],
        [
          116.1829893,
          22.8840112
        ],
        [
          116.1840023,
          22.8811632
        ],
        [
          116.1737153,
          22.8783742
        ],
        [
          116.1631203,
          22.8639762
        ],
        [
          116.1569533,
          22.8625672
        ],
        [
          116.1483783,
          22.8526182
        ],
        [
          116.1441923,
          22.8526712
        ],
        [
          116.1445033,
          22.8496422
        ],
        [
          116.1381753,
          22.8494602
        ],
        [
          116.1315313,
          22.8405852
        ],
        [
          116.1285023,
          22.8417732
        ],
        [
          116.1224943,
          22.8377702
        ],
        [
          116.1134433,
          22.8390822
        ],
        [
          116.1074603,
          22.8336932
        ],
        [
          116.1043193,
          22.8344152
        ],
        [
          116.0931583,
          22.8229802
        ],
        [
          116.0902383,
          22.8218662
        ],
        [
          116.0822523,
          22.8291932
        ],
        [
          116.0791993,
          22.8431132
        ],
        [
          116.0734163,
          22.8463062
        ],
        [
          116.0740253,
          22.8499552
        ],
        [
          116.0462223,
          22.8525292
        ],
        [
          116.0162443,
          22.8452402
        ],
        [
          115.9961793,
          22.8340912
        ]
      ]
    ]
  },
  "properties": {
    "adcode": 441581,
    "name": "三甲",
    "parent": "汕尾陆丰",
    "outer": true
  }
}
