{
  "type": "Feature",
  "properties": {
    "adcode": 440523,
    "name": "南澳",
    "parent": "汕头",
    "outer": false
  },
  "geometry": {
    "type": "Polygon",
    "coordinates": [
      [
        [
          117.145407,
          23.456116
        ],
        [
          117.144891,
          23.458054
        ],
        [
          117.143044,
          23.459876
        ],
        [
          117.141272,
          23.460027
        ],
        [
          117.139177,
          23.459162
        ],
        [
          117.135064,
          23.457024
        ],
        [
          117.132432,
          23.455305
        ],
        [
          117.13109,
          23.455142
        ],
        [
          117.12921,
          23.456607
        ],
        [
          117.127663,
          23.458817
        ],
        [
          117.126793,
          23.462286
        ],
        [
          117.126761,
          23.463509
        ],
        [
          117.127513,
          23.46452
        ],
        [
          117.128598,
          23.467662
        ],
        [
          117.132346,
          23.468879
        ],
        [
          117.132894,
          23.472692
        ],
        [
          117.131766,
          23.474539
        ],
        [
          117.131938,
          23.476942
        ],
        [
          117.130864,
          23.479025
        ],
        [
          117.1295,
          23.483353
        ],
        [
          117.126783,
          23.484539
        ],
        [
          117.125472,
          23.484224
        ],
        [
          117.123571,
          23.48483
        ],
        [
          117.122852,
          23.483619
        ],
        [
          117.12269,
          23.481222
        ],
        [
          117.121455,
          23.479709
        ],
        [
          117.120542,
          23.479472
        ],
        [
          117.117084,
          23.48015
        ],
        [
          117.114238,
          23.480205
        ],
        [
          117.112777,
          23.478577
        ],
        [
          117.109243,
          23.476833
        ],
        [
          117.108889,
          23.476307
        ],
        [
          117.1089,
          23.473383
        ],
        [
          117.10658,
          23.468085
        ],
        [
          117.103851,
          23.464556
        ],
        [
          117.093358,
          23.45941
        ],
        [
          117.091532,
          23.45924
        ],
        [
          117.084604,
          23.461868
        ],
        [
          117.083842,
          23.462946
        ],
        [
          117.083874,
          23.46587
        ],
        [
          117.082295,
          23.46903
        ],
        [
          117.079459,
          23.472923
        ],
        [
          117.076463,
          23.474896
        ],
        [
          117.072285,
          23.475683
        ],
        [
          117.064476,
          23.475671
        ],
        [
          117.058483,
          23.473401
        ],
        [
          117.05423,
          23.470459
        ],
        [
          117.051233,
          23.467855
        ],
        [
          117.048795,
          23.46435
        ],
        [
          117.048462,
          23.460167
        ],
        [
          117.045347,
          23.458011
        ],
        [
          117.04263,
          23.457666
        ],
        [
          117.040536,
          23.455402
        ],
        [
          117.038495,
          23.450716
        ],
        [
          117.037474,
          23.44721
        ],
        [
          117.034993,
          23.448094
        ],
        [
          117.031363,
          23.445224
        ],
        [
          117.029312,
          23.443286
        ],
        [
          117.025413,
          23.44038
        ],
        [
          117.024929,
          23.437631
        ],
        [
          117.022814,
          23.436807
        ],
        [
          117.019634,
          23.437449
        ],
        [
          117.016648,
          23.438793
        ],
        [
          117.01174,
          23.442953
        ],
        [
          117.008239,
          23.447058
        ],
        [
          117.00579,
          23.451145
        ],
        [
          117.003534,
          23.455583
        ],
        [
          117.001365,
          23.457345
        ],
        [
          116.999625,
          23.457775
        ],
        [
          116.997015,
          23.457297
        ],
        [
          116.993717,
          23.457648
        ],
        [
          116.991623,
          23.458163
        ],
        [
          116.989152,
          23.459743
        ],
        [
          116.98563,
          23.460796
        ],
        [
          116.982837,
          23.46076
        ],
        [
          116.981516,
          23.460391
        ],
        [
          116.974449,
          23.457121
        ],
        [
          116.969282,
          23.453634
        ],
        [
          116.961399,
          23.447234
        ],
        [
          116.958681,
          23.446598
        ],
        [
          116.9546,
          23.446592
        ],
        [
          116.951077,
          23.446265
        ],
        [
          116.946276,
          23.442553
        ],
        [
          116.94474,
          23.43998
        ],
        [
          116.944912,
          23.437176
        ],
        [
          116.945599,
          23.434875
        ],
        [
          116.945728,
          23.432441
        ],
        [
          116.943838,
          23.428898
        ],
        [
          116.943892,
          23.42561
        ],
        [
          116.945073,
          23.422818
        ],
        [
          116.946136,
          23.421995
        ],
        [
          116.949176,
          23.42062
        ],
        [
          116.95431,
          23.419154
        ],
        [
          116.958617,
          23.418809
        ],
        [
          116.961119,
          23.419288
        ],
        [
          116.962129,
          23.418755
        ],
        [
          116.964696,
          23.416362
        ],
        [
          116.966586,
          23.415708
        ],
        [
          116.969776,
          23.415212
        ],
        [
          116.975039,
          23.415218
        ],
        [
          116.978508,
          23.414533
        ],
        [
          116.981741,
          23.414515
        ],
        [
          116.98607,
          23.415327
        ],
        [
          116.990065,
          23.415109
        ],
        [
          116.993771,
          23.415412
        ],
        [
          116.995307,
          23.415914
        ],
        [
          116.999506,
          23.416241
        ],
        [
          117.005543,
          23.415527
        ],
        [
          117.015854,
          23.414691
        ],
        [
          117.018947,
          23.41497
        ],
        [
          117.022405,
          23.414649
        ],
        [
          117.02508,
          23.415157
        ],
        [
          117.02885,
          23.414806
        ],
        [
          117.030719,
          23.413837
        ],
        [
          117.030869,
          23.413013
        ],
        [
          117.029279,
          23.407962
        ],
        [
          117.029913,
          23.406345
        ],
        [
          117.03784,
          23.404274
        ],
        [
          117.039891,
          23.403613
        ],
        [
          117.045326,
          23.402511
        ],
        [
          117.050503,
          23.400785
        ],
        [
          117.054971,
          23.400373
        ],
        [
          117.056872,
          23.400615
        ],
        [
          117.064347,
          23.404776
        ],
        [
          117.06989,
          23.406799
        ],
        [
          117.074379,
          23.407017
        ],
        [
          117.079105,
          23.40901
        ],
        [
          117.081973,
          23.409131
        ],
        [
          117.086215,
          23.408628
        ],
        [
          117.089652,
          23.407726
        ],
        [
          117.098782,
          23.405049
        ],
        [
          117.100361,
          23.40431
        ],
        [
          117.100898,
          23.402965
        ],
        [
          117.100425,
          23.400439
        ],
        [
          117.100801,
          23.398962
        ],
        [
          117.103314,
          23.397738
        ],
        [
          117.103647,
          23.396969
        ],
        [
          117.102294,
          23.395079
        ],
        [
          117.102187,
          23.393637
        ],
        [
          117.103733,
          23.392916
        ],
        [
          117.107245,
          23.394431
        ],
        [
          117.109383,
          23.396514
        ],
        [
          117.112047,
          23.398501
        ],
        [
          117.114076,
          23.399446
        ],
        [
          117.118136,
          23.399258
        ],
        [
          117.12037,
          23.398047
        ],
        [
          117.120929,
          23.396411
        ],
        [
          117.120993,
          23.393377
        ],
        [
          117.122239,
          23.390984
        ],
        [
          117.124291,
          23.389718
        ],
        [
          117.125547,
          23.389754
        ],
        [
          117.127481,
          23.390572
        ],
        [
          117.128866,
          23.392171
        ],
        [
          117.129328,
          23.394225
        ],
        [
          117.130402,
          23.395255
        ],
        [
          117.132851,
          23.395024
        ],
        [
          117.13574,
          23.393577
        ],
        [
          117.136707,
          23.393486
        ],
        [
          117.136997,
          23.394915
        ],
        [
          117.135676,
          23.395927
        ],
        [
          117.13603,
          23.396757
        ],
        [
          117.13747,
          23.396648
        ],
        [
          117.140058,
          23.397914
        ],
        [
          117.142937,
          23.400433
        ],
        [
          117.144344,
          23.404552
        ],
        [
          117.145525,
          23.411826
        ],
        [
          117.145267,
          23.415696
        ],
        [
          117.143828,
          23.418101
        ],
        [
          117.14183,
          23.420214
        ],
        [
          117.135977,
          23.422643
        ],
        [
          117.135966,
          23.423448
        ],
        [
          117.137856,
          23.424472
        ],
        [
          117.138715,
          23.42555
        ],
        [
          117.139478,
          23.427784
        ],
        [
          117.139005,
          23.430897
        ],
        [
          117.137824,
          23.432726
        ],
        [
          117.135622,
          23.434415
        ],
        [
          117.135354,
          23.435887
        ],
        [
          117.135751,
          23.437649
        ],
        [
          117.136836,
          23.439907
        ],
        [
          117.139757,
          23.442596
        ],
        [
          117.142109,
          23.442983
        ],
        [
          117.145976,
          23.438775
        ],
        [
          117.148586,
          23.438018
        ],
        [
          117.1498,
          23.440531
        ],
        [
          117.151873,
          23.442463
        ],
        [
          117.155342,
          23.442251
        ],
        [
          117.155718,
          23.443783
        ],
        [
          117.154794,
          23.44506
        ],
        [
          117.150111,
          23.447609
        ],
        [
          117.146685,
          23.448615
        ],
        [
          117.145117,
          23.450074
        ],
        [
          117.145869,
          23.453858
        ],
        [
          117.145407,
          23.456116
        ]
      ]
    ]
  }
}
