{
  "type": "Feature",
  "geometry": {
    "type": "Polygon",
    "coordinates": [
      [
        [
          116.5325173,
          23.1021012
        ],
        [
          116.5294563,
          23.1027162
        ],
        [
          116.5289449,
          23.1027275
        ],
        [
          116.5283563,
          23.1022342
        ],
        [
          116.5274213,
          23.1010142
        ],
        [
          116.5266989,
          23.1004635
        ],
        [
          116.5255313,
          23.1004262
        ],
        [
          116.5235483,
          23.1008362
        ],
        [
          116.5206513,
          23.1000692
        ],
        [
          116.5196577,
          23.0993333
        ],
        [
          116.5193326,
          23.0985994
        ],
        [
          116.5185863,
          23.0980922
        ],
        [
          116.5158333,
          23.0972902
        ],
        [
          116.5143867,
          23.0978061
        ],
        [
          116.5135297,
          23.0984857
        ],
        [
          116.5127613,
          23.0985944
        ],
        [
          116.5117743,
          23.0980922
        ],
        [
          116.5111061,
          23.0973245
        ],
        [
          116.5100283,
          23.0967022
        ],
        [
          116.5092592,
          23.0967944
        ],
        [
          116.5083135,
          23.0973925
        ],
        [
          116.5075398,
          23.0985415
        ],
        [
          116.5058935,
          23.0999082
        ],
        [
          116.5054206,
          23.1010091
        ],
        [
          116.5053223,
          23.1033842
        ],
        [
          116.5032373,
          23.1048722
        ],
        [
          116.5021109,
          23.1048419
        ],
        [
          116.5015523,
          23.1044802
        ],
        [
          116.5023731,
          23.1014727
        ],
        [
          116.5014127,
          23.1017038
        ],
        [
          116.5005963,
          23.1022082
        ],
        [
          116.4992093,
          23.1036512
        ],
        [
          116.4970195,
          23.1018692
        ],
        [
          116.4950361,
          23.102274
        ],
        [
          116.4934065,
          23.1019301
        ],
        [
          116.4917072,
          23.1043494
        ],
        [
          116.4904363,
          23.1052102
        ],
        [
          116.4880733,
          23.1057092
        ],
        [
          116.4850933,
          23.1051832
        ],
        [
          116.4832233,
          23.1063592
        ],
        [
          116.4805833,
          23.1057892
        ],
        [
          116.4772133,
          23.1060922
        ],
        [
          116.4743263,
          23.1069652
        ],
        [
          116.4708543,
          23.1065461
        ],
        [
          116.4698163,
          23.1059762
        ],
        [
          116.4657775,
          23.1016349
        ],
        [
          116.4598251,
          23.10158
        ],
        [
          116.458768,
          23.096877
        ],
        [
          116.4572608,
          23.0958032
        ],
        [
          116.4493191,
          23.0936859
        ],
        [
          116.4465217,
          23.0936566
        ],
        [
          116.4437354,
          23.0943498
        ],
        [
          116.4405559,
          23.0958467
        ],
        [
          116.4394034,
          23.0955285
        ],
        [
          116.4385983,
          23.0938163
        ],
        [
          116.4426135,
          23.0898681
        ],
        [
          116.441977,
          23.0883455
        ],
        [
          116.4351443,
          23.0848587
        ],
        [
          116.4325302,
          23.0827667
        ],
        [
          116.4318742,
          23.079722
        ],
        [
          116.4318438,
          23.0775967
        ],
        [
          116.4309497,
          23.0752196
        ],
        [
          116.4291135,
          23.0733631
        ],
        [
          116.4288032,
          23.0722892
        ],
        [
          116.4280939,
          23.0715007
        ],
        [
          116.4263398,
          23.0709515
        ],
        [
          116.4245083,
          23.0693912
        ],
        [
          116.4234647,
          23.0667435
        ],
        [
          116.4221491,
          23.0658661
        ],
        [
          116.4202884,
          23.0666153
        ],
        [
          116.4181014,
          23.066289
        ],
        [
          116.4161272,
          23.0633057
        ],
        [
          116.4139473,
          23.0621012
        ],
        [
          116.4102793,
          23.0604522
        ],
        [
          116.4071663,
          23.0594542
        ],
        [
          116.4007911,
          23.056423
        ],
        [
          116.400081,
          23.0548769
        ],
        [
          116.3990466,
          23.0538843
        ],
        [
          116.393183,
          23.0511837
        ],
        [
          116.3912415,
          23.0470071
        ],
        [
          116.3893501,
          23.0461369
        ],
        [
          116.3869126,
          23.0457486
        ],
        [
          116.385499,
          23.0457057
        ],
        [
          116.38411,
          23.0454881
        ],
        [
          116.3841673,
          23.0445347
        ],
        [
          116.3835319,
          23.0437324
        ],
        [
          116.3811631,
          23.0429293
        ],
        [
          116.3789757,
          23.0426103
        ],
        [
          116.3772631,
          23.0427745
        ],
        [
          116.3758451,
          23.0423679
        ],
        [
          116.3732714,
          23.0444383
        ],
        [
          116.3747431,
          23.0451118
        ],
        [
          116.3746102,
          23.0456693
        ],
        [
          116.371769,
          23.0471662
        ],
        [
          116.3691084,
          23.0468572
        ],
        [
          116.3675569,
          23.04744
        ],
        [
          116.3660863,
          23.0484184
        ],
        [
          116.3654509,
          23.049343
        ],
        [
          116.3675402,
          23.0499921
        ],
        [
          116.3680469,
          23.0504093
        ],
        [
          116.3680833,
          23.0512907
        ],
        [
          116.3685437,
          23.0516056
        ],
        [
          116.3691015,
          23.0513712
        ],
        [
          116.3695865,
          23.0509473
        ],
        [
          116.3713245,
          23.0502844
        ],
        [
          116.3719551,
          23.0502844
        ],
        [
          116.3726641,
          23.0506204
        ],
        [
          116.3744587,
          23.0508324
        ],
        [
          116.3750528,
          23.0515576
        ],
        [
          116.3748224,
          23.0519147
        ],
        [
          116.3728217,
          23.0517919
        ],
        [
          116.3722233,
          23.051442
        ],
        [
          116.3712104,
          23.0514991
        ],
        [
          116.3707496,
          23.0520012
        ],
        [
          116.3706419,
          23.0525539
        ],
        [
          116.3703539,
          23.0529556
        ],
        [
          116.369422,
          23.0531141
        ],
        [
          116.368045,
          23.0529182
        ],
        [
          116.3669241,
          23.0529022
        ],
        [
          116.3666953,
          23.0534331
        ],
        [
          116.3670263,
          23.0541962
        ],
        [
          116.368304,
          23.055558
        ],
        [
          116.3682797,
          23.0560154
        ],
        [
          116.3670589,
          23.0570108
        ],
        [
          116.3661737,
          23.05816
        ],
        [
          116.3637473,
          23.0599893
        ],
        [
          116.3621789,
          23.0603016
        ],
        [
          116.3612331,
          23.0601789
        ],
        [
          116.360348,
          23.0596099
        ],
        [
          116.3590506,
          23.0596229
        ],
        [
          116.3582117,
          23.0600366
        ],
        [
          116.3563929,
          23.0605944
        ],
        [
          116.3553173,
          23.0607608
        ],
        [
          116.3545736,
          23.0611236
        ],
        [
          116.3545372,
          23.0614917
        ],
        [
          116.3557013,
          23.0620496
        ],
        [
          116.3558225,
          23.0626409
        ],
        [
          116.3524682,
          23.0631838
        ],
        [
          116.3514943,
          23.0626371
        ],
        [
          116.3511906,
          23.0610974
        ],
        [
          116.3500221,
          23.0605548
        ],
        [
          116.3479068,
          23.0606639
        ],
        [
          116.3460637,
          23.0604742
        ],
        [
          116.3454253,
          23.0608009
        ],
        [
          116.345304,
          23.0619389
        ],
        [
          116.3448554,
          23.0620839
        ],
        [
          116.3435047,
          23.0611471
        ],
        [
          116.3425074,
          23.0609351
        ],
        [
          116.3420379,
          23.0611195
        ],
        [
          116.3403967,
          23.0637186
        ],
        [
          116.3409923,
          23.0648462
        ],
        [
          116.3430993,
          23.0662722
        ],
        [
          116.3438349,
          23.0672005
        ],
        [
          116.3437501,
          23.0674794
        ],
        [
          116.3422664,
          23.068307
        ],
        [
          116.3395701,
          23.0727518
        ],
        [
          116.3391173,
          23.0769271
        ],
        [
          116.3383525,
          23.0786971
        ],
        [
          116.3382752,
          23.0814594
        ],
        [
          116.3364504,
          23.0852693
        ],
        [
          116.335205,
          23.0863869
        ],
        [
          116.3351983,
          23.0871142
        ],
        [
          116.3360105,
          23.0890773
        ],
        [
          116.3356225,
          23.0898915
        ],
        [
          116.3326593,
          23.0913763
        ],
        [
          116.3287836,
          23.0950678
        ],
        [
          116.3285661,
          23.0971533
        ],
        [
          116.324434,
          23.0977934
        ],
        [
          116.3236759,
          23.0981624
        ],
        [
          116.3229351,
          23.0990169
        ],
        [
          116.3231534,
          23.0994184
        ],
        [
          116.3237839,
          23.0995857
        ],
        [
          116.3243431,
          23.1000794
        ],
        [
          116.3251533,
          23.1027599
        ],
        [
          116.3223769,
          23.1033348
        ],
        [
          116.3209458,
          23.1040711
        ],
        [
          116.3161093,
          23.1018785
        ],
        [
          116.3148482,
          23.1016442
        ],
        [
          116.3142423,
          23.1021627
        ],
        [
          116.3136482,
          23.1033895
        ],
        [
          116.3126903,
          23.1042595
        ],
        [
          116.3082815,
          23.1053078
        ],
        [
          116.3053749,
          23.1042595
        ],
        [
          116.3025835,
          23.1049167
        ],
        [
          116.3009873,
          23.1043761
        ],
        [
          116.3002694,
          23.1038494
        ],
        [
          116.2988703,
          23.1015752
        ],
        [
          116.2984585,
          23.1004932
        ],
        [
          116.2983099,
          23.0986525
        ],
        [
          116.2950217,
          23.0989023
        ],
        [
          116.2943122,
          23.0998747
        ],
        [
          116.2923007,
          23.1005843
        ],
        [
          116.2914295,
          23.101163
        ],
        [
          116.2906958,
          23.1008069
        ],
        [
          116.2883356,
          23.1008771
        ],
        [
          116.2868555,
          23.1018106
        ],
        [
          116.286436,
          23.1024339
        ],
        [
          116.28622,
          23.1034485
        ],
        [
          116.2865244,
          23.1047006
        ],
        [
          116.2850393,
          23.1062706
        ],
        [
          116.2849748,
          23.1073167
        ],
        [
          116.2844424,
          23.1076208
        ],
        [
          116.2846326,
          23.1092991
        ],
        [
          116.2851846,
          23.1103069
        ],
        [
          116.2859509,
          23.1102773
        ],
        [
          116.2863025,
          23.1099298
        ],
        [
          116.2868301,
          23.1096244
        ],
        [
          116.2873511,
          23.1099891
        ],
        [
          116.2883083,
          23.1112862
        ],
        [
          116.2873232,
          23.1131445
        ],
        [
          116.2869118,
          23.1132038
        ],
        [
          116.2864843,
          23.1130109
        ],
        [
          116.2860246,
          23.1122987
        ],
        [
          116.2853073,
          23.1120436
        ],
        [
          116.2835938,
          23.1121812
        ],
        [
          116.2825772,
          23.1125108
        ],
        [
          116.2821578,
          23.1130523
        ],
        [
          116.282215,
          23.1134472
        ],
        [
          116.2826022,
          23.1140282
        ],
        [
          116.2832344,
          23.1153955
        ],
        [
          116.2828392,
          23.1158406
        ],
        [
          116.2799087,
          23.1172608
        ],
        [
          116.277263,
          23.1155842
        ],
        [
          116.2727869,
          23.1180715
        ],
        [
          116.2679443,
          23.1198105
        ],
        [
          116.264686,
          23.1211956
        ],
        [
          116.2615361,
          23.1224405
        ],
        [
          116.2602456,
          23.1237782
        ],
        [
          116.2593906,
          23.1235409
        ],
        [
          116.2586683,
          23.1221542
        ],
        [
          116.2579433,
          23.1217677
        ],
        [
          116.257177,
          23.1220867
        ],
        [
          116.256733,
          23.1240957
        ],
        [
          116.2570072,
          23.1249116
        ],
        [
          116.2570371,
          23.1256347
        ],
        [
          116.256424,
          23.1258424
        ],
        [
          116.2543988,
          23.1254705
        ],
        [
          116.2520423,
          23.1247552
        ],
        [
          116.2511273,
          23.1250582
        ],
        [
          116.2495043,
          23.1270182
        ],
        [
          116.2504493,
          23.1307322
        ],
        [
          116.2482613,
          23.1320332
        ],
        [
          116.2469873,
          23.1333241
        ],
        [
          116.2461553,
          23.1354802
        ],
        [
          116.2458983,
          23.1374932
        ],
        [
          116.2410283,
          23.1416882
        ],
        [
          116.2400338,
          23.1430115
        ],
        [
          116.2336228,
          23.1440175
        ],
        [
          116.2297808,
          23.1441245
        ],
        [
          116.2272938,
          23.1459685
        ],
        [
          116.2189618,
          23.1471085
        ],
        [
          116.2170918,
          23.1485155
        ],
        [
          116.2162698,
          23.1528885
        ],
        [
          116.2163828,
          23.1561035
        ],
        [
          116.2159518,
          23.1567355
        ],
        [
          116.2131678,
          23.1577775
        ],
        [
          116.2034588,
          23.1608675
        ],
        [
          116.2016098,
          23.1629695
        ],
        [
          116.2007978,
          23.1658275
        ],
        [
          116.1991538,
          23.1696655
        ],
        [
          116.1979318,
          23.1736735
        ],
        [
          116.1969148,
          23.1784545
        ],
        [
          116.1948488,
          23.1813125
        ],
        [
          116.1921678,
          23.1838145
        ],
        [
          116.1890648,
          23.1838325
        ],
        [
          116.1872058,
          23.1821145
        ],
        [
          116.1865788,
          23.1796395
        ],
        [
          116.1865578,
          23.1746705
        ],
        [
          116.1867638,
          23.1725685
        ],
        [
          116.1859218,
          23.1706545
        ],
        [
          116.1824178,
          23.1714385
        ],
        [
          116.1770448,
          23.1708775
        ],
        [
          116.1720828,
          23.1701375
        ],
        [
          116.1700068,
          23.1693815
        ],
        [
          116.1646438,
          23.1703605
        ],
        [
          116.1621578,
          23.1694075
        ],
        [
          116.1600928,
          23.1690335
        ],
        [
          116.1561788,
          23.1701915
        ],
        [
          116.1526548,
          23.1723015
        ],
        [
          116.1491618,
          23.1751775
        ],
        [
          116.1477128,
          23.1746165
        ],
        [
          116.1466748,
          23.1732815
        ],
        [
          116.1464698,
          23.1717585
        ],
        [
          116.1481038,
          23.1662105
        ],
        [
          116.1476818,
          23.1631565
        ],
        [
          116.1462228,
          23.1601105
        ],
        [
          116.1468298,
          23.1566645
        ],
        [
          116.1466238,
          23.1545715
        ],
        [
          116.1430998,
          23.1530485
        ],
        [
          116.1412298,
          23.1515345
        ],
        [
          116.1386371,
          23.1512318
        ],
        [
          116.1363399,
          23.1518151
        ],
        [
          116.1313919,
          23.1539101
        ],
        [
          116.127033,
          23.1568516
        ],
        [
          116.1240589,
          23.159389
        ],
        [
          116.1210647,
          23.1623872
        ],
        [
          116.1128518,
          23.1675303
        ],
        [
          116.1073228,
          23.1698297
        ],
        [
          116.1050546,
          23.1701755
        ],
        [
          116.1003443,
          23.1724831
        ],
        [
          116.0984382,
          23.1738629
        ],
        [
          116.0882443,
          23.1795259
        ],
        [
          116.0837871,
          23.1804242
        ],
        [
          116.079185,
          23.1816633
        ],
        [
          116.0744055,
          23.1838989
        ],
        [
          116.0719795,
          23.1857177
        ],
        [
          116.0698709,
          23.1853553
        ],
        [
          116.0667348,
          23.1821415
        ],
        [
          116.0635698,
          23.1810365
        ],
        [
          116.0588224,
          23.1797939
        ],
        [
          116.0569317,
          23.1770555
        ],
        [
          116.0553545,
          23.1738516
        ],
        [
          116.0537653,
          23.1650648
        ],
        [
          116.053236,
          23.1613162
        ],
        [
          116.0542587,
          23.1595542
        ],
        [
          116.0578465,
          23.1588053
        ],
        [
          116.0616659,
          23.1587803
        ],
        [
          116.0637649,
          23.1565348
        ],
        [
          116.0591528,
          23.1536275
        ],
        [
          116.0509377,
          23.1514817
        ],
        [
          116.0496095,
          23.1451466
        ],
        [
          116.0478167,
          23.1424588
        ],
        [
          116.0462342,
          23.1393441
        ],
        [
          116.0452434,
          23.1359741
        ],
        [
          116.0452677,
          23.1310388
        ],
        [
          116.0461461,
          23.1280657
        ],
        [
          116.0491125,
          23.1249615
        ],
        [
          116.0506022,
          23.1200311
        ],
        [
          116.0465358,
          23.1164045
        ],
        [
          116.0434538,
          23.1120395
        ],
        [
          116.0414708,
          23.1077185
        ],
        [
          116.0380598,
          23.1051795
        ],
        [
          116.0339608,
          23.1041285
        ],
        [
          116.0284028,
          23.1036475
        ],
        [
          116.0220438,
          23.1051615
        ],
        [
          116.0211698,
          23.1060795
        ],
        [
          116.0215608,
          23.1085295
        ],
        [
          116.0206568,
          23.1102485
        ],
        [
          116.0203788,
          23.1126365
        ],
        [
          116.0210778,
          23.1149435
        ],
        [
          116.0193518,
          23.1186225
        ],
        [
          116.0168348,
          23.1213215
        ],
        [
          116.0150468,
          23.1219635
        ],
        [
          116.0096218,
          23.1203505
        ],
        [
          116.0050918,
          23.1178385
        ],
        [
          116.0020098,
          23.1177765
        ],
        [
          116.0007968,
          23.1199145
        ],
        [
          115.9943758,
          23.1226315
        ],
        [
          115.9901538,
          23.1206005
        ],
        [
          115.9863565,
          23.1197382
        ],
        [
          115.9841228,
          23.1175265
        ],
        [
          115.9844308,
          23.1157455
        ],
        [
          115.9865678,
          23.1116825
        ],
        [
          115.9869161,
          23.1075694
        ],
        [
          115.9841222,
          23.1043655
        ],
        [
          115.9792476,
          23.1008906
        ],
        [
          115.975205,
          23.0987003
        ],
        [
          115.9714494,
          23.0989218
        ],
        [
          115.9587194,
          23.1026645
        ],
        [
          115.951967,
          23.1040684
        ],
        [
          115.9488466,
          23.1069818
        ],
        [
          115.9440152,
          23.108244
        ],
        [
          115.9401766,
          23.1084041
        ],
        [
          115.937022,
          23.1096147
        ],
        [
          115.9333145,
          23.110668
        ],
        [
          115.9281335,
          23.1108218
        ],
        [
          115.9213481,
          23.1137009
        ],
        [
          115.9187158,
          23.1138738
        ],
        [
          115.9173413,
          23.1095582
        ],
        [
          115.9165083,
          23.1055492
        ],
        [
          115.9163033,
          23.1028672
        ],
        [
          115.9171253,
          23.1007732
        ],
        [
          115.9200123,
          23.0977172
        ],
        [
          115.9237413,
          23.0948482
        ],
        [
          115.9268443,
          23.0914182
        ],
        [
          115.9291143,
          23.0879882
        ],
        [
          115.9333573,
          23.0883352
        ],
        [
          115.9353713,
          23.0867492
        ],
        [
          115.9353203,
          23.0849491
        ],
        [
          115.9338613,
          23.0832742
        ],
        [
          115.9318273,
          23.0795582
        ],
        [
          115.9305843,
          23.0762792
        ],
        [
          115.9318883,
          23.0710392
        ],
        [
          115.9331733,
          23.0698992
        ],
        [
          115.9384123,
          23.0675552
        ],
        [
          115.9403643,
          23.0675282
        ],
        [
          115.9443093,
          23.0689012
        ],
        [
          115.9458203,
          23.0687042
        ],
        [
          115.9458813,
          23.0667712
        ],
        [
          115.9466113,
          23.0640262
        ],
        [
          115.9500633,
          23.0612102
        ],
        [
          115.9526113,
          23.0602742
        ],
        [
          115.9540183,
          23.0604172
        ],
        [
          115.9566793,
          23.0587502
        ],
        [
          115.9602853,
          23.0557112
        ],
        [
          115.9604603,
          23.0548462
        ],
        [
          115.9593193,
          23.0533402
        ],
        [
          115.9596073,
          23.0523242
        ],
        [
          115.9624943,
          23.0500342
        ],
        [
          115.9604803,
          23.0480912
        ],
        [
          115.9597613,
          23.0463442
        ],
        [
          115.9573573,
          23.0442582
        ],
        [
          115.9557853,
          23.0445702
        ],
        [
          115.9535043,
          23.0420302
        ],
        [
          115.9517893,
          23.0420212
        ],
        [
          115.9508443,
          23.0410492
        ],
        [
          115.9504433,
          23.0375642
        ],
        [
          115.9509363,
          23.0343282
        ],
        [
          115.9488813,
          23.0303081
        ],
        [
          115.9473923,
          23.0289442
        ],
        [
          115.9462613,
          23.0270372
        ],
        [
          115.9446283,
          23.0275982
        ],
        [
          115.9422963,
          23.0294612
        ],
        [
          115.9380423,
          23.0304422
        ],
        [
          115.9375493,
          23.0315832
        ],
        [
          115.9363883,
          23.0324832
        ],
        [
          115.9332143,
          23.0331522
        ],
        [
          115.9323513,
          23.0327682
        ],
        [
          115.9303883,
          23.0307002
        ],
        [
          115.9270183,
          23.0301212
        ],
        [
          115.9256013,
          23.0282672
        ],
        [
          115.9247383,
          23.0241302
        ],
        [
          115.9230943,
          23.0230792
        ],
        [
          115.9221283,
          23.0261182
        ],
        [
          115.9206183,
          23.0281602
        ],
        [
          115.9185633,
          23.0274822
        ],
        [
          115.9179263,
          23.0267162
        ],
        [
          115.9176383,
          23.0248352
        ],
        [
          115.9185323,
          23.0214742
        ],
        [
          115.9191383,
          23.0203332
        ],
        [
          115.9232893,
          23.0169992
        ],
        [
          115.9268443,
          23.0155541
        ],
        [
          115.9296183,
          23.0131032
        ],
        [
          115.9321863,
          23.0089482
        ],
        [
          115.9345903,
          23.0080572
        ],
        [
          115.9377033,
          23.0089042
        ],
        [
          115.9404163,
          23.0147702
        ],
        [
          115.9414533,
          23.0175782
        ],
        [
          115.9441353,
          23.0137712
        ],
        [
          115.9463953,
          23.0177832
        ],
        [
          115.9466003,
          23.0194152
        ],
        [
          115.9490563,
          23.0206632
        ],
        [
          115.9499913,
          23.0205652
        ],
        [
          115.9505153,
          23.0220982
        ],
        [
          115.9499503,
          23.0243272
        ],
        [
          115.9512753,
          23.0249862
        ],
        [
          115.9542243,
          23.0241932
        ],
        [
          115.9554873,
          23.0223122
        ],
        [
          115.9554983,
          23.0201722
        ],
        [
          115.9529703,
          23.0135662
        ],
        [
          115.9520043,
          23.0121582
        ],
        [
          115.9485423,
          23.0103122
        ],
        [
          115.9466113,
          23.0074242
        ],
        [
          115.9443303,
          23.0030372
        ],
        [
          115.9414223,
          22.9997202
        ],
        [
          115.9410223,
          22.9987752
        ],
        [
          115.9426453,
          22.9974742
        ],
        [
          115.9436423,
          22.9957172
        ],
        [
          115.9449263,
          22.9950041
        ],
        [
          115.9452753,
          22.9935502
        ],
        [
          115.9442483,
          22.9920972
        ],
        [
          115.9413203,
          22.9924092
        ],
        [
          115.9402003,
          22.9909732
        ],
        [
          115.9377443,
          22.9905812
        ],
        [
          115.9367273,
          22.9897702
        ],
        [
          115.9371283,
          22.9883162
        ],
        [
          115.9366253,
          22.9838762
        ],
        [
          115.9388643,
          22.9830552
        ],
        [
          115.9393273,
          22.9818962
        ],
        [
          115.9413613,
          22.9807632
        ],
        [
          115.9421313,
          22.9775441
        ],
        [
          115.9442993,
          22.9754221
        ],
        [
          115.9441963,
          22.9717302
        ],
        [
          115.9421423,
          22.9687241
        ],
        [
          115.9415873,
          22.9660222
        ],
        [
          115.9421213,
          22.9651932
        ],
        [
          115.9439193,
          22.9641142
        ],
        [
          115.9434053,
          22.9637392
        ],
        [
          115.9375183,
          22.9636952
        ],
        [
          115.9368713,
          22.9622681
        ],
        [
          115.9382583,
          22.9609832
        ],
        [
          115.9392963,
          22.9590032
        ],
        [
          115.9407653,
          22.9584592
        ],
        [
          115.9450803,
          22.9580132
        ],
        [
          115.9478133,
          22.9588252
        ],
        [
          115.9523853,
          22.9592892
        ],
        [
          115.9545423,
          22.9597882
        ],
        [
          115.9554983,
          22.9591732
        ],
        [
          115.9562783,
          22.9559982
        ],
        [
          115.9590523,
          22.9523682
        ],
        [
          115.9622655,
          22.9510643
        ],
        [
          115.9615598,
          22.9485314
        ],
        [
          115.9626483,
          22.9465252
        ],
        [
          115.9640558,
          22.9455977
        ],
        [
          115.9656482,
          22.9435647
        ],
        [
          115.9686959,
          22.9428287
        ],
        [
          115.9693112,
          22.9424954
        ],
        [
          115.9680263,
          22.9418788
        ],
        [
          115.9682859,
          22.9415235
        ],
        [
          115.9709951,
          22.9423615
        ],
        [
          115.9715148,
          22.9448229
        ],
        [
          115.972287,
          22.9450144
        ],
        [
          115.9751084,
          22.9420196
        ],
        [
          115.9757686,
          22.9411494
        ],
        [
          115.975828,
          22.9401784
        ],
        [
          115.9741921,
          22.9389441
        ],
        [
          115.9732778,
          22.9379901
        ],
        [
          115.9731342,
          22.9371308
        ],
        [
          115.9734529,
          22.9350866
        ],
        [
          115.9758581,
          22.9322084
        ],
        [
          115.9765743,
          22.9299102
        ],
        [
          115.9776894,
          22.9283358
        ],
        [
          115.9793859,
          22.9276573
        ],
        [
          115.9855592,
          22.9335951
        ],
        [
          115.9885329,
          22.9353949
        ],
        [
          115.9935626,
          22.9365058
        ],
        [
          115.9957507,
          22.9385814
        ],
        [
          115.9981742,
          22.9423951
        ],
        [
          116.0006297,
          22.9450263
        ],
        [
          116.0022593,
          22.9477191
        ],
        [
          116.0042065,
          22.9488585
        ],
        [
          116.0064834,
          22.9487146
        ],
        [
          116.0086315,
          22.9471217
        ],
        [
          116.0095244,
          22.9454772
        ],
        [
          116.0091572,
          22.9428716
        ],
        [
          116.0096765,
          22.9406121
        ],
        [
          116.0126008,
          22.9365006
        ],
        [
          116.0149251,
          22.9359574
        ],
        [
          116.016309,
          22.9372731
        ],
        [
          116.0173136,
          22.9400483
        ],
        [
          116.0190547,
          22.9409323
        ],
        [
          116.0223417,
          22.9413413
        ],
        [
          116.0259257,
          22.9408511
        ],
        [
          116.0289538,
          22.938228
        ],
        [
          116.0325922,
          22.9375254
        ],
        [
          116.0349254,
          22.9320136
        ],
        [
          116.0409825,
          22.9304736
        ],
        [
          116.0432917,
          22.9256057
        ],
        [
          116.0476364,
          22.9241235
        ],
        [
          116.0553909,
          22.9226155
        ],
        [
          116.059969,
          22.920096
        ],
        [
          116.0663967,
          22.918926
        ],
        [
          116.0771163,
          22.9179376
        ],
        [
          116.0791059,
          22.9153113
        ],
        [
          116.0845698,
          22.9037786
        ],
        [
          116.0920393,
          22.9009388
        ],
        [
          116.0968458,
          22.8984172
        ],
        [
          116.09841,
          22.8936237
        ],
        [
          116.1140791,
          22.8956946
        ],
        [
          116.122153,
          22.8957481
        ],
        [
          116.1259846,
          22.897028
        ],
        [
          116.1278821,
          22.9011173
        ],
        [
          116.12932,
          22.9020806
        ],
        [
          116.131301,
          22.9019767
        ],
        [
          116.1383848,
          22.8983284
        ],
        [
          116.1399342,
          22.8952414
        ],
        [
          116.1404147,
          22.8935988
        ],
        [
          116.1411939,
          22.8926466
        ],
        [
          116.1432881,
          22.8918415
        ],
        [
          116.1448464,
          22.8915779
        ],
        [
          116.1464048,
          22.8914753
        ],
        [
          116.1512744,
          22.888973
        ],
        [
          116.1521967,
          22.8895883
        ],
        [
          116.1578416,
          22.8907602
        ],
        [
          116.1582546,
          22.8920259
        ],
        [
          116.1577457,
          22.8923628
        ],
        [
          116.1580002,
          22.8935786
        ],
        [
          116.1601945,
          22.893271
        ],
        [
          116.1621504,
          22.8940181
        ],
        [
          116.1641222,
          22.8937105
        ],
        [
          116.1680123,
          22.8961652
        ],
        [
          116.1682988,
          22.8989717
        ],
        [
          116.1666733,
          22.899324
        ],
        [
          116.1660594,
          22.9026117
        ],
        [
          116.1654857,
          22.9082926
        ],
        [
          116.1657332,
          22.9093087
        ],
        [
          116.1666176,
          22.9093747
        ],
        [
          116.1666123,
          22.9103224
        ],
        [
          116.1668677,
          22.9106047
        ],
        [
          116.1671401,
          22.9106517
        ],
        [
          116.1677282,
          22.9102632
        ],
        [
          116.1678474,
          22.911518
        ],
        [
          116.1682561,
          22.9121454
        ],
        [
          116.1719511,
          22.9144039
        ],
        [
          116.170822,
          22.9178327
        ],
        [
          116.1706347,
          22.9207969
        ],
        [
          116.1708357,
          22.9225581
        ],
        [
          116.1723214,
          22.922971
        ],
        [
          116.1752092,
          22.9264142
        ],
        [
          116.1804297,
          22.9270294
        ],
        [
          116.1862361,
          22.9303697
        ],
        [
          116.203317,
          22.932258
        ],
        [
          116.2038595,
          22.9314454
        ],
        [
          116.2053689,
          22.930957
        ],
        [
          116.2054197,
          22.9304962
        ],
        [
          116.2060995,
          22.9303226
        ],
        [
          116.2071548,
          22.9302641
        ],
        [
          116.2083657,
          22.9304438
        ],
        [
          116.2089421,
          22.9288485
        ],
        [
          116.21034,
          22.9290169
        ],
        [
          116.2115522,
          22.9270815
        ],
        [
          116.2144658,
          22.9278181
        ],
        [
          116.2159203,
          22.9248832
        ],
        [
          116.2164856,
          22.9250669
        ],
        [
          116.2168992,
          22.9246637
        ],
        [
          116.2193287,
          22.9236174
        ],
        [
          116.2183805,
          22.9209492
        ],
        [
          116.219591,
          22.9199088
        ],
        [
          116.2355303,
          22.9285643
        ],
        [
          116.2381261,
          22.9252651
        ],
        [
          116.2423565,
          22.9282424
        ],
        [
          116.2407481,
          22.9304989
        ],
        [
          116.2426736,
          22.9322298
        ],
        [
          116.2535612,
          22.9427593
        ],
        [
          116.2721931,
          22.9527934
        ],
        [
          116.2930299,
          22.9600793
        ],
        [
          116.3143468,
          22.9622769
        ],
        [
          116.3265942,
          22.9509651
        ],
        [
          116.3291401,
          22.9506089
        ],
        [
          116.3292822,
          22.9480293
        ],
        [
          116.3357076,
          22.9444644
        ],
        [
          116.3404968,
          22.94542
        ],
        [
          116.3432905,
          22.9411199
        ],
        [
          116.3685683,
          22.9319222
        ],
        [
          116.3815179,
          22.9287315
        ],
        [
          116.3925713,
          22.9336572
        ],
        [
          116.3977589,
          22.9326632
        ],
        [
          116.4110732,
          22.939733
        ],
        [
          116.4219508,
          22.9364563
        ],
        [
          116.4427014,
          22.941961
        ],
        [
          116.457129,
          22.9500688
        ],
        [
          116.4650699,
          22.9466845
        ],
        [
          116.4747857,
          22.9470159
        ],
        [
          116.4766402,
          22.9448968
        ],
        [
          116.4835972,
          22.9418591
        ],
        [
          116.4843749,
          22.9372668
        ],
        [
          116.49595,
          22.938979
        ],
        [
          116.5036468,
          22.9418608
        ],
        [
          116.502967,
          22.9457723
        ],
        [
          116.5037067,
          22.9517467
        ],
        [
          116.5062856,
          22.9587771
        ],
        [
          116.5111888,
          22.9601713
        ],
        [
          116.5085639,
          22.9624193
        ],
        [
          116.510483,
          22.9688249
        ],
        [
          116.5146812,
          22.9656773
        ],
        [
          116.5158807,
          22.9736841
        ],
        [
          116.5131387,
          22.9743512
        ],
        [
          116.5126923,
          22.9804533
        ],
        [
          116.5181038,
          22.9958425
        ],
        [
          116.5314705,
          23.0043825
        ],
        [
          116.5388254,
          23.0055187
        ],
        [
          116.5426214,
          23.006661
        ],
        [
          116.5454502,
          22.9994175
        ],
        [
          116.5582057,
          23.0047673
        ],
        [
          116.5545025,
          23.012342
        ],
        [
          116.5668183,
          23.018408
        ],
        [
          116.5608521,
          23.0223151
        ],
        [
          116.5570002,
          23.0305727
        ],
        [
          116.5538628,
          23.0337914
        ],
        [
          116.5549326,
          23.0448615
        ],
        [
          116.5504473,
          23.0482492
        ],
        [
          116.5475533,
          23.0536817
        ],
        [
          116.5467751,
          23.0660902
        ],
        [
          116.550295,
          23.081152
        ],
        [
          116.5528285,
          23.0866104
        ],
        [
          116.5573364,
          23.0873758
        ],
        [
          116.5570278,
          23.0894576
        ],
        [
          116.553016,
          23.0887479
        ],
        [
          116.5442375,
          23.0978477
        ],
        [
          116.547175,
          23.1007034
        ],
        [
          116.5405393,
          23.1011702
        ],
        [
          116.5366241,
          23.1038462
        ],
        [
          116.5352947,
          23.1036952
        ],
        [
          116.5344577,
          23.1032423
        ],
        [
          116.5336864,
          23.1023668
        ],
        [
          116.5325173,
          23.1021012
        ]
      ]
    ]
  },
  "properties": {
    "adcode": 445224,
    "name": "惠来",
    "parent": "揭阳",
    "outer": false
  }
}
