{
  "type": "Feature",
  "geometry": {
    "type": "Polygon",
    "coordinates": [
      [
        [
          116.5273676,
          23.5823129
        ],
        [
          116.5282508,
          23.5842993
        ],
        [
          116.5288159,
          23.5853688
        ],
        [
          116.5280989,
          23.5879573
        ],
        [
          116.5281149,
          23.5889995
        ],
        [
          116.528321,
          23.589783
        ],
        [
          116.529106,
          23.5915236
        ],
        [
          116.529206,
          23.5930643
        ],
        [
          116.5278401,
          23.5932781
        ],
        [
          116.5266507,
          23.5929516
        ],
        [
          116.5248067,
          23.5925424
        ],
        [
          116.5240271,
          23.5920864
        ],
        [
          116.5225211,
          23.5921032
        ],
        [
          116.5216395,
          23.5926028
        ],
        [
          116.5210674,
          23.5941204
        ],
        [
          116.5220007,
          23.5968641
        ],
        [
          116.5222835,
          23.59975
        ],
        [
          116.5229598,
          23.6004215
        ],
        [
          116.5234499,
          23.6025193
        ],
        [
          116.5220011,
          23.603783
        ],
        [
          116.5224645,
          23.6058924
        ],
        [
          116.5248287,
          23.6071037
        ],
        [
          116.526298,
          23.6074958
        ],
        [
          116.5291994,
          23.6090626
        ],
        [
          116.5294598,
          23.6095275
        ],
        [
          116.5294923,
          23.6102402
        ],
        [
          116.5292918,
          23.6117085
        ],
        [
          116.5283863,
          23.6145492
        ],
        [
          116.5279531,
          23.6158141
        ],
        [
          116.5277757,
          23.6170941
        ],
        [
          116.5280661,
          23.6179484
        ],
        [
          116.5283322,
          23.6184462
        ],
        [
          116.5287236,
          23.6191412
        ],
        [
          116.5284319,
          23.6204707
        ],
        [
          116.5265621,
          23.6221876
        ],
        [
          116.5243082,
          23.6249323
        ],
        [
          116.522752,
          23.6264599
        ],
        [
          116.5215192,
          23.6281316
        ],
        [
          116.5210274,
          23.6302633
        ],
        [
          116.5210136,
          23.6320752
        ],
        [
          116.5220265,
          23.6337099
        ],
        [
          116.5227159,
          23.6366006
        ],
        [
          116.5223765,
          23.6377858
        ],
        [
          116.5214453,
          23.6401359
        ],
        [
          116.5192232,
          23.6429613
        ],
        [
          116.517648,
          23.6454323
        ],
        [
          116.5172383,
          23.6474693
        ],
        [
          116.5142677,
          23.6479991
        ],
        [
          116.5122698,
          23.6488172
        ],
        [
          116.5110208,
          23.6502197
        ],
        [
          116.5101613,
          23.6534232
        ],
        [
          116.5102349,
          23.6555774
        ],
        [
          116.5096716,
          23.6585324
        ],
        [
          116.50862,
          23.6591024
        ],
        [
          116.5069701,
          23.6592772
        ],
        [
          116.5039228,
          23.6585145
        ],
        [
          116.4994446,
          23.6592341
        ],
        [
          116.4941286,
          23.6588443
        ],
        [
          116.4901105,
          23.6598547
        ],
        [
          116.4887905,
          23.6598705
        ],
        [
          116.4843057,
          23.6591345
        ],
        [
          116.4824693,
          23.6596751
        ],
        [
          116.4802745,
          23.6613836
        ],
        [
          116.4793376,
          23.661397
        ],
        [
          116.4785125,
          23.6610733
        ],
        [
          116.4762056,
          23.6594732
        ],
        [
          116.4725004,
          23.6595493
        ],
        [
          116.4698896,
          23.6584074
        ],
        [
          116.4688567,
          23.6617863
        ],
        [
          116.4674289,
          23.6660349
        ],
        [
          116.466685,
          23.6699985
        ],
        [
          116.4656194,
          23.6721045
        ],
        [
          116.4603773,
          23.6751904
        ],
        [
          116.4597391,
          23.6767134
        ],
        [
          116.4562205,
          23.677731
        ],
        [
          116.4539648,
          23.6776743
        ],
        [
          116.4520596,
          23.678083
        ],
        [
          116.4475046,
          23.6796119
        ],
        [
          116.4437808,
          23.6802596
        ],
        [
          116.4418856,
          23.6783935
        ],
        [
          116.4400304,
          23.6721879
        ],
        [
          116.4392065,
          23.671622
        ],
        [
          116.4382697,
          23.6718263
        ],
        [
          116.4352016,
          23.6739017
        ],
        [
          116.4295475,
          23.6822298
        ],
        [
          116.4272922,
          23.6877766
        ],
        [
          116.4267743,
          23.6930737
        ],
        [
          116.4246059,
          23.694417
        ],
        [
          116.4222862,
          23.6952136
        ],
        [
          116.4090447,
          23.6950365
        ],
        [
          116.4026195,
          23.6957272
        ],
        [
          116.3992712,
          23.6967606
        ],
        [
          116.3964863,
          23.699407
        ],
        [
          116.3937232,
          23.700778
        ],
        [
          116.3915932,
          23.7027003
        ],
        [
          116.391046,
          23.7060248
        ],
        [
          116.3893391,
          23.7071346
        ],
        [
          116.3859256,
          23.7106366
        ],
        [
          116.3832381,
          23.7148462
        ],
        [
          116.3807622,
          23.7171126
        ],
        [
          116.3782332,
          23.7171399
        ],
        [
          116.3757576,
          23.7165079
        ],
        [
          116.3730056,
          23.7145712
        ],
        [
          116.3719106,
          23.7147019
        ],
        [
          116.3705357,
          23.7164402
        ],
        [
          116.3667901,
          23.7197855
        ],
        [
          116.3668481,
          23.722803
        ],
        [
          116.367881,
          23.7259854
        ],
        [
          116.3660596,
          23.7295448
        ],
        [
          116.3645729,
          23.7328666
        ],
        [
          116.363716,
          23.7354814
        ],
        [
          116.3620192,
          23.736378
        ],
        [
          116.3600198,
          23.7370569
        ],
        [
          116.3590656,
          23.7389211
        ],
        [
          116.3578244,
          23.739564
        ],
        [
          116.3557535,
          23.7416122
        ],
        [
          116.3560153,
          23.7442486
        ],
        [
          116.3548582,
          23.7460443
        ],
        [
          116.3539959,
          23.7460143
        ],
        [
          116.352926,
          23.745517
        ],
        [
          116.3519529,
          23.7451503
        ],
        [
          116.3502628,
          23.7454117
        ],
        [
          116.3491203,
          23.7463922
        ],
        [
          116.3479006,
          23.7485207
        ],
        [
          116.3461629,
          23.7496319
        ],
        [
          116.3454744,
          23.7544254
        ],
        [
          116.3442128,
          23.7550137
        ],
        [
          116.3413696,
          23.7564947
        ],
        [
          116.3390597,
          23.7572439
        ],
        [
          116.3386643,
          23.7580908
        ],
        [
          116.3392885,
          23.7590512
        ],
        [
          116.3365322,
          23.759545
        ],
        [
          116.3338398,
          23.7615328
        ],
        [
          116.3334985,
          23.7627427
        ],
        [
          116.3334948,
          23.7651797
        ],
        [
          116.3319939,
          23.7662656
        ],
        [
          116.3314397,
          23.7677583
        ],
        [
          116.3321503,
          23.7703072
        ],
        [
          116.3331776,
          23.7717103
        ],
        [
          116.3349124,
          23.772289
        ],
        [
          116.3348807,
          23.7729846
        ],
        [
          116.3326268,
          23.7748088
        ],
        [
          116.3307221,
          23.7765356
        ],
        [
          116.3264942,
          23.7758401
        ],
        [
          116.3226964,
          23.775336
        ],
        [
          116.3202262,
          23.7761909
        ],
        [
          116.3164575,
          23.7775241
        ],
        [
          116.315345,
          23.7781041
        ],
        [
          116.3144424,
          23.7779592
        ],
        [
          116.3141134,
          23.7774165
        ],
        [
          116.3140054,
          23.774173
        ],
        [
          116.313054,
          23.7737081
        ],
        [
          116.3092695,
          23.7734183
        ],
        [
          116.3021492,
          23.7725643
        ],
        [
          116.3014723,
          23.7715195
        ],
        [
          116.301979,
          23.7711427
        ],
        [
          116.3019054,
          23.7698728
        ],
        [
          116.2998895,
          23.7663373
        ],
        [
          116.2987469,
          23.7655531
        ],
        [
          116.2976381,
          23.7642175
        ],
        [
          116.2968764,
          23.7638563
        ],
        [
          116.295948,
          23.7623313
        ],
        [
          116.2950856,
          23.7616894
        ],
        [
          116.2939645,
          23.7614778
        ],
        [
          116.2930515,
          23.7613932
        ],
        [
          116.2913063,
          23.7616894
        ],
        [
          116.2892968,
          23.7628002
        ],
        [
          116.2875862,
          23.763026
        ],
        [
          116.2858756,
          23.7653425
        ],
        [
          116.2838738,
          23.7657886
        ],
        [
          116.2802525,
          23.7649928
        ],
        [
          116.278459,
          23.7649526
        ],
        [
          116.2770258,
          23.7637266
        ],
        [
          116.2746648,
          23.7627394
        ],
        [
          116.2728209,
          23.7617839
        ],
        [
          116.2704863,
          23.7616887
        ],
        [
          116.2666872,
          23.7599247
        ],
        [
          116.265989,
          23.7593305
        ],
        [
          116.2659774,
          23.7582833
        ],
        [
          116.2674458,
          23.7563829
        ],
        [
          116.2677057,
          23.7550832
        ],
        [
          116.2674399,
          23.7534118
        ],
        [
          116.2669544,
          23.752428
        ],
        [
          116.2671065,
          23.7512595
        ],
        [
          116.2675501,
          23.7499771
        ],
        [
          116.2669568,
          23.7488554
        ],
        [
          116.2630717,
          23.7468102
        ],
        [
          116.2603049,
          23.7445603
        ],
        [
          116.2546856,
          23.7421299
        ],
        [
          116.2497379,
          23.73981
        ],
        [
          116.2491283,
          23.7391794
        ],
        [
          116.2473326,
          23.7376385
        ],
        [
          116.2490763,
          23.7365833
        ],
        [
          116.2472379,
          23.7343618
        ],
        [
          116.2451789,
          23.7332399
        ],
        [
          116.2439287,
          23.7331277
        ],
        [
          116.2389978,
          23.7286829
        ],
        [
          116.2346356,
          23.7262753
        ],
        [
          116.2318087,
          23.7240173
        ],
        [
          116.228664,
          23.720894
        ],
        [
          116.2278704,
          23.7206612
        ],
        [
          116.226456,
          23.7208428
        ],
        [
          116.2241031,
          23.7220288
        ],
        [
          116.2236272,
          23.7226339
        ],
        [
          116.2237193,
          23.7232149
        ],
        [
          116.2258872,
          23.7244977
        ],
        [
          116.2278171,
          23.7260709
        ],
        [
          116.2294307,
          23.726472
        ],
        [
          116.231786,
          23.7267203
        ],
        [
          116.2323913,
          23.7305884
        ],
        [
          116.2299906,
          23.7314288
        ],
        [
          116.2231213,
          23.7314255
        ],
        [
          116.2194133,
          23.7292451
        ],
        [
          116.2179133,
          23.7268726
        ],
        [
          116.2154002,
          23.7252861
        ],
        [
          116.2150912,
          23.7232251
        ],
        [
          116.2137692,
          23.7222469
        ],
        [
          116.211904,
          23.722686
        ],
        [
          116.2093123,
          23.7212987
        ],
        [
          116.2105059,
          23.7186692
        ],
        [
          116.2109919,
          23.7155279
        ],
        [
          116.212062,
          23.7125562
        ],
        [
          116.2121095,
          23.7092729
        ],
        [
          116.2098626,
          23.7052402
        ],
        [
          116.2062934,
          23.7031104
        ],
        [
          116.204637,
          23.7017863
        ],
        [
          116.2032316,
          23.6992785
        ],
        [
          116.2016881,
          23.6985337
        ],
        [
          116.2013799,
          23.6972875
        ],
        [
          116.1994174,
          23.6948874
        ],
        [
          116.1994174,
          23.692822
        ],
        [
          116.1967839,
          23.69419
        ],
        [
          116.193835,
          23.6927989
        ],
        [
          116.1913871,
          23.6884286
        ],
        [
          116.190255,
          23.6878928
        ],
        [
          116.18737,
          23.6877868
        ],
        [
          116.1818295,
          23.6887484
        ],
        [
          116.1805785,
          23.6885438
        ],
        [
          116.1786125,
          23.6886461
        ],
        [
          116.1764902,
          23.6881142
        ],
        [
          116.1751274,
          23.686948
        ],
        [
          116.1750604,
          23.6859251
        ],
        [
          116.1767136,
          23.6853932
        ],
        [
          116.1776155,
          23.6836444
        ],
        [
          116.1782981,
          23.6763621
        ],
        [
          116.1761694,
          23.6716082
        ],
        [
          116.1752371,
          23.6705581
        ],
        [
          116.1745513,
          23.6702538
        ],
        [
          116.1735332,
          23.6705679
        ],
        [
          116.1720116,
          23.6717162
        ],
        [
          116.1714959,
          23.6717186
        ],
        [
          116.1714562,
          23.6709074
        ],
        [
          116.1719192,
          23.6693947
        ],
        [
          116.1726859,
          23.6685957
        ],
        [
          116.174798,
          23.6677709
        ],
        [
          116.1760009,
          23.667105
        ],
        [
          116.1762823,
          23.6666208
        ],
        [
          116.1759782,
          23.6656643
        ],
        [
          116.1738554,
          23.6621547
        ],
        [
          116.1732138,
          23.6613189
        ],
        [
          116.1729658,
          23.6598049
        ],
        [
          116.1736607,
          23.6581641
        ],
        [
          116.1752177,
          23.6552864
        ],
        [
          116.1754173,
          23.6528443
        ],
        [
          116.1788162,
          23.6527334
        ],
        [
          116.1813323,
          23.653207
        ],
        [
          116.1828612,
          23.6548939
        ],
        [
          116.1842085,
          23.6528971
        ],
        [
          116.1854246,
          23.6516558
        ],
        [
          116.1855237,
          23.6494654
        ],
        [
          116.1855932,
          23.6463716
        ],
        [
          116.1859407,
          23.6458623
        ],
        [
          116.1868641,
          23.6451041
        ],
        [
          116.1867773,
          23.6439582
        ],
        [
          116.186004,
          23.6425266
        ],
        [
          116.1841269,
          23.6400697
        ],
        [
          116.1836578,
          23.6401334
        ],
        [
          116.1815478,
          23.6411169
        ],
        [
          116.1782886,
          23.6414825
        ],
        [
          116.1751904,
          23.6395626
        ],
        [
          116.1744954,
          23.638528
        ],
        [
          116.1738154,
          23.6366838
        ],
        [
          116.1732427,
          23.6307302
        ],
        [
          116.1714123,
          23.6291877
        ],
        [
          116.1690232,
          23.6278939
        ],
        [
          116.1668276,
          23.6260508
        ],
        [
          116.1620462,
          23.6212194
        ],
        [
          116.1615445,
          23.620047
        ],
        [
          116.1614055,
          23.6188531
        ],
        [
          116.1607049,
          23.618568
        ],
        [
          116.1584462,
          23.6192048
        ],
        [
          116.1578034,
          23.6200962
        ],
        [
          116.1567609,
          23.6203987
        ],
        [
          116.1543406,
          23.6196859
        ],
        [
          116.1516298,
          23.6197423
        ],
        [
          116.1461445,
          23.6187902
        ],
        [
          116.1451338,
          23.6171689
        ],
        [
          116.1443736,
          23.6170746
        ],
        [
          116.1421465,
          23.6184997
        ],
        [
          116.1407125,
          23.6211116
        ],
        [
          116.1347383,
          23.6215326
        ],
        [
          116.1302135,
          23.6226338
        ],
        [
          116.1284106,
          23.626909
        ],
        [
          116.124911,
          23.6259373
        ],
        [
          116.1215527,
          23.6262288
        ],
        [
          116.1169218,
          23.6226662
        ],
        [
          116.1151543,
          23.6241236
        ],
        [
          116.1124677,
          23.6233787
        ],
        [
          116.111584,
          23.6212411
        ],
        [
          116.1097631,
          23.619838
        ],
        [
          116.1114937,
          23.6185952
        ],
        [
          116.1177984,
          23.6111721
        ],
        [
          116.1188742,
          23.6070577
        ],
        [
          116.1173774,
          23.6048946
        ],
        [
          116.1118899,
          23.6032447
        ],
        [
          116.1121706,
          23.5963203
        ],
        [
          116.1093174,
          23.5937293
        ],
        [
          116.112769,
          23.589703
        ],
        [
          116.1124884,
          23.5872597
        ],
        [
          116.1096352,
          23.5840876
        ],
        [
          116.1084222,
          23.5755196
        ],
        [
          116.1034642,
          23.5713612
        ],
        [
          116.1020142,
          23.5690461
        ],
        [
          116.1016625,
          23.5655862
        ],
        [
          116.0993597,
          23.5641866
        ],
        [
          116.0982839,
          23.562343
        ],
        [
          116.0967857,
          23.5620065
        ],
        [
          116.0957567,
          23.559091
        ],
        [
          116.094447,
          23.5576333
        ],
        [
          116.0950352,
          23.5530462
        ],
        [
          116.0971785,
          23.5532455
        ],
        [
          116.0992365,
          23.5510588
        ],
        [
          116.0986752,
          23.549944
        ],
        [
          116.0982075,
          23.5470283
        ],
        [
          116.1017155,
          23.5463422
        ],
        [
          116.124177,
          23.5363385
        ],
        [
          116.130415,
          23.5313494
        ],
        [
          116.1317614,
          23.5310975
        ],
        [
          116.1348728,
          23.5317312
        ],
        [
          116.1373774,
          23.5309244
        ],
        [
          116.1400385,
          23.5297789
        ],
        [
          116.1415372,
          23.5280525
        ],
        [
          116.143216,
          23.5268663
        ],
        [
          116.1464007,
          23.5262708
        ],
        [
          116.1499423,
          23.5264996
        ],
        [
          116.1543911,
          23.5259809
        ],
        [
          116.1576424,
          23.5245655
        ],
        [
          116.1611817,
          23.5225356
        ],
        [
          116.164887,
          23.5185592
        ],
        [
          116.1674287,
          23.5148979
        ],
        [
          116.1736973,
          23.5176323
        ],
        [
          116.1795496,
          23.5208347
        ],
        [
          116.185402,
          23.5206616
        ],
        [
          116.1964461,
          23.5259411
        ],
        [
          116.2039031,
          23.5292298
        ],
        [
          116.2104163,
          23.5287971
        ],
        [
          116.2174958,
          23.5268065
        ],
        [
          116.2267463,
          23.5231715
        ],
        [
          116.2411604,
          23.5219153
        ],
        [
          116.2594728,
          23.5214825
        ],
        [
          116.2602279,
          23.5236463
        ],
        [
          116.2654195,
          23.5265889
        ],
        [
          116.2685345,
          23.5319547
        ],
        [
          116.2723913,
          23.5354328
        ],
        [
          116.2756007,
          23.539154
        ],
        [
          116.2821894,
          23.5411611
        ],
        [
          116.2878106,
          23.5410973
        ],
        [
          116.2920583,
          23.5380684
        ],
        [
          116.2952062,
          23.535443
        ],
        [
          116.2990755,
          23.5349442
        ],
        [
          116.3067941,
          23.536636
        ],
        [
          116.3125711,
          23.5391114
        ],
        [
          116.3149368,
          23.5399943
        ],
        [
          116.3218233,
          23.5386686
        ],
        [
          116.3220208,
          23.5421543
        ],
        [
          116.3240453,
          23.5422448
        ],
        [
          116.3248847,
          23.5467715
        ],
        [
          116.3260698,
          23.5463641
        ],
        [
          116.3258543,
          23.5452119
        ],
        [
          116.3279939,
          23.5450539
        ],
        [
          116.3288268,
          23.5459754
        ],
        [
          116.331153,
          23.5451592
        ],
        [
          116.3315695,
          23.5475287
        ],
        [
          116.330392,
          23.5477789
        ],
        [
          116.3322875,
          23.5500035
        ],
        [
          116.3331889,
          23.5499999
        ],
        [
          116.3330939,
          23.5522932
        ],
        [
          116.3340434,
          23.5541848
        ],
        [
          116.3341374,
          23.5552895
        ],
        [
          116.334801,
          23.5550224
        ],
        [
          116.3355855,
          23.5564989
        ],
        [
          116.3361964,
          23.5575776
        ],
        [
          116.3365463,
          23.5584972
        ],
        [
          116.3367681,
          23.5598717
        ],
        [
          116.3370907,
          23.5616656
        ],
        [
          116.3375703,
          23.5629868
        ],
        [
          116.3379757,
          23.566287
        ],
        [
          116.3375305,
          23.5677339
        ],
        [
          116.3367075,
          23.5683151
        ],
        [
          116.3341804,
          23.5689997
        ],
        [
          116.3309795,
          23.5708395
        ],
        [
          116.3294549,
          23.5712599
        ],
        [
          116.3292477,
          23.5718843
        ],
        [
          116.3273393,
          23.5727083
        ],
        [
          116.3270327,
          23.5730571
        ],
        [
          116.3262252,
          23.5735626
        ],
        [
          116.3260739,
          23.5739689
        ],
        [
          116.3249789,
          23.5749219
        ],
        [
          116.3246513,
          23.5757559
        ],
        [
          116.3243524,
          23.5760028
        ],
        [
          116.3237287,
          23.5790395
        ],
        [
          116.3234696,
          23.5811379
        ],
        [
          116.3237304,
          23.583496
        ],
        [
          116.3237876,
          23.583983
        ],
        [
          116.3232368,
          23.5845229
        ],
        [
          116.3229461,
          23.5851539
        ],
        [
          116.3247362,
          23.5849295
        ],
        [
          116.3278735,
          23.5836456
        ],
        [
          116.332985,
          23.5871056
        ],
        [
          116.3413026,
          23.5983129
        ],
        [
          116.3593931,
          23.5959348
        ],
        [
          116.3661958,
          23.589312
        ],
        [
          116.3687318,
          23.5876032
        ],
        [
          116.3713822,
          23.5870756
        ],
        [
          116.3751556,
          23.5882693
        ],
        [
          116.3796684,
          23.5892163
        ],
        [
          116.3813038,
          23.5938952
        ],
        [
          116.3834148,
          23.59419
        ],
        [
          116.3870658,
          23.5926711
        ],
        [
          116.3913178,
          23.5827572
        ],
        [
          116.3899751,
          23.5783423
        ],
        [
          116.3859436,
          23.5742902
        ],
        [
          116.3868719,
          23.5692627
        ],
        [
          116.3907026,
          23.5673556
        ],
        [
          116.3931184,
          23.5683935
        ],
        [
          116.3961978,
          23.5698771
        ],
        [
          116.4010901,
          23.5699252
        ],
        [
          116.4156223,
          23.5656956
        ],
        [
          116.427463,
          23.559049
        ],
        [
          116.433596,
          23.554184
        ],
        [
          116.4391566,
          23.5487864
        ],
        [
          116.4434284,
          23.547775
        ],
        [
          116.4470582,
          23.5427667
        ],
        [
          116.4475769,
          23.5407368
        ],
        [
          116.4490209,
          23.5397562
        ],
        [
          116.4506024,
          23.5405573
        ],
        [
          116.4518951,
          23.5448306
        ],
        [
          116.4518413,
          23.5542264
        ],
        [
          116.4536676,
          23.5558769
        ],
        [
          116.4564619,
          23.556028
        ],
        [
          116.460752,
          23.5556707
        ],
        [
          116.4631887,
          23.5624487
        ],
        [
          116.4672152,
          23.5675709
        ],
        [
          116.4700536,
          23.5678303
        ],
        [
          116.4732675,
          23.5638582
        ],
        [
          116.4755043,
          23.5630865
        ],
        [
          116.4800747,
          23.5629001
        ],
        [
          116.4836208,
          23.5620021
        ],
        [
          116.4861201,
          23.5592054
        ],
        [
          116.4881428,
          23.5549431
        ],
        [
          116.4887632,
          23.5540695
        ],
        [
          116.4901247,
          23.5544592
        ],
        [
          116.4914167,
          23.5557253
        ],
        [
          116.4886752,
          23.5640329
        ],
        [
          116.4899387,
          23.5683329
        ],
        [
          116.493358,
          23.5701347
        ],
        [
          116.4987175,
          23.5679618
        ],
        [
          116.5029682,
          23.5685241
        ],
        [
          116.5042267,
          23.5689212
        ],
        [
          116.5051426,
          23.5699396
        ],
        [
          116.5059467,
          23.5702074
        ],
        [
          116.5065481,
          23.5712847
        ],
        [
          116.5091521,
          23.5752882
        ],
        [
          116.5097778,
          23.5758124
        ],
        [
          116.5091803,
          23.5789673
        ],
        [
          116.5097251,
          23.5795233
        ],
        [
          116.5101658,
          23.5801446
        ],
        [
          116.5112259,
          23.5805866
        ],
        [
          116.5148503,
          23.580417
        ],
        [
          116.515513,
          23.5797415
        ],
        [
          116.5166728,
          23.579553
        ],
        [
          116.5219,
          23.5823164
        ],
        [
          116.5227746,
          23.5821192
        ],
        [
          116.5238226,
          23.5822791
        ],
        [
          116.5252558,
          23.5815746
        ],
        [
          116.5262804,
          23.581567
        ],
        [
          116.5273676,
          23.5823129
        ]
      ]
    ]
  },
  "properties": {
    "adcode": 445203,
    "name": "揭东",
    "parent": "揭阳",
    "outer": false
  }
}
