{
  "type": "Feature",
  "geometry": {
    "type": "Polygon",
    "coordinates": [
      [
        [
          116.1097631,
          23.619838
        ],
        [
          116.1082061,
          23.6234058
        ],
        [
          116.1081125,
          23.6253771
        ],
        [
          116.1066625,
          23.625977
        ],
        [
          116.105456,
          23.6279743
        ],
        [
          116.1015642,
          23.6310336
        ],
        [
          116.0977013,
          23.6263617
        ],
        [
          116.0943098,
          23.6248508
        ],
        [
          116.0906071,
          23.6285567
        ],
        [
          116.0823596,
          23.6288938
        ],
        [
          116.0809704,
          23.6306934
        ],
        [
          116.0775603,
          23.6336496
        ],
        [
          116.0752672,
          23.636758
        ],
        [
          116.0692834,
          23.6388586
        ],
        [
          116.0691901,
          23.6412244
        ],
        [
          116.067498,
          23.645321
        ],
        [
          116.0625388,
          23.6478949
        ],
        [
          116.0561603,
          23.6476099
        ],
        [
          116.0518037,
          23.6489159
        ],
        [
          116.0512485,
          23.6479731
        ],
        [
          116.0522704,
          23.6460372
        ],
        [
          116.0523696,
          23.6436747
        ],
        [
          116.0511872,
          23.6419645
        ],
        [
          116.0493458,
          23.6424128
        ],
        [
          116.0463649,
          23.6442056
        ],
        [
          116.0440781,
          23.6444193
        ],
        [
          116.039389,
          23.648151
        ],
        [
          116.0349084,
          23.650657
        ],
        [
          116.0286071,
          23.6490429
        ],
        [
          116.0253401,
          23.6464492
        ],
        [
          116.0186585,
          23.6475179
        ],
        [
          116.0167143,
          23.6470827
        ],
        [
          116.0152461,
          23.6506946
        ],
        [
          116.0064955,
          23.6552442
        ],
        [
          116.0128315,
          23.664509
        ],
        [
          116.009104,
          23.6721026
        ],
        [
          116.0017535,
          23.6781639
        ],
        [
          115.9877709,
          23.6781802
        ],
        [
          115.9843177,
          23.6783153
        ],
        [
          115.9812685,
          23.6795691
        ],
        [
          115.9787793,
          23.6770045
        ],
        [
          115.9749319,
          23.67503
        ],
        [
          115.9676272,
          23.6666862
        ],
        [
          115.9630213,
          23.6635616
        ],
        [
          115.9598787,
          23.6627067
        ],
        [
          115.953998,
          23.6586883
        ],
        [
          115.9562669,
          23.6556049
        ],
        [
          115.9549564,
          23.6521368
        ],
        [
          115.9508712,
          23.6486411
        ],
        [
          115.9442749,
          23.6456768
        ],
        [
          115.9245229,
          23.6343473
        ],
        [
          115.9235055,
          23.632648
        ],
        [
          115.919586,
          23.630813
        ],
        [
          115.9166994,
          23.6319857
        ],
        [
          115.9151797,
          23.6335004
        ],
        [
          115.9102553,
          23.6335729
        ],
        [
          115.9084505,
          23.63253
        ],
        [
          115.905462,
          23.6318883
        ],
        [
          115.901186,
          23.6297932
        ],
        [
          115.9007998,
          23.6287801
        ],
        [
          115.9014643,
          23.6262972
        ],
        [
          115.901004,
          23.6243743
        ],
        [
          115.8996905,
          23.6225504
        ],
        [
          115.8981976,
          23.6217036
        ],
        [
          115.8954314,
          23.6217154
        ],
        [
          115.8932589,
          23.6228793
        ],
        [
          115.8917124,
          23.6285636
        ],
        [
          115.8907495,
          23.6294257
        ],
        [
          115.8894239,
          23.6295101
        ],
        [
          115.8861222,
          23.6301005
        ],
        [
          115.8830301,
          23.6337431
        ],
        [
          115.8715357,
          23.6367306
        ],
        [
          115.8697506,
          23.6387948
        ],
        [
          115.8672832,
          23.640857
        ],
        [
          115.8640087,
          23.6428067
        ],
        [
          115.8617565,
          23.6468167
        ],
        [
          115.8591633,
          23.648805
        ],
        [
          115.8586185,
          23.6510473
        ],
        [
          115.8588578,
          23.6531877
        ],
        [
          115.8574732,
          23.6565548
        ],
        [
          115.8553192,
          23.6608718
        ],
        [
          115.8537793,
          23.6612077
        ],
        [
          115.849011,
          23.6595682
        ],
        [
          115.8457523,
          23.6595851
        ],
        [
          115.8435352,
          23.6605045
        ],
        [
          115.8406061,
          23.6646104
        ],
        [
          115.8374804,
          23.6647249
        ],
        [
          115.8341046,
          23.6630644
        ],
        [
          115.8298574,
          23.6634819
        ],
        [
          115.8245933,
          23.658282
        ],
        [
          115.8209675,
          23.6537011
        ],
        [
          115.8220666,
          23.6486612
        ],
        [
          115.8148149,
          23.6483749
        ],
        [
          115.8091044,
          23.6370742
        ],
        [
          115.8071039,
          23.6356424
        ],
        [
          115.8075415,
          23.6343252
        ],
        [
          115.8047284,
          23.6312898
        ],
        [
          115.8012276,
          23.6306598
        ],
        [
          115.8005754,
          23.624762
        ],
        [
          115.7976586,
          23.6235014
        ],
        [
          115.7962208,
          23.621554
        ],
        [
          115.7955332,
          23.6181747
        ],
        [
          115.7963927,
          23.613924
        ],
        [
          115.7989558,
          23.6106017
        ],
        [
          115.8034568,
          23.6095134
        ],
        [
          115.80494,
          23.6041281
        ],
        [
          115.8003418,
          23.5996932
        ],
        [
          115.7930182,
          23.5996338
        ],
        [
          115.7923701,
          23.5979709
        ],
        [
          115.7971959,
          23.5915173
        ],
        [
          115.8060481,
          23.587825
        ],
        [
          115.8045931,
          23.5840085
        ],
        [
          115.8079632,
          23.5812762
        ],
        [
          115.8085056,
          23.5803414
        ],
        [
          115.805174,
          23.5769131
        ],
        [
          115.8051132,
          23.5719096
        ],
        [
          115.8027405,
          23.5660654
        ],
        [
          115.8002128,
          23.5670753
        ],
        [
          115.7969723,
          23.5599465
        ],
        [
          115.803259,
          23.5556899
        ],
        [
          115.7991658,
          23.5524597
        ],
        [
          115.7961368,
          23.545352
        ],
        [
          115.788152,
          23.5478869
        ],
        [
          115.7834208,
          23.5419454
        ],
        [
          115.7871462,
          23.5370672
        ],
        [
          115.7840365,
          23.5343089
        ],
        [
          115.7890556,
          23.5283863
        ],
        [
          115.78052,
          23.5190078
        ],
        [
          115.7718354,
          23.5269707
        ],
        [
          115.7668321,
          23.5277958
        ],
        [
          115.7612584,
          23.5272609
        ],
        [
          115.7584068,
          23.5250028
        ],
        [
          115.7468767,
          23.5300509
        ],
        [
          115.7420159,
          23.5277929
        ],
        [
          115.7368003,
          23.5274498
        ],
        [
          115.7312914,
          23.5285194
        ],
        [
          115.7292822,
          23.5262019
        ],
        [
          115.7289885,
          23.51867
        ],
        [
          115.7249703,
          23.5168872
        ],
        [
          115.7186837,
          23.5170655
        ],
        [
          115.7090745,
          23.5215129
        ],
        [
          115.7044994,
          23.5295283
        ],
        [
          115.6981553,
          23.5354551
        ],
        [
          115.6945908,
          23.5411592
        ],
        [
          115.6900001,
          23.5526791
        ],
        [
          115.684492,
          23.5573683
        ],
        [
          115.6830661,
          23.5600417
        ],
        [
          115.6781294,
          23.5568604
        ],
        [
          115.672426,
          23.5560287
        ],
        [
          115.6649452,
          23.5508174
        ],
        [
          115.6642971,
          23.5479061
        ],
        [
          115.6606029,
          23.5426776
        ],
        [
          115.6570383,
          23.5408357
        ],
        [
          115.6550298,
          23.53513
        ],
        [
          115.6477746,
          23.5361009
        ],
        [
          115.6460247,
          23.5333676
        ],
        [
          115.6433758,
          23.5339466
        ],
        [
          115.635048,
          23.5318203
        ],
        [
          115.637942,
          23.5259327
        ],
        [
          115.6371643,
          23.5236152
        ],
        [
          115.6375561,
          23.5158668
        ],
        [
          115.6323065,
          23.5177685
        ],
        [
          115.6294877,
          23.5167961
        ],
        [
          115.6281915,
          23.5140029
        ],
        [
          115.6209181,
          23.5106235
        ],
        [
          115.6172402,
          23.5099532
        ],
        [
          115.6146149,
          23.5059241
        ],
        [
          115.6155059,
          23.4999821
        ],
        [
          115.6185241,
          23.4951274
        ],
        [
          115.6176167,
          23.4880541
        ],
        [
          115.6145415,
          23.4808255
        ],
        [
          115.6118194,
          23.4777344
        ],
        [
          115.6017228,
          23.4746364
        ],
        [
          115.6047162,
          23.4716046
        ],
        [
          115.6070494,
          23.4734474
        ],
        [
          115.611874,
          23.470776
        ],
        [
          115.6186967,
          23.462716
        ],
        [
          115.620965,
          23.4542735
        ],
        [
          115.625271,
          23.451682
        ],
        [
          115.6302392,
          23.4490775
        ],
        [
          115.6380407,
          23.4456215
        ],
        [
          115.6418066,
          23.4423854
        ],
        [
          115.6438609,
          23.4328656
        ],
        [
          115.6480736,
          23.4275136
        ],
        [
          115.6531809,
          23.4231119
        ],
        [
          115.671822,
          23.413627
        ],
        [
          115.6793357,
          23.409555
        ],
        [
          115.6787524,
          23.4066407
        ],
        [
          115.6730491,
          23.4011686
        ],
        [
          115.6697494,
          23.3996716
        ],
        [
          115.6684532,
          23.3980061
        ],
        [
          115.6703327,
          23.3918794
        ],
        [
          115.6668902,
          23.3891762
        ],
        [
          115.6667606,
          23.3862614
        ],
        [
          115.6729962,
          23.3824539
        ],
        [
          115.6717156,
          23.3808588
        ],
        [
          115.6700126,
          23.3797732
        ],
        [
          115.6691611,
          23.377993
        ],
        [
          115.6710257,
          23.3720903
        ],
        [
          115.6719973,
          23.3647317
        ],
        [
          115.6715272,
          23.3606473
        ],
        [
          115.6721422,
          23.3576507
        ],
        [
          115.6743256,
          23.3564748
        ],
        [
          115.683692,
          23.3561273
        ],
        [
          115.6896133,
          23.3572528
        ],
        [
          115.6946749,
          23.3619864
        ],
        [
          115.6951953,
          23.3670238
        ],
        [
          115.6983638,
          23.3708264
        ],
        [
          115.7023398,
          23.3726439
        ],
        [
          115.712855,
          23.3730461
        ],
        [
          115.722932,
          23.3721412
        ],
        [
          115.729723,
          23.3753586
        ],
        [
          115.7347615,
          23.3818938
        ],
        [
          115.7416244,
          23.3797899
        ],
        [
          115.7529021,
          23.3844296
        ],
        [
          115.7611159,
          23.3848938
        ],
        [
          115.7662011,
          23.386604
        ],
        [
          115.7731511,
          23.3862017
        ],
        [
          115.7748591,
          23.3852753
        ],
        [
          115.7762847,
          23.3826552
        ],
        [
          115.780283,
          23.3783438
        ],
        [
          115.7813633,
          23.3758952
        ],
        [
          115.7813633,
          23.3737573
        ],
        [
          115.7828301,
          23.3715335
        ],
        [
          115.7852368,
          23.3704288
        ],
        [
          115.7888737,
          23.3671656
        ],
        [
          115.7902827,
          23.3642652
        ],
        [
          115.792097,
          23.3627927
        ],
        [
          115.7938322,
          23.3621075
        ],
        [
          115.7970424,
          23.3575066
        ],
        [
          115.8014809,
          23.3531355
        ],
        [
          115.8066281,
          23.3493785
        ],
        [
          115.8111472,
          23.3442755
        ],
        [
          115.815069,
          23.3383887
        ],
        [
          115.8176479,
          23.3365333
        ],
        [
          115.8199756,
          23.3316978
        ],
        [
          115.8219258,
          23.3296547
        ],
        [
          115.8246907,
          23.3287518
        ],
        [
          115.8272836,
          23.3291738
        ],
        [
          115.8304207,
          23.3303225
        ],
        [
          115.834762,
          23.3301458
        ],
        [
          115.8386453,
          23.3282123
        ],
        [
          115.8417323,
          23.3261965
        ],
        [
          115.847497,
          23.3198898
        ],
        [
          115.8502374,
          23.3161569
        ],
        [
          115.8527393,
          23.3144779
        ],
        [
          115.8602697,
          23.3117561
        ],
        [
          115.8651699,
          23.310985
        ],
        [
          115.8676141,
          23.3111971
        ],
        [
          115.8695386,
          23.3123989
        ],
        [
          115.8695353,
          23.3147381
        ],
        [
          115.8690963,
          23.3179159
        ],
        [
          115.8690878,
          23.3223712
        ],
        [
          115.870153,
          23.3269575
        ],
        [
          115.8715981,
          23.3294078
        ],
        [
          115.874734,
          23.3326425
        ],
        [
          115.8765851,
          23.3339464
        ],
        [
          115.8784369,
          23.3337162
        ],
        [
          115.8801826,
          23.3341575
        ],
        [
          115.8812049,
          23.33604
        ],
        [
          115.881802,
          23.33893
        ],
        [
          115.8812109,
          23.3417185
        ],
        [
          115.881571,
          23.3444493
        ],
        [
          115.8846001,
          23.3465794
        ],
        [
          115.8899504,
          23.3494242
        ],
        [
          115.890918,
          23.350813
        ],
        [
          115.8902873,
          23.3559331
        ],
        [
          115.8909309,
          23.3612718
        ],
        [
          115.8904772,
          23.3628973
        ],
        [
          115.8910161,
          23.364717
        ],
        [
          115.8929349,
          23.3660766
        ],
        [
          115.9012262,
          23.3686115
        ],
        [
          115.9063071,
          23.3664914
        ],
        [
          115.9118206,
          23.364851
        ],
        [
          115.9150912,
          23.3646856
        ],
        [
          115.9189745,
          23.3671492
        ],
        [
          115.9223708,
          23.3708579
        ],
        [
          115.9247936,
          23.3757292
        ],
        [
          115.9228305,
          23.3792271
        ],
        [
          115.920667,
          23.3816585
        ],
        [
          115.9264304,
          23.3894588
        ],
        [
          115.9283772,
          23.3908697
        ],
        [
          115.9320886,
          23.3902123
        ],
        [
          115.9382773,
          23.3866794
        ],
        [
          115.9420404,
          23.3871679
        ],
        [
          115.9450782,
          23.3902496
        ],
        [
          115.9478042,
          23.3915589
        ],
        [
          115.950628,
          23.3895221
        ],
        [
          115.9542681,
          23.3858522
        ],
        [
          115.9599461,
          23.3827816
        ],
        [
          115.9610826,
          23.3750929
        ],
        [
          115.9632649,
          23.37089
        ],
        [
          115.9685943,
          23.3679164
        ],
        [
          115.980338,
          23.3661194
        ],
        [
          115.9835374,
          23.3668655
        ],
        [
          115.9894054,
          23.3695441
        ],
        [
          115.9930178,
          23.3724481
        ],
        [
          115.9959205,
          23.3761013
        ],
        [
          115.9971658,
          23.3833194
        ],
        [
          115.9984336,
          23.3844438
        ],
        [
          116.0002591,
          23.3850928
        ],
        [
          116.0042021,
          23.3847376
        ],
        [
          116.0149764,
          23.3794063
        ],
        [
          116.0180788,
          23.3777822
        ],
        [
          116.0218468,
          23.3751439
        ],
        [
          116.0259253,
          23.374021
        ],
        [
          116.0287995,
          23.3747771
        ],
        [
          116.0314729,
          23.3755142
        ],
        [
          116.0336435,
          23.3753137
        ],
        [
          116.0361375,
          23.3733085
        ],
        [
          116.0372173,
          23.3728689
        ],
        [
          116.0378969,
          23.3721244
        ],
        [
          116.0416475,
          23.3700974
        ],
        [
          116.0442944,
          23.3694656
        ],
        [
          116.0490439,
          23.370817
        ],
        [
          116.0551848,
          23.373675
        ],
        [
          116.0580832,
          23.3754264
        ],
        [
          116.0569519,
          23.3759707
        ],
        [
          116.0574774,
          23.3774358
        ],
        [
          116.0616624,
          23.3798479
        ],
        [
          116.0634306,
          23.3812663
        ],
        [
          116.0684331,
          23.3821597
        ],
        [
          116.0723778,
          23.3820138
        ],
        [
          116.0750186,
          23.3809016
        ],
        [
          116.0787559,
          23.3826346
        ],
        [
          116.0808142,
          23.3844813
        ],
        [
          116.0810271,
          23.3854784
        ],
        [
          116.0807546,
          23.3870506
        ],
        [
          116.0802455,
          23.3895387
        ],
        [
          116.0813355,
          23.3911823
        ],
        [
          116.0815546,
          23.3923271
        ],
        [
          116.0826641,
          23.3942208
        ],
        [
          116.0846446,
          23.3974437
        ],
        [
          116.0852029,
          23.3977579
        ],
        [
          116.0855338,
          23.3998659
        ],
        [
          116.0851449,
          23.4007699
        ],
        [
          116.0862933,
          23.4024491
        ],
        [
          116.0877727,
          23.4033602
        ],
        [
          116.0899504,
          23.4035121
        ],
        [
          116.0929869,
          23.4019936
        ],
        [
          116.0939991,
          23.4008861
        ],
        [
          116.0944663,
          23.3992247
        ],
        [
          116.096419,
          23.398907
        ],
        [
          116.0979877,
          23.3982818
        ],
        [
          116.0994538,
          23.3979342
        ],
        [
          116.1033558,
          23.4025552
        ],
        [
          116.1096899,
          23.4069553
        ],
        [
          116.1112295,
          23.4088929
        ],
        [
          116.1126971,
          23.4147972
        ],
        [
          116.1142111,
          23.4183158
        ],
        [
          116.1146477,
          23.4185541
        ],
        [
          116.1180235,
          23.4209762
        ],
        [
          116.1186024,
          23.4238284
        ],
        [
          116.1199094,
          23.4258305
        ],
        [
          116.1238034,
          23.4278101
        ],
        [
          116.126812,
          23.4279101
        ],
        [
          116.1354333,
          23.4244857
        ],
        [
          116.1407083,
          23.4206755
        ],
        [
          116.141849,
          23.4206226
        ],
        [
          116.1430242,
          23.4219102
        ],
        [
          116.1442345,
          23.4251292
        ],
        [
          116.1492764,
          23.4279669
        ],
        [
          116.14976,
          23.4289785
        ],
        [
          116.149148,
          23.4306276
        ],
        [
          116.1462089,
          23.4329566
        ],
        [
          116.1452844,
          23.4435094
        ],
        [
          116.1461995,
          23.4465459
        ],
        [
          116.1484473,
          23.4478388
        ],
        [
          116.1516956,
          23.4486191
        ],
        [
          116.1554649,
          23.4490004
        ],
        [
          116.1590279,
          23.4497084
        ],
        [
          116.1608424,
          23.4507437
        ],
        [
          116.1620364,
          23.4521789
        ],
        [
          116.1619282,
          23.4533387
        ],
        [
          116.161106,
          23.4546487
        ],
        [
          116.1535613,
          23.4624415
        ],
        [
          116.1563691,
          23.4672289
        ],
        [
          116.1648658,
          23.4694341
        ],
        [
          116.1806099,
          23.4722529
        ],
        [
          116.1804381,
          23.474886
        ],
        [
          116.1839594,
          23.4885627
        ],
        [
          116.1755748,
          23.4945995
        ],
        [
          116.1712813,
          23.4973225
        ],
        [
          116.1663251,
          23.5030102
        ],
        [
          116.1648527,
          23.50659
        ],
        [
          116.1634504,
          23.5103231
        ],
        [
          116.1662698,
          23.5139352
        ],
        [
          116.1674287,
          23.5148979
        ],
        [
          116.164887,
          23.5185592
        ],
        [
          116.1611817,
          23.5225356
        ],
        [
          116.1576424,
          23.5245655
        ],
        [
          116.1543911,
          23.5259809
        ],
        [
          116.1499423,
          23.5264996
        ],
        [
          116.1464007,
          23.5262708
        ],
        [
          116.143216,
          23.5268663
        ],
        [
          116.1415372,
          23.5280525
        ],
        [
          116.1400385,
          23.5297789
        ],
        [
          116.1373774,
          23.5309244
        ],
        [
          116.1348728,
          23.5317312
        ],
        [
          116.1317614,
          23.5310975
        ],
        [
          116.130415,
          23.5313494
        ],
        [
          116.124177,
          23.5363385
        ],
        [
          116.1017155,
          23.5463422
        ],
        [
          116.0982075,
          23.5470283
        ],
        [
          116.0986752,
          23.549944
        ],
        [
          116.0992365,
          23.5510588
        ],
        [
          116.0971785,
          23.5532455
        ],
        [
          116.0950352,
          23.5530462
        ],
        [
          116.094447,
          23.5576333
        ],
        [
          116.0957567,
          23.559091
        ],
        [
          116.0967857,
          23.5620065
        ],
        [
          116.0982839,
          23.562343
        ],
        [
          116.0993597,
          23.5641866
        ],
        [
          116.1016625,
          23.5655862
        ],
        [
          116.1020142,
          23.5690461
        ],
        [
          116.1034642,
          23.5713612
        ],
        [
          116.1084222,
          23.5755196
        ],
        [
          116.1096352,
          23.5840876
        ],
        [
          116.1124884,
          23.5872597
        ],
        [
          116.112769,
          23.589703
        ],
        [
          116.1093174,
          23.5937293
        ],
        [
          116.1121706,
          23.5963203
        ],
        [
          116.1118899,
          23.6032447
        ],
        [
          116.1173774,
          23.6048946
        ],
        [
          116.1188742,
          23.6070577
        ],
        [
          116.1177984,
          23.6111721
        ],
        [
          116.1114937,
          23.6185952
        ],
        [
          116.1097631,
          23.619838
        ]
      ]
    ]
  },
  "properties": {
    "adcode": 445222,
    "name": "揭西",
    "parent": "揭阳",
    "outer": false
  }
}
