{
  "type": "Feature",
  "geometry": {
    "type": "Polygon",
    "coordinates": [
      [
        [
          116.2400338,
          23.1430115
        ],
        [
          116.2411328,
          23.1457275
        ],
        [
          116.2438658,
          23.1508045
        ],
        [
          116.2464138,
          23.1532355
        ],
        [
          116.2503798,
          23.1550965
        ],
        [
          116.2506668,
          23.1566735
        ],
        [
          116.2498348,
          23.1578755
        ],
        [
          116.2478928,
          23.1596125
        ],
        [
          116.2493208,
          23.1624525
        ],
        [
          116.2503278,
          23.1652845
        ],
        [
          116.2500818,
          23.1673595
        ],
        [
          116.2492388,
          23.1690155
        ],
        [
          116.2479648,
          23.1704675
        ],
        [
          116.2476058,
          23.1715715
        ],
        [
          116.2482318,
          23.1764865
        ],
        [
          116.2474098,
          23.1785085
        ],
        [
          116.2478518,
          23.1788735
        ],
        [
          116.2502148,
          23.1783475
        ],
        [
          116.2535538,
          23.1788555
        ],
        [
          116.2554448,
          23.1787125
        ],
        [
          116.2577868,
          23.1777425
        ],
        [
          116.2588138,
          23.1842065
        ],
        [
          116.2597698,
          23.1856495
        ],
        [
          116.2587528,
          23.1862105
        ],
        [
          116.2569138,
          23.1849635
        ],
        [
          116.2546328,
          23.1842515
        ],
        [
          116.2528038,
          23.1832545
        ],
        [
          116.2495878,
          23.1829605
        ],
        [
          116.2473998,
          23.1836015
        ],
        [
          116.2484688,
          23.1870825
        ],
        [
          116.2509238,
          23.1876255
        ],
        [
          116.2512528,
          23.1883475
        ],
        [
          116.2501428,
          23.1900745
        ],
        [
          116.2485098,
          23.1907955
        ],
        [
          116.2479858,
          23.1923985
        ],
        [
          116.2482428,
          23.1941345
        ],
        [
          116.2543248,
          23.1985855
        ],
        [
          116.2578488,
          23.1999125
        ],
        [
          116.2599138,
          23.1993335
        ],
        [
          116.2629438,
          23.2024675
        ],
        [
          116.2644858,
          23.2052805
        ],
        [
          116.2646598,
          23.2075505
        ],
        [
          116.2630678,
          23.2090555
        ],
        [
          116.2612598,
          23.2088865
        ],
        [
          116.2604888,
          23.2081645
        ],
        [
          116.2604068,
          23.2064915
        ],
        [
          116.2592048,
          23.2060815
        ],
        [
          116.2580748,
          23.2064735
        ],
        [
          116.2567798,
          23.2078975
        ],
        [
          116.2557008,
          23.2141205
        ],
        [
          116.2556908,
          23.2159545
        ],
        [
          116.2551568,
          23.2194615
        ],
        [
          116.2572008,
          23.2259325
        ],
        [
          116.2622558,
          23.2304985
        ],
        [
          116.2639918,
          23.2303475
        ],
        [
          116.2676188,
          23.2292525
        ],
        [
          116.2713278,
          23.2294305
        ],
        [
          116.2748718,
          23.2285765
        ],
        [
          116.2759918,
          23.2292175
        ],
        [
          116.2786118,
          23.2321545
        ],
        [
          116.2801118,
          23.2331335
        ],
        [
          116.2863788,
          23.2388385
        ],
        [
          116.2886698,
          23.2398445
        ],
        [
          116.2895848,
          23.2423985
        ],
        [
          116.2894198,
          23.2446685
        ],
        [
          116.2884438,
          23.2477655
        ],
        [
          116.2895428,
          23.2520455
        ],
        [
          116.2934988,
          23.2568785
        ],
        [
          116.2948038,
          23.2615235
        ],
        [
          116.2941868,
          23.2660975
        ],
        [
          116.2954508,
          23.2683935
        ],
        [
          116.2992008,
          23.2727795
        ],
        [
          116.3005158,
          23.2738835
        ],
        [
          116.3010188,
          23.2754405
        ],
        [
          116.2978958,
          23.2819265
        ],
        [
          116.2988098,
          23.2838485
        ],
        [
          116.3014408,
          23.2863035
        ],
        [
          116.3082208,
          23.2892135
        ],
        [
          116.3098338,
          23.2911435
        ],
        [
          116.3095768,
          23.2943285
        ],
        [
          116.3080768,
          23.2958055
        ],
        [
          116.3044818,
          23.2986615
        ],
        [
          116.3056008,
          23.3001645
        ],
        [
          116.3071218,
          23.3010455
        ],
        [
          116.3124948,
          23.3030915
        ],
        [
          116.3168649,
          23.3051079
        ],
        [
          116.3184791,
          23.3048869
        ],
        [
          116.3261061,
          23.3150414
        ],
        [
          116.3262088,
          23.318634
        ],
        [
          116.3203203,
          23.3248564
        ],
        [
          116.3147179,
          23.3290387
        ],
        [
          116.3142206,
          23.3332978
        ],
        [
          116.3167385,
          23.3368139
        ],
        [
          116.3190825,
          23.3361113
        ],
        [
          116.3248751,
          23.3388726
        ],
        [
          116.3444564,
          23.3384793
        ],
        [
          116.3455305,
          23.3444049
        ],
        [
          116.3485514,
          23.3470034
        ],
        [
          116.3497361,
          23.3499746
        ],
        [
          116.3505066,
          23.353907
        ],
        [
          116.3455616,
          23.3612473
        ],
        [
          116.3453156,
          23.3749041
        ],
        [
          116.3457498,
          23.3905269
        ],
        [
          116.3429682,
          23.3929015
        ],
        [
          116.3417197,
          23.3994103
        ],
        [
          116.3403365,
          23.4017373
        ],
        [
          116.3418326,
          23.4076382
        ],
        [
          116.3447756,
          23.4075542
        ],
        [
          116.3487623,
          23.4055664
        ],
        [
          116.3497318,
          23.4064239
        ],
        [
          116.3498842,
          23.4078227
        ],
        [
          116.3484441,
          23.4119545
        ],
        [
          116.3444187,
          23.412872
        ],
        [
          116.3419763,
          23.410834
        ],
        [
          116.3406214,
          23.4110982
        ],
        [
          116.3353203,
          23.4141163
        ],
        [
          116.334554,
          23.4180051
        ],
        [
          116.3312545,
          23.4211848
        ],
        [
          116.3267855,
          23.4208862
        ],
        [
          116.3255679,
          23.4268744
        ],
        [
          116.3197253,
          23.4237959
        ],
        [
          116.3185737,
          23.4240756
        ],
        [
          116.3170768,
          23.4271945
        ],
        [
          116.3143539,
          23.4326262
        ],
        [
          116.3124085,
          23.4433057
        ],
        [
          116.312678,
          23.4474404
        ],
        [
          116.3148951,
          23.4514181
        ],
        [
          116.3143819,
          23.4544368
        ],
        [
          116.3102838,
          23.4585272
        ],
        [
          116.3041222,
          23.4593347
        ],
        [
          116.2914137,
          23.4649284
        ],
        [
          116.2880451,
          23.4730877
        ],
        [
          116.2821145,
          23.4779532
        ],
        [
          116.2816276,
          23.4833665
        ],
        [
          116.2904471,
          23.4901469
        ],
        [
          116.2957373,
          23.4924635
        ],
        [
          116.2957998,
          23.4966065
        ],
        [
          116.2934981,
          23.4997993
        ],
        [
          116.2840339,
          23.50842
        ],
        [
          116.2859243,
          23.5117136
        ],
        [
          116.2799697,
          23.5227956
        ],
        [
          116.273202,
          23.5295496
        ],
        [
          116.2715971,
          23.5271825
        ],
        [
          116.2682533,
          23.5233387
        ],
        [
          116.2657081,
          23.5216913
        ],
        [
          116.2627136,
          23.5197236
        ],
        [
          116.2600685,
          23.5180305
        ],
        [
          116.255468,
          23.517216
        ],
        [
          116.2496166,
          23.5161085
        ],
        [
          116.245718,
          23.518184
        ],
        [
          116.2431995,
          23.5189524
        ],
        [
          116.239157,
          23.5187236
        ],
        [
          116.2361625,
          23.5166185
        ],
        [
          116.2321207,
          23.5165214
        ],
        [
          116.2284276,
          23.5183519
        ],
        [
          116.222289,
          23.5194959
        ],
        [
          116.2201451,
          23.5211783
        ],
        [
          116.216951,
          23.5220935
        ],
        [
          116.2117067,
          23.5258008
        ],
        [
          116.208313,
          23.5265787
        ],
        [
          116.2049284,
          23.5254706
        ],
        [
          116.1944978,
          23.5201624
        ],
        [
          116.1907726,
          23.519928
        ],
        [
          116.1867286,
          23.5170908
        ],
        [
          116.1863293,
          23.5148484
        ],
        [
          116.1818444,
          23.5138316
        ],
        [
          116.174508,
          23.5136943
        ],
        [
          116.1721863,
          23.5131254
        ],
        [
          116.1677012,
          23.5097679
        ],
        [
          116.1648527,
          23.50659
        ],
        [
          116.1663251,
          23.5030102
        ],
        [
          116.1712813,
          23.4973225
        ],
        [
          116.1755748,
          23.4945995
        ],
        [
          116.1839594,
          23.4885627
        ],
        [
          116.1804381,
          23.474886
        ],
        [
          116.1806099,
          23.4722529
        ],
        [
          116.1648658,
          23.4694341
        ],
        [
          116.1563691,
          23.4672289
        ],
        [
          116.1535613,
          23.4624415
        ],
        [
          116.161106,
          23.4546487
        ],
        [
          116.1619282,
          23.4533387
        ],
        [
          116.1620364,
          23.4521789
        ],
        [
          116.1608424,
          23.4507437
        ],
        [
          116.1590279,
          23.4497084
        ],
        [
          116.1554649,
          23.4490004
        ],
        [
          116.1516956,
          23.4486191
        ],
        [
          116.1484473,
          23.4478388
        ],
        [
          116.1461995,
          23.4465459
        ],
        [
          116.1452844,
          23.4435094
        ],
        [
          116.1462089,
          23.4329566
        ],
        [
          116.149148,
          23.4306276
        ],
        [
          116.14976,
          23.4289785
        ],
        [
          116.1492764,
          23.4279669
        ],
        [
          116.1442345,
          23.4251292
        ],
        [
          116.1430242,
          23.4219102
        ],
        [
          116.141849,
          23.4206226
        ],
        [
          116.1407083,
          23.4206755
        ],
        [
          116.1354333,
          23.4244857
        ],
        [
          116.126812,
          23.4279101
        ],
        [
          116.1238034,
          23.4278101
        ],
        [
          116.1199094,
          23.4258305
        ],
        [
          116.1186024,
          23.4238284
        ],
        [
          116.1180235,
          23.4209762
        ],
        [
          116.1142111,
          23.4183158
        ],
        [
          116.1156281,
          23.4169771
        ],
        [
          116.1149356,
          23.412304
        ],
        [
          116.112705,
          23.4084399
        ],
        [
          116.1115717,
          23.4065102
        ],
        [
          116.1087827,
          23.4036305
        ],
        [
          116.1069439,
          23.4024686
        ],
        [
          116.1040794,
          23.4009376
        ],
        [
          116.1018123,
          23.3983
        ],
        [
          116.0997995,
          23.3964555
        ],
        [
          116.0977919,
          23.3959916
        ],
        [
          116.0963362,
          23.3961484
        ],
        [
          116.0948625,
          23.3974813
        ],
        [
          116.0928319,
          23.3996199
        ],
        [
          116.0905894,
          23.4017564
        ],
        [
          116.088838,
          23.4025013
        ],
        [
          116.0868961,
          23.4017458
        ],
        [
          116.0863195,
          23.4010401
        ],
        [
          116.0864049,
          23.4000797
        ],
        [
          116.0868961,
          23.3988252
        ],
        [
          116.0866972,
          23.3971627
        ],
        [
          116.0862273,
          23.3964962
        ],
        [
          116.0859883,
          23.3950374
        ],
        [
          116.0850486,
          23.3941161
        ],
        [
          116.0835556,
          23.3937928
        ],
        [
          116.0817615,
          23.3907937
        ],
        [
          116.0813344,
          23.3893823
        ],
        [
          116.0814676,
          23.3882321
        ],
        [
          116.0822425,
          23.3873918
        ],
        [
          116.0834408,
          23.3842145
        ],
        [
          116.0828812,
          23.3827352
        ],
        [
          116.0810923,
          23.3811366
        ],
        [
          116.0789727,
          23.3799123
        ],
        [
          116.078033,
          23.3801279
        ],
        [
          116.0740866,
          23.3799725
        ],
        [
          116.072976,
          23.3803058
        ],
        [
          116.069369,
          23.3806254
        ],
        [
          116.0660158,
          23.3804097
        ],
        [
          116.063919,
          23.3792632
        ],
        [
          116.059898,
          23.3756756
        ],
        [
          116.057271,
          23.37248
        ],
        [
          116.0555095,
          23.3719666
        ],
        [
          116.0494433,
          23.3693262
        ],
        [
          116.0443643,
          23.368403
        ],
        [
          116.0411607,
          23.3690107
        ],
        [
          116.0395692,
          23.3702098
        ],
        [
          116.034478,
          23.373206
        ],
        [
          116.0334879,
          23.3741523
        ],
        [
          116.0320291,
          23.3746033
        ],
        [
          116.0263694,
          23.3730153
        ],
        [
          116.0222687,
          23.3739171
        ],
        [
          116.0200483,
          23.3750896
        ],
        [
          116.0164164,
          23.3781381
        ],
        [
          116.0115371,
          23.3796172
        ],
        [
          116.0092732,
          23.3797936
        ],
        [
          116.0075859,
          23.3810679
        ],
        [
          115.9984336,
          23.3844438
        ],
        [
          115.9971658,
          23.3833194
        ],
        [
          115.9959205,
          23.3761013
        ],
        [
          115.9930178,
          23.3724481
        ],
        [
          115.9894054,
          23.3695441
        ],
        [
          115.9835374,
          23.3668655
        ],
        [
          115.980338,
          23.3661194
        ],
        [
          115.9685943,
          23.3679164
        ],
        [
          115.9632649,
          23.37089
        ],
        [
          115.9610826,
          23.3750929
        ],
        [
          115.9599461,
          23.3827816
        ],
        [
          115.9542681,
          23.3858522
        ],
        [
          115.950628,
          23.3895221
        ],
        [
          115.9478042,
          23.3915589
        ],
        [
          115.9450782,
          23.3902496
        ],
        [
          115.9420404,
          23.3871679
        ],
        [
          115.9382773,
          23.3866794
        ],
        [
          115.9320886,
          23.3902123
        ],
        [
          115.9283772,
          23.3908697
        ],
        [
          115.9264304,
          23.3894588
        ],
        [
          115.920667,
          23.3816585
        ],
        [
          115.9228305,
          23.3792271
        ],
        [
          115.9247936,
          23.3757292
        ],
        [
          115.9223708,
          23.3708579
        ],
        [
          115.9189745,
          23.3671492
        ],
        [
          115.9150912,
          23.3646856
        ],
        [
          115.9118206,
          23.364851
        ],
        [
          115.9063071,
          23.3664914
        ],
        [
          115.9012262,
          23.3686115
        ],
        [
          115.8929349,
          23.3660766
        ],
        [
          115.8910161,
          23.364717
        ],
        [
          115.8904772,
          23.3628973
        ],
        [
          115.8909309,
          23.3612718
        ],
        [
          115.8902873,
          23.3559331
        ],
        [
          115.890918,
          23.350813
        ],
        [
          115.8899504,
          23.3494242
        ],
        [
          115.8846001,
          23.3465794
        ],
        [
          115.881571,
          23.3444493
        ],
        [
          115.8812109,
          23.3417185
        ],
        [
          115.881802,
          23.33893
        ],
        [
          115.8812049,
          23.33604
        ],
        [
          115.8801826,
          23.3341575
        ],
        [
          115.8784369,
          23.3337162
        ],
        [
          115.8765851,
          23.3339464
        ],
        [
          115.874734,
          23.3326425
        ],
        [
          115.8715981,
          23.3294078
        ],
        [
          115.870153,
          23.3269575
        ],
        [
          115.8690878,
          23.3223712
        ],
        [
          115.8690963,
          23.3179159
        ],
        [
          115.8695353,
          23.3147381
        ],
        [
          115.8695386,
          23.3123989
        ],
        [
          115.8676141,
          23.3111971
        ],
        [
          115.8651699,
          23.310985
        ],
        [
          115.8602697,
          23.3117561
        ],
        [
          115.8527393,
          23.3144779
        ],
        [
          115.8502374,
          23.3161569
        ],
        [
          115.847497,
          23.3198898
        ],
        [
          115.8417323,
          23.3261965
        ],
        [
          115.8386453,
          23.3282123
        ],
        [
          115.834762,
          23.3301458
        ],
        [
          115.8304207,
          23.3303225
        ],
        [
          115.8272836,
          23.3291738
        ],
        [
          115.8246907,
          23.3287518
        ],
        [
          115.8219258,
          23.3296547
        ],
        [
          115.8199756,
          23.3316978
        ],
        [
          115.8176479,
          23.3365333
        ],
        [
          115.815069,
          23.3383887
        ],
        [
          115.8121517,
          23.3370457
        ],
        [
          115.8109137,
          23.3353955
        ],
        [
          115.8082131,
          23.3293513
        ],
        [
          115.8053271,
          23.3279641
        ],
        [
          115.8021708,
          23.3273986
        ],
        [
          115.7994988,
          23.3274824
        ],
        [
          115.797401,
          23.3270583
        ],
        [
          115.7961621,
          23.3255396
        ],
        [
          115.7961668,
          23.3236364
        ],
        [
          115.796818,
          23.3214619
        ],
        [
          115.7978431,
          23.3194629
        ],
        [
          115.797464,
          23.3175885
        ],
        [
          115.7966172,
          23.3158564
        ],
        [
          115.7924768,
          23.3115483
        ],
        [
          115.7922692,
          23.3079404
        ],
        [
          115.7933707,
          23.3048312
        ],
        [
          115.7921066,
          23.300626
        ],
        [
          115.7949207,
          23.2944242
        ],
        [
          115.7932141,
          23.2894977
        ],
        [
          115.7956462,
          23.2853111
        ],
        [
          115.8031228,
          23.2861322
        ],
        [
          115.8086489,
          23.2836688
        ],
        [
          115.8197825,
          23.2753826
        ],
        [
          115.8203792,
          23.2725134
        ],
        [
          115.8192415,
          23.2701991
        ],
        [
          115.8265555,
          23.2634799
        ],
        [
          115.8270431,
          23.2609414
        ],
        [
          115.8210835,
          23.2591568
        ],
        [
          115.8194582,
          23.255797
        ],
        [
          115.8165041,
          23.2539227
        ],
        [
          115.8127858,
          23.2525085
        ],
        [
          115.8094778,
          23.2517525
        ],
        [
          115.8063748,
          23.2513695
        ],
        [
          115.7956288,
          23.2519565
        ],
        [
          115.7927318,
          23.2517705
        ],
        [
          115.7894228,
          23.2502395
        ],
        [
          115.7863208,
          23.2492875
        ],
        [
          115.7805258,
          23.2494735
        ],
        [
          115.7747418,
          23.2498565
        ],
        [
          115.7716288,
          23.2491005
        ],
        [
          115.7660398,
          23.2473825
        ],
        [
          115.7635638,
          23.2469995
        ],
        [
          115.7608618,
          23.2477565
        ],
        [
          115.7585918,
          23.2489045
        ],
        [
          115.7558898,
          23.2485215
        ],
        [
          115.7536088,
          23.2475605
        ],
        [
          115.7467868,
          23.2414465
        ],
        [
          115.7447118,
          23.2389545
        ],
        [
          115.7436738,
          23.2359105
        ],
        [
          115.7438788,
          23.2328485
        ],
        [
          115.7455438,
          23.2282645
        ],
        [
          115.7484408,
          23.2242595
        ],
        [
          115.7531878,
          23.2185265
        ],
        [
          115.7531878,
          23.2154735
        ],
        [
          115.7502898,
          23.2110845
        ],
        [
          115.7496738,
          23.2082095
        ],
        [
          115.7500848,
          23.2000015
        ],
        [
          115.7496638,
          23.1980875
        ],
        [
          115.7488418,
          23.1967515
        ],
        [
          115.7475988,
          23.1961735
        ],
        [
          115.7455338,
          23.1982745
        ],
        [
          115.7389068,
          23.2104885
        ],
        [
          115.7366258,
          23.2125895
        ],
        [
          115.7341398,
          23.2137285
        ],
        [
          115.7324758,
          23.2131505
        ],
        [
          115.7293728,
          23.2097135
        ],
        [
          115.7264758,
          23.2045415
        ],
        [
          115.7260538,
          23.2016755
        ],
        [
          115.7272978,
          23.1997785
        ],
        [
          115.7291668,
          23.1980605
        ],
        [
          115.7293728,
          23.1965295
        ],
        [
          115.7289518,
          23.1953805
        ],
        [
          115.7266808,
          23.1932795
        ],
        [
          115.7241848,
          23.1915615
        ],
        [
          115.7221088,
          23.1894515
        ],
        [
          115.7208658,
          23.1873495
        ],
        [
          115.7210818,
          23.1863885
        ],
        [
          115.7233628,
          23.1844825
        ],
        [
          115.7250058,
          23.1837255
        ],
        [
          115.7285408,
          23.1804755
        ],
        [
          115.7318588,
          23.1785795
        ],
        [
          115.7355878,
          23.1770565
        ],
        [
          115.7407668,
          23.1740115
        ],
        [
          115.7484308,
          23.1703875
        ],
        [
          115.7502798,
          23.1675195
        ],
        [
          115.7523448,
          23.1650445
        ],
        [
          115.7552528,
          23.1629425
        ],
        [
          115.7589718,
          23.1618025
        ],
        [
          115.7631118,
          23.1619895
        ],
        [
          115.7699338,
          23.1633345
        ],
        [
          115.7722148,
          23.1633345
        ],
        [
          115.7742798,
          23.1623815
        ],
        [
          115.7761498,
          23.1608495
        ],
        [
          115.7786258,
          23.1553105
        ],
        [
          115.7839988,
          23.1490055
        ],
        [
          115.7848208,
          23.1467075
        ],
        [
          115.7868858,
          23.1421295
        ],
        [
          115.7885398,
          23.1402145
        ],
        [
          115.7908098,
          23.1394485
        ],
        [
          115.7926698,
          23.1373465
        ],
        [
          115.7949398,
          23.1356275
        ],
        [
          115.7990708,
          23.1344785
        ],
        [
          115.8036218,
          23.1337125
        ],
        [
          115.8079568,
          23.1317975
        ],
        [
          115.8122928,
          23.1302565
        ],
        [
          115.8164228,
          23.1310225
        ],
        [
          115.8224128,
          23.1289025
        ],
        [
          115.8259158,
          23.1273795
        ],
        [
          115.8285978,
          23.1254635
        ],
        [
          115.8290188,
          23.1222125
        ],
        [
          115.8288028,
          23.1187825
        ],
        [
          115.8281868,
          23.1166715
        ],
        [
          115.8283818,
          23.1147745
        ],
        [
          115.8314738,
          23.1099905
        ],
        [
          115.8362308,
          23.1059725
        ],
        [
          115.8415938,
          23.1025245
        ],
        [
          115.8469568,
          23.1013665
        ],
        [
          115.8484048,
          23.1028985
        ],
        [
          115.8496378,
          23.1059545
        ],
        [
          115.8527508,
          23.1103465
        ],
        [
          115.8562648,
          23.1149255
        ],
        [
          115.8577138,
          23.1179815
        ],
        [
          115.8597888,
          23.1204485
        ],
        [
          115.8643398,
          23.1219805
        ],
        [
          115.8694978,
          23.1227385
        ],
        [
          115.8742538,
          23.1221595
        ],
        [
          115.8790108,
          23.1221595
        ],
        [
          115.8837678,
          23.1236735
        ],
        [
          115.8883088,
          23.1261675
        ],
        [
          115.8944486,
          23.1324014
        ],
        [
          115.8952732,
          23.1322829
        ],
        [
          115.8978809,
          23.1301647
        ],
        [
          115.9046071,
          23.1284347
        ],
        [
          115.9071408,
          23.1248225
        ],
        [
          115.909698,
          23.1213573
        ],
        [
          115.9101876,
          23.118134
        ],
        [
          115.9109607,
          23.1159772
        ],
        [
          115.912255,
          23.115095
        ],
        [
          115.9168937,
          23.1140521
        ],
        [
          115.9187158,
          23.1138738
        ],
        [
          115.9213481,
          23.1137009
        ],
        [
          115.9281335,
          23.1108218
        ],
        [
          115.9333145,
          23.110668
        ],
        [
          115.937022,
          23.1096147
        ],
        [
          115.9401766,
          23.1084041
        ],
        [
          115.9440152,
          23.108244
        ],
        [
          115.9488466,
          23.1069818
        ],
        [
          115.951967,
          23.1040684
        ],
        [
          115.9587194,
          23.1026645
        ],
        [
          115.9714494,
          23.0989218
        ],
        [
          115.975205,
          23.0987003
        ],
        [
          115.9792476,
          23.1008906
        ],
        [
          115.9841222,
          23.1043655
        ],
        [
          115.9869161,
          23.1075694
        ],
        [
          115.9865678,
          23.1116825
        ],
        [
          115.9844308,
          23.1157455
        ],
        [
          115.9841228,
          23.1175265
        ],
        [
          115.9863565,
          23.1197382
        ],
        [
          115.9901538,
          23.1206005
        ],
        [
          115.9943758,
          23.1226315
        ],
        [
          116.0007968,
          23.1199145
        ],
        [
          116.0020098,
          23.1177765
        ],
        [
          116.0050918,
          23.1178385
        ],
        [
          116.0096218,
          23.1203505
        ],
        [
          116.0150468,
          23.1219635
        ],
        [
          116.0168348,
          23.1213215
        ],
        [
          116.0193518,
          23.1186225
        ],
        [
          116.0210778,
          23.1149435
        ],
        [
          116.0203788,
          23.1126365
        ],
        [
          116.0206568,
          23.1102485
        ],
        [
          116.0215608,
          23.1085295
        ],
        [
          116.0211698,
          23.1060795
        ],
        [
          116.0220438,
          23.1051615
        ],
        [
          116.0284028,
          23.1036475
        ],
        [
          116.0339608,
          23.1041285
        ],
        [
          116.0380598,
          23.1051795
        ],
        [
          116.0414708,
          23.1077185
        ],
        [
          116.0434538,
          23.1120395
        ],
        [
          116.0465358,
          23.1164045
        ],
        [
          116.0506022,
          23.1200311
        ],
        [
          116.0491125,
          23.1249615
        ],
        [
          116.0461461,
          23.1280657
        ],
        [
          116.0452677,
          23.1310388
        ],
        [
          116.0452434,
          23.1359741
        ],
        [
          116.0462342,
          23.1393441
        ],
        [
          116.0478167,
          23.1424588
        ],
        [
          116.0496095,
          23.1451466
        ],
        [
          116.0509377,
          23.1514817
        ],
        [
          116.0591528,
          23.1536275
        ],
        [
          116.0637649,
          23.1565348
        ],
        [
          116.0616659,
          23.1587803
        ],
        [
          116.0578465,
          23.1588053
        ],
        [
          116.0542587,
          23.1595542
        ],
        [
          116.053236,
          23.1613162
        ],
        [
          116.0537653,
          23.1650648
        ],
        [
          116.0553545,
          23.1738516
        ],
        [
          116.0569317,
          23.1770555
        ],
        [
          116.0588224,
          23.1797939
        ],
        [
          116.0635698,
          23.1810365
        ],
        [
          116.0667348,
          23.1821415
        ],
        [
          116.0698709,
          23.1853553
        ],
        [
          116.0719795,
          23.1857177
        ],
        [
          116.0744055,
          23.1838989
        ],
        [
          116.079185,
          23.1816633
        ],
        [
          116.0837871,
          23.1804242
        ],
        [
          116.0882443,
          23.1795259
        ],
        [
          116.0984382,
          23.1738629
        ],
        [
          116.1003443,
          23.1724831
        ],
        [
          116.1050546,
          23.1701755
        ],
        [
          116.1073228,
          23.1698297
        ],
        [
          116.1128518,
          23.1675303
        ],
        [
          116.1210647,
          23.1623872
        ],
        [
          116.1240589,
          23.159389
        ],
        [
          116.127033,
          23.1568516
        ],
        [
          116.1313919,
          23.1539101
        ],
        [
          116.1363399,
          23.1518151
        ],
        [
          116.1386371,
          23.1512318
        ],
        [
          116.1412298,
          23.1515345
        ],
        [
          116.1430998,
          23.1530485
        ],
        [
          116.1466238,
          23.1545715
        ],
        [
          116.1468298,
          23.1566645
        ],
        [
          116.1462228,
          23.1601105
        ],
        [
          116.1476818,
          23.1631565
        ],
        [
          116.1481038,
          23.1662105
        ],
        [
          116.1464698,
          23.1717585
        ],
        [
          116.1466748,
          23.1732815
        ],
        [
          116.1477128,
          23.1746165
        ],
        [
          116.1491618,
          23.1751775
        ],
        [
          116.1526548,
          23.1723015
        ],
        [
          116.1561788,
          23.1701915
        ],
        [
          116.1600928,
          23.1690335
        ],
        [
          116.1621578,
          23.1694075
        ],
        [
          116.1646438,
          23.1703605
        ],
        [
          116.1700068,
          23.1693815
        ],
        [
          116.1720828,
          23.1701375
        ],
        [
          116.1770448,
          23.1708775
        ],
        [
          116.1824178,
          23.1714385
        ],
        [
          116.1859218,
          23.1706545
        ],
        [
          116.1867638,
          23.1725685
        ],
        [
          116.1865578,
          23.1746705
        ],
        [
          116.1865788,
          23.1796395
        ],
        [
          116.1872058,
          23.1821145
        ],
        [
          116.1890648,
          23.1838325
        ],
        [
          116.1921678,
          23.1838145
        ],
        [
          116.1948488,
          23.1813125
        ],
        [
          116.1969148,
          23.1784545
        ],
        [
          116.1979318,
          23.1736735
        ],
        [
          116.1991538,
          23.1696655
        ],
        [
          116.2007978,
          23.1658275
        ],
        [
          116.2016098,
          23.1629695
        ],
        [
          116.2034588,
          23.1608675
        ],
        [
          116.2131678,
          23.1577775
        ],
        [
          116.2159518,
          23.1567355
        ],
        [
          116.2163828,
          23.1561035
        ],
        [
          116.2162698,
          23.1528885
        ],
        [
          116.2170918,
          23.1485155
        ],
        [
          116.2189618,
          23.1471085
        ],
        [
          116.2272938,
          23.1459685
        ],
        [
          116.2297808,
          23.1441245
        ],
        [
          116.2336228,
          23.1440175
        ],
        [
          116.2400338,
          23.1430115
        ]
      ]
    ]
  },
  "properties": {
    "adcode": 445281,
    "name": "普宁",
    "parent": "揭阳",
    "outer": false
  }
}
