{
  "type": "Feature",
  "geometry": {
    "type": "Polygon",
    "coordinates": [
      [
        [
          116.273202,
          23.5295496
        ],
        [
          116.2799697,
          23.5227956
        ],
        [
          116.2859243,
          23.5117136
        ],
        [
          116.2840339,
          23.50842
        ],
        [
          116.2934981,
          23.4997993
        ],
        [
          116.2957998,
          23.4966065
        ],
        [
          116.2957373,
          23.4924635
        ],
        [
          116.2904471,
          23.4901469
        ],
        [
          116.2816276,
          23.4833665
        ],
        [
          116.2821145,
          23.4779532
        ],
        [
          116.2880451,
          23.4730877
        ],
        [
          116.2914137,
          23.4649284
        ],
        [
          116.3041222,
          23.4593347
        ],
        [
          116.3102838,
          23.4585272
        ],
        [
          116.3143819,
          23.4544368
        ],
        [
          116.3148951,
          23.4514181
        ],
        [
          116.3279055,
          23.4462144
        ],
        [
          116.3310598,
          23.4461358
        ],
        [
          116.3330209,
          23.4476846
        ],
        [
          116.333638,
          23.4494775
        ],
        [
          116.3399671,
          23.4488642
        ],
        [
          116.3448381,
          23.4556019
        ],
        [
          116.3459349,
          23.4587004
        ],
        [
          116.3465332,
          23.4643743
        ],
        [
          116.349341,
          23.4676023
        ],
        [
          116.3493903,
          23.4712426
        ],
        [
          116.3509749,
          23.4729505
        ],
        [
          116.3501232,
          23.4745447
        ],
        [
          116.3507205,
          23.4769987
        ],
        [
          116.3514107,
          23.4775678
        ],
        [
          116.3527114,
          23.4775302
        ],
        [
          116.3548146,
          23.4758837
        ],
        [
          116.355739,
          23.4756778
        ],
        [
          116.3588799,
          23.4778348
        ],
        [
          116.3591514,
          23.4786119
        ],
        [
          116.3586041,
          23.4799657
        ],
        [
          116.3585868,
          23.4816409
        ],
        [
          116.3581991,
          23.4819974
        ],
        [
          116.3594604,
          23.4831005
        ],
        [
          116.3602171,
          23.4845142
        ],
        [
          116.3604563,
          23.4872379
        ],
        [
          116.3608529,
          23.4895113
        ],
        [
          116.3617745,
          23.490889
        ],
        [
          116.3668853,
          23.4949998
        ],
        [
          116.3654191,
          23.4979965
        ],
        [
          116.3661313,
          23.49961
        ],
        [
          116.3672515,
          23.4999566
        ],
        [
          116.3722785,
          23.498151
        ],
        [
          116.3729069,
          23.4986888
        ],
        [
          116.3707285,
          23.5017622
        ],
        [
          116.3713988,
          23.5034909
        ],
        [
          116.3729003,
          23.5041036
        ],
        [
          116.3762517,
          23.5036426
        ],
        [
          116.3825773,
          23.5044493
        ],
        [
          116.3874969,
          23.5032782
        ],
        [
          116.3918309,
          23.5035843
        ],
        [
          116.3944546,
          23.5040128
        ],
        [
          116.3977253,
          23.5056937
        ],
        [
          116.3994213,
          23.5081914
        ],
        [
          116.4007291,
          23.5136843
        ],
        [
          116.400154,
          23.514673
        ],
        [
          116.4036404,
          23.516914
        ],
        [
          116.4078814,
          23.517672
        ],
        [
          116.4106489,
          23.5151673
        ],
        [
          116.4126838,
          23.5105845
        ],
        [
          116.4125861,
          23.5050063
        ],
        [
          116.4105374,
          23.4951417
        ],
        [
          116.4106027,
          23.4891241
        ],
        [
          116.4119027,
          23.4830804
        ],
        [
          116.4143773,
          23.4777734
        ],
        [
          116.4151615,
          23.4774012
        ],
        [
          116.4147158,
          23.4752348
        ],
        [
          116.4169908,
          23.4728649
        ],
        [
          116.4212273,
          23.4711324
        ],
        [
          116.426295,
          23.4727478
        ],
        [
          116.4299148,
          23.4760504
        ],
        [
          116.4324627,
          23.4807807
        ],
        [
          116.4372062,
          23.4889141
        ],
        [
          116.4434007,
          23.4927716
        ],
        [
          116.455124,
          23.5003071
        ],
        [
          116.4609071,
          23.5008468
        ],
        [
          116.4698073,
          23.50533
        ],
        [
          116.4765621,
          23.505882
        ],
        [
          116.4814376,
          23.5039505
        ],
        [
          116.485499,
          23.5017422
        ],
        [
          116.487975,
          23.49843
        ],
        [
          116.4892024,
          23.4922826
        ],
        [
          116.4894607,
          23.4868945
        ],
        [
          116.4889216,
          23.4820459
        ],
        [
          116.484968,
          23.474647
        ],
        [
          116.4833208,
          23.4728668
        ],
        [
          116.480307,
          23.4661017
        ],
        [
          116.4737029,
          23.4597434
        ],
        [
          116.4688197,
          23.4561714
        ],
        [
          116.4639072,
          23.4512835
        ],
        [
          116.4621148,
          23.4460632
        ],
        [
          116.4633368,
          23.4434582
        ],
        [
          116.4654355,
          23.4418183
        ],
        [
          116.4740615,
          23.4414226
        ],
        [
          116.4800219,
          23.4424849
        ],
        [
          116.4874942,
          23.4437071
        ],
        [
          116.4962293,
          23.4446718
        ],
        [
          116.5051437,
          23.4451571
        ],
        [
          116.5097149,
          23.4455734
        ],
        [
          116.5176968,
          23.4439398
        ],
        [
          116.5234834,
          23.4420602
        ],
        [
          116.5299143,
          23.4381114
        ],
        [
          116.5356753,
          23.4353207
        ],
        [
          116.5418306,
          23.4302956
        ],
        [
          116.5462938,
          23.425452
        ],
        [
          116.5504865,
          23.4195649
        ],
        [
          116.5544952,
          23.4128521
        ],
        [
          116.5588481,
          23.4008524
        ],
        [
          116.5661677,
          23.3939898
        ],
        [
          116.5737749,
          23.4062659
        ],
        [
          116.5710307,
          23.4073958
        ],
        [
          116.5707312,
          23.4106692
        ],
        [
          116.5798294,
          23.4083289
        ],
        [
          116.5820481,
          23.4123527
        ],
        [
          116.5724675,
          23.4146092
        ],
        [
          116.5736729,
          23.4175763
        ],
        [
          116.5738555,
          23.4190826
        ],
        [
          116.575139,
          23.422024
        ],
        [
          116.5776328,
          23.4259665
        ],
        [
          116.5794764,
          23.4257134
        ],
        [
          116.5811241,
          23.4250627
        ],
        [
          116.5829868,
          23.4258867
        ],
        [
          116.5841538,
          23.4275819
        ],
        [
          116.5856995,
          23.4282095
        ],
        [
          116.5868127,
          23.4290604
        ],
        [
          116.5870708,
          23.4309569
        ],
        [
          116.5868513,
          23.431784
        ],
        [
          116.5868339,
          23.4338861
        ],
        [
          116.585951,
          23.4360373
        ],
        [
          116.5857343,
          23.4371683
        ],
        [
          116.5861189,
          23.4384906
        ],
        [
          116.5859021,
          23.4402804
        ],
        [
          116.5849478,
          23.4408159
        ],
        [
          116.5849817,
          23.4445076
        ],
        [
          116.5851748,
          23.4461829
        ],
        [
          116.5841849,
          23.4473814
        ],
        [
          116.5814095,
          23.4490946
        ],
        [
          116.5799572,
          23.44838
        ],
        [
          116.5785733,
          23.4479368
        ],
        [
          116.5755227,
          23.4507387
        ],
        [
          116.5746978,
          23.4582184
        ],
        [
          116.5751969,
          23.4599891
        ],
        [
          116.57554,
          23.4604854
        ],
        [
          116.5759045,
          23.4638842
        ],
        [
          116.5781214,
          23.4666465
        ],
        [
          116.5799662,
          23.4675117
        ],
        [
          116.5837283,
          23.4648154
        ],
        [
          116.5843329,
          23.4616056
        ],
        [
          116.5842836,
          23.4594959
        ],
        [
          116.5846203,
          23.4579534
        ],
        [
          116.5855752,
          23.4560184
        ],
        [
          116.5877558,
          23.4551468
        ],
        [
          116.5892661,
          23.4547159
        ],
        [
          116.59035,
          23.453971
        ],
        [
          116.591925,
          23.4514247
        ],
        [
          116.5933132,
          23.4498153
        ],
        [
          116.595986,
          23.4489287
        ],
        [
          116.5980199,
          23.4473561
        ],
        [
          116.5999147,
          23.4462904
        ],
        [
          116.6011055,
          23.445776
        ],
        [
          116.6020598,
          23.4448212
        ],
        [
          116.6027804,
          23.4422133
        ],
        [
          116.6048653,
          23.4401372
        ],
        [
          116.60754,
          23.4390317
        ],
        [
          116.6090966,
          23.4377507
        ],
        [
          116.6096624,
          23.4360354
        ],
        [
          116.6115204,
          23.4353133
        ],
        [
          116.6142623,
          23.4356538
        ],
        [
          116.6164583,
          23.4352252
        ],
        [
          116.6176227,
          23.434369
        ],
        [
          116.6199212,
          23.4315488
        ],
        [
          116.6223102,
          23.4313008
        ],
        [
          116.6235639,
          23.432019
        ],
        [
          116.624601,
          23.4323714
        ],
        [
          116.6257327,
          23.4321435
        ],
        [
          116.6270105,
          23.4351867
        ],
        [
          116.6253784,
          23.4375116
        ],
        [
          116.6255502,
          23.4391272
        ],
        [
          116.6296667,
          23.4452746
        ],
        [
          116.6272616,
          23.44953
        ],
        [
          116.6288584,
          23.4519544
        ],
        [
          116.629159,
          23.4531758
        ],
        [
          116.6276882,
          23.4559363
        ],
        [
          116.623317,
          23.4581641
        ],
        [
          116.6212739,
          23.4632503
        ],
        [
          116.6154888,
          23.4690478
        ],
        [
          116.6132032,
          23.4693622
        ],
        [
          116.6103748,
          23.4674754
        ],
        [
          116.608009,
          23.4668659
        ],
        [
          116.6040138,
          23.4675223
        ],
        [
          116.5982541,
          23.4713243
        ],
        [
          116.5893605,
          23.475992
        ],
        [
          116.5857293,
          23.4773471
        ],
        [
          116.5822499,
          23.4783202
        ],
        [
          116.579869,
          23.4771287
        ],
        [
          116.5765263,
          23.4766046
        ],
        [
          116.5743088,
          23.4774251
        ],
        [
          116.5725515,
          23.4786488
        ],
        [
          116.5707032,
          23.4789736
        ],
        [
          116.5670445,
          23.4808394
        ],
        [
          116.5634124,
          23.4839334
        ],
        [
          116.5604989,
          23.4823952
        ],
        [
          116.5575848,
          23.4832337
        ],
        [
          116.5555086,
          23.4851306
        ],
        [
          116.5534675,
          23.4890784
        ],
        [
          116.5503576,
          23.4982657
        ],
        [
          116.5459151,
          23.5002984
        ],
        [
          116.5421948,
          23.5030114
        ],
        [
          116.5396101,
          23.5064561
        ],
        [
          116.5392753,
          23.5082854
        ],
        [
          116.5397798,
          23.5128709
        ],
        [
          116.5403668,
          23.5217648
        ],
        [
          116.5396108,
          23.5271329
        ],
        [
          116.5400858,
          23.5305498
        ],
        [
          116.5417715,
          23.5333526
        ],
        [
          116.5453292,
          23.5342853
        ],
        [
          116.5477291,
          23.535464
        ],
        [
          116.5495576,
          23.536957
        ],
        [
          116.5504936,
          23.5386143
        ],
        [
          116.5506936,
          23.5403168
        ],
        [
          116.5497815,
          23.5415954
        ],
        [
          116.5490386,
          23.5435074
        ],
        [
          116.5492386,
          23.544398
        ],
        [
          116.5528384,
          23.5457599
        ],
        [
          116.5557077,
          23.5464163
        ],
        [
          116.5570519,
          23.5455369
        ],
        [
          116.5583605,
          23.545245
        ],
        [
          116.5595588,
          23.5462665
        ],
        [
          116.5602333,
          23.5476634
        ],
        [
          116.5610327,
          23.5487854
        ],
        [
          116.5631544,
          23.5496383
        ],
        [
          116.5648433,
          23.5495004
        ],
        [
          116.5664413,
          23.5510749
        ],
        [
          116.5642986,
          23.5528023
        ],
        [
          116.5633469,
          23.5543018
        ],
        [
          116.5606257,
          23.559718
        ],
        [
          116.5615968,
          23.5610814
        ],
        [
          116.5617687,
          23.5634077
        ],
        [
          116.5624719,
          23.5656368
        ],
        [
          116.5626051,
          23.5670304
        ],
        [
          116.5625349,
          23.5689228
        ],
        [
          116.5631094,
          23.570537
        ],
        [
          116.5627377,
          23.5718861
        ],
        [
          116.5620508,
          23.5720121
        ],
        [
          116.5611313,
          23.5714739
        ],
        [
          116.5605808,
          23.5715286
        ],
        [
          116.559836,
          23.5726369
        ],
        [
          116.558606,
          23.5728419
        ],
        [
          116.5572412,
          23.5742347
        ],
        [
          116.5558998,
          23.5741937
        ],
        [
          116.5553175,
          23.5744397
        ],
        [
          116.5548385,
          23.5756459
        ],
        [
          116.5543028,
          23.575901
        ],
        [
          116.5522615,
          23.5765943
        ],
        [
          116.5517564,
          23.577545
        ],
        [
          116.5512247,
          23.5783661
        ],
        [
          116.550794,
          23.5794423
        ],
        [
          116.5502077,
          23.5798751
        ],
        [
          116.5495344,
          23.5799215
        ],
        [
          116.5486775,
          23.5796518
        ],
        [
          116.5482047,
          23.579863
        ],
        [
          116.5481667,
          23.5816202
        ],
        [
          116.5478322,
          23.58208
        ],
        [
          116.5471951,
          23.5822069
        ],
        [
          116.5462736,
          23.5804893
        ],
        [
          116.5448693,
          23.5792669
        ],
        [
          116.5448472,
          23.577889
        ],
        [
          116.5459945,
          23.5769945
        ],
        [
          116.5454218,
          23.5753317
        ],
        [
          116.5433796,
          23.5754205
        ],
        [
          116.5412773,
          23.574758
        ],
        [
          116.5382093,
          23.5754871
        ],
        [
          116.5360953,
          23.5775622
        ],
        [
          116.5344191,
          23.5812632
        ],
        [
          116.5294814,
          23.5840428
        ],
        [
          116.5282304,
          23.5804031
        ],
        [
          116.5224369,
          23.5811891
        ],
        [
          116.5170427,
          23.5783778
        ],
        [
          116.5122511,
          23.5791673
        ],
        [
          116.5107964,
          23.578866
        ],
        [
          116.5105213,
          23.574227
        ],
        [
          116.5081679,
          23.5701174
        ],
        [
          116.5052376,
          23.5674293
        ],
        [
          116.4997837,
          23.5663739
        ],
        [
          116.4970141,
          23.5666577
        ],
        [
          116.4949715,
          23.5677749
        ],
        [
          116.4939093,
          23.568151
        ],
        [
          116.4924005,
          23.5682381
        ],
        [
          116.4911248,
          23.5669711
        ],
        [
          116.4911445,
          23.5660067
        ],
        [
          116.4905064,
          23.5647217
        ],
        [
          116.4911667,
          23.5621378
        ],
        [
          116.4930522,
          23.556937
        ],
        [
          116.4937562,
          23.5554197
        ],
        [
          116.4915722,
          23.5532579
        ],
        [
          116.4894249,
          23.5525482
        ],
        [
          116.4872037,
          23.5531236
        ],
        [
          116.4862144,
          23.5554474
        ],
        [
          116.4845651,
          23.5583219
        ],
        [
          116.4831993,
          23.560301
        ],
        [
          116.4815558,
          23.5611985
        ],
        [
          116.4795326,
          23.5611742
        ],
        [
          116.4741016,
          23.5615519
        ],
        [
          116.4711656,
          23.5631979
        ],
        [
          116.4702785,
          23.5643511
        ],
        [
          116.4696409,
          23.5654311
        ],
        [
          116.468691,
          23.566271
        ],
        [
          116.4678265,
          23.5660096
        ],
        [
          116.4662649,
          23.5633379
        ],
        [
          116.4641768,
          23.5599515
        ],
        [
          116.4640654,
          23.5579829
        ],
        [
          116.4629797,
          23.5551479
        ],
        [
          116.4619153,
          23.5541134
        ],
        [
          116.459805,
          23.5535557
        ],
        [
          116.4579764,
          23.5542749
        ],
        [
          116.4555449,
          23.5546636
        ],
        [
          116.4538326,
          23.5543048
        ],
        [
          116.4533545,
          23.5525255
        ],
        [
          116.4537336,
          23.5465334
        ],
        [
          116.4531714,
          23.5416334
        ],
        [
          116.4503646,
          23.5383833
        ],
        [
          116.4468734,
          23.5388107
        ],
        [
          116.4420779,
          23.5466291
        ],
        [
          116.4397683,
          23.5470596
        ],
        [
          116.4364021,
          23.5461182
        ],
        [
          116.4341868,
          23.5500645
        ],
        [
          116.4282483,
          23.5534652
        ],
        [
          116.4216174,
          23.5589539
        ],
        [
          116.414147,
          23.5628564
        ],
        [
          116.4007003,
          23.5676389
        ],
        [
          116.396637,
          23.5677811
        ],
        [
          116.3938508,
          23.5666734
        ],
        [
          116.3907026,
          23.5673556
        ],
        [
          116.3868719,
          23.5692627
        ],
        [
          116.3859436,
          23.5742902
        ],
        [
          116.3899751,
          23.5783423
        ],
        [
          116.3913178,
          23.5827572
        ],
        [
          116.3870658,
          23.5926711
        ],
        [
          116.3834148,
          23.59419
        ],
        [
          116.3813038,
          23.5938952
        ],
        [
          116.3796684,
          23.5892163
        ],
        [
          116.3751556,
          23.5882693
        ],
        [
          116.3713822,
          23.5870756
        ],
        [
          116.3687318,
          23.5876032
        ],
        [
          116.3661958,
          23.589312
        ],
        [
          116.3593931,
          23.5959348
        ],
        [
          116.3413026,
          23.5983129
        ],
        [
          116.332985,
          23.5871056
        ],
        [
          116.3278735,
          23.5836456
        ],
        [
          116.3247362,
          23.5849295
        ],
        [
          116.3254384,
          23.5797263
        ],
        [
          116.3269636,
          23.5761082
        ],
        [
          116.3278286,
          23.574604
        ],
        [
          116.3316467,
          23.5716517
        ],
        [
          116.3357283,
          23.5694947
        ],
        [
          116.3381892,
          23.5684512
        ],
        [
          116.3388516,
          23.5643241
        ],
        [
          116.3384318,
          23.560357
        ],
        [
          116.3374489,
          23.5566958
        ],
        [
          116.3353097,
          23.5530101
        ],
        [
          116.3331889,
          23.5499999
        ],
        [
          116.3322875,
          23.5500035
        ],
        [
          116.330392,
          23.5477789
        ],
        [
          116.3315695,
          23.5475287
        ],
        [
          116.331153,
          23.5451592
        ],
        [
          116.3288268,
          23.5459754
        ],
        [
          116.3279939,
          23.5450539
        ],
        [
          116.3258543,
          23.5452119
        ],
        [
          116.3260698,
          23.5463641
        ],
        [
          116.3248847,
          23.5467715
        ],
        [
          116.3240453,
          23.5422448
        ],
        [
          116.3220208,
          23.5421543
        ],
        [
          116.3218233,
          23.5386686
        ],
        [
          116.3227085,
          23.5341688
        ],
        [
          116.3160362,
          23.5330764
        ],
        [
          116.3077725,
          23.5333654
        ],
        [
          116.302307,
          23.530741
        ],
        [
          116.2958613,
          23.5318996
        ],
        [
          116.2855145,
          23.5353208
        ],
        [
          116.273202,
          23.5295496
        ]
      ]
    ]
  },
  "properties": {
    "adcode": 445202,
    "name": "榕城",
    "parent": "揭阳",
    "outer": false
  }
}
