{
  "type": "Feature",
  "geometry": {
    "type": "Polygon",
    "coordinates": [
      [
        [
          116.6977523,
          23.5853547
        ],
        [
          116.6988262,
          23.5858224
        ],
        [
          116.7004445,
          23.5827685
        ],
        [
          116.7013684,
          23.5822436
        ],
        [
          116.7038419,
          23.5831504
        ],
        [
          116.704453,
          23.5844839
        ],
        [
          116.7068683,
          23.5851239
        ],
        [
          116.7100444,
          23.5873217
        ],
        [
          116.7101068,
          23.5888517
        ],
        [
          116.7090883,
          23.5941852
        ],
        [
          116.7066439,
          23.5960786
        ],
        [
          116.7079497,
          23.6000064
        ],
        [
          116.7141189,
          23.602993
        ],
        [
          116.7279935,
          23.6040774
        ],
        [
          116.729303,
          23.6062106
        ],
        [
          116.7326131,
          23.6054545
        ],
        [
          116.7342374,
          23.6042438
        ],
        [
          116.7351104,
          23.6022439
        ],
        [
          116.7362879,
          23.601158
        ],
        [
          116.7359121,
          23.5996723
        ],
        [
          116.736756,
          23.598659
        ],
        [
          116.7363606,
          23.5978975
        ],
        [
          116.7365349,
          23.5971788
        ],
        [
          116.737794,
          23.5967309
        ],
        [
          116.7399726,
          23.5952455
        ],
        [
          116.7426751,
          23.5948929
        ],
        [
          116.7450396,
          23.5920067
        ],
        [
          116.7457086,
          23.5904896
        ],
        [
          116.7465104,
          23.5906973
        ],
        [
          116.7471727,
          23.5890361
        ],
        [
          116.7465215,
          23.5886911
        ],
        [
          116.7469921,
          23.5867264
        ],
        [
          116.7477077,
          23.5846696
        ],
        [
          116.7490324,
          23.5848612
        ],
        [
          116.7501051,
          23.5837091
        ],
        [
          116.7501051,
          23.5816645
        ],
        [
          116.751084,
          23.5809251
        ],
        [
          116.7512606,
          23.578202
        ],
        [
          116.7567353,
          23.5765924
        ],
        [
          116.7587436,
          23.5786334
        ],
        [
          116.7578412,
          23.5799034
        ],
        [
          116.758643,
          23.5805105
        ],
        [
          116.7597789,
          23.5792369
        ],
        [
          116.7603064,
          23.5790859
        ],
        [
          116.7621713,
          23.580891
        ],
        [
          116.7631093,
          23.5830228
        ],
        [
          116.7640956,
          23.5834439
        ],
        [
          116.7665961,
          23.5854459
        ],
        [
          116.7677112,
          23.5868319
        ],
        [
          116.7695379,
          23.5861506
        ],
        [
          116.7715557,
          23.5851578
        ],
        [
          116.7723828,
          23.5866565
        ],
        [
          116.7733598,
          23.5867928
        ],
        [
          116.7735935,
          23.5857417
        ],
        [
          116.7749103,
          23.585294
        ],
        [
          116.776076,
          23.5832715
        ],
        [
          116.78054,
          23.5820769
        ],
        [
          116.781241,
          23.5833617
        ],
        [
          116.7821448,
          23.5841276
        ],
        [
          116.7821744,
          23.5845684
        ],
        [
          116.7808787,
          23.5854443
        ],
        [
          116.7820959,
          23.5886778
        ],
        [
          116.7833066,
          23.5890866
        ],
        [
          116.7844111,
          23.5902934
        ],
        [
          116.7876772,
          23.5917728
        ],
        [
          116.7899655,
          23.5920973
        ],
        [
          116.7900821,
          23.5958935
        ],
        [
          116.7871359,
          23.5963851
        ],
        [
          116.7870535,
          23.6018697
        ],
        [
          116.7896963,
          23.6055376
        ],
        [
          116.7903897,
          23.6084353
        ],
        [
          116.7895825,
          23.6106539
        ],
        [
          116.7912156,
          23.6130682
        ],
        [
          116.7960275,
          23.6128457
        ],
        [
          116.7973019,
          23.6105492
        ],
        [
          116.8008915,
          23.609401
        ],
        [
          116.8030288,
          23.6099894
        ],
        [
          116.8055589,
          23.61185
        ],
        [
          116.8072156,
          23.6124144
        ],
        [
          116.8083048,
          23.6140746
        ],
        [
          116.8104335,
          23.6150801
        ],
        [
          116.8118715,
          23.6147831
        ],
        [
          116.8127636,
          23.6134013
        ],
        [
          116.8154046,
          23.6128035
        ],
        [
          116.8170524,
          23.6133499
        ],
        [
          116.8173932,
          23.6148527
        ],
        [
          116.8191508,
          23.6165206
        ],
        [
          116.82201,
          23.6145254
        ],
        [
          116.823209,
          23.6145539
        ],
        [
          116.8239499,
          23.6172603
        ],
        [
          116.8250909,
          23.6177328
        ],
        [
          116.8258127,
          23.6195391
        ],
        [
          116.8261387,
          23.6230237
        ],
        [
          116.8273458,
          23.6247807
        ],
        [
          116.8270387,
          23.6250616
        ],
        [
          116.825206,
          23.6247048
        ],
        [
          116.8232762,
          23.6248913
        ],
        [
          116.8225872,
          23.6252716
        ],
        [
          116.8215012,
          23.6279227
        ],
        [
          116.8190457,
          23.6287663
        ],
        [
          116.8179726,
          23.6296107
        ],
        [
          116.8179972,
          23.6300445
        ],
        [
          116.8203916,
          23.6306548
        ],
        [
          116.8204647,
          23.6311187
        ],
        [
          116.8189298,
          23.6328501
        ],
        [
          116.8191131,
          23.6332909
        ],
        [
          116.8219217,
          23.6352769
        ],
        [
          116.8232969,
          23.6354123
        ],
        [
          116.822813,
          23.6363877
        ],
        [
          116.8206255,
          23.6380547
        ],
        [
          116.8208508,
          23.6367098
        ],
        [
          116.8207429,
          23.6355344
        ],
        [
          116.8190701,
          23.6362988
        ],
        [
          116.8168285,
          23.6382168
        ],
        [
          116.8153999,
          23.640694
        ],
        [
          116.8122352,
          23.641228
        ],
        [
          116.8050833,
          23.6456517
        ],
        [
          116.8065239,
          23.6483327
        ],
        [
          116.8046501,
          23.6507357
        ],
        [
          116.8043169,
          23.65455
        ],
        [
          116.8090474,
          23.6566862
        ],
        [
          116.8164836,
          23.6616236
        ],
        [
          116.8238276,
          23.6646495
        ],
        [
          116.8284633,
          23.6658593
        ],
        [
          116.8299426,
          23.667098
        ],
        [
          116.8285267,
          23.6675818
        ],
        [
          116.8283196,
          23.6685288
        ],
        [
          116.8300823,
          23.6690856
        ],
        [
          116.8335057,
          23.6711565
        ],
        [
          116.8333789,
          23.6719114
        ],
        [
          116.8323223,
          23.6713888
        ],
        [
          116.831477,
          23.6707307
        ],
        [
          116.8294272,
          23.6702082
        ],
        [
          116.8288989,
          23.669763
        ],
        [
          116.828286,
          23.6702275
        ],
        [
          116.8302533,
          23.6721642
        ],
        [
          116.8311991,
          23.6722268
        ],
        [
          116.8320109,
          23.6730701
        ],
        [
          116.8328236,
          23.6731232
        ],
        [
          116.8334959,
          23.6738642
        ],
        [
          116.8346318,
          23.6737806
        ],
        [
          116.8379828,
          23.6748666
        ],
        [
          116.8380722,
          23.677446
        ],
        [
          116.8370892,
          23.6776329
        ],
        [
          116.8364282,
          23.6782173
        ],
        [
          116.8346846,
          23.6781965
        ],
        [
          116.8340671,
          23.6789662
        ],
        [
          116.8307226,
          23.6784552
        ],
        [
          116.8305277,
          23.6791982
        ],
        [
          116.8277537,
          23.678967
        ],
        [
          116.827561,
          23.6794877
        ],
        [
          116.8259223,
          23.6794883
        ],
        [
          116.8254497,
          23.6805026
        ],
        [
          116.8249569,
          23.6807664
        ],
        [
          116.8238629,
          23.6795199
        ],
        [
          116.8208155,
          23.6796447
        ],
        [
          116.8193566,
          23.6787951
        ],
        [
          116.8183511,
          23.6788026
        ],
        [
          116.817944,
          23.6800114
        ],
        [
          116.8186954,
          23.6810747
        ],
        [
          116.8168107,
          23.6828917
        ],
        [
          116.8135495,
          23.6832171
        ],
        [
          116.8132791,
          23.6850168
        ],
        [
          116.8126144,
          23.6854741
        ],
        [
          116.8125752,
          23.6862691
        ],
        [
          116.8113511,
          23.6879374
        ],
        [
          116.8106262,
          23.6897111
        ],
        [
          116.809989,
          23.6899066
        ],
        [
          116.8104692,
          23.6915401
        ],
        [
          116.8091448,
          23.6912036
        ],
        [
          116.8081402,
          23.6929835
        ],
        [
          116.8081343,
          23.6941643
        ],
        [
          116.8070176,
          23.6962406
        ],
        [
          116.8077736,
          23.6971683
        ],
        [
          116.8069895,
          23.6982576
        ],
        [
          116.806709,
          23.6991567
        ],
        [
          116.8052368,
          23.6995688
        ],
        [
          116.8016369,
          23.7057624
        ],
        [
          116.799752,
          23.7049067
        ],
        [
          116.7970782,
          23.7074405
        ],
        [
          116.7932524,
          23.7087451
        ],
        [
          116.7909351,
          23.7078775
        ],
        [
          116.7840146,
          23.7082789
        ],
        [
          116.7795748,
          23.7095855
        ],
        [
          116.7763854,
          23.7144801
        ],
        [
          116.7732879,
          23.7162703
        ],
        [
          116.767942,
          23.7221475
        ],
        [
          116.7650378,
          23.7263688
        ],
        [
          116.7596898,
          23.7363048
        ],
        [
          116.7621234,
          23.7457168
        ],
        [
          116.7689845,
          23.7565635
        ],
        [
          116.764683,
          23.7618675
        ],
        [
          116.7657781,
          23.7656869
        ],
        [
          116.7670974,
          23.7670876
        ],
        [
          116.761783,
          23.7686888
        ],
        [
          116.7551556,
          23.769026
        ],
        [
          116.7457121,
          23.7676941
        ],
        [
          116.7355671,
          23.7588932
        ],
        [
          116.7305127,
          23.756771
        ],
        [
          116.7231693,
          23.7502291
        ],
        [
          116.7170999,
          23.7432996
        ],
        [
          116.7070816,
          23.7374735
        ],
        [
          116.7055436,
          23.7361849
        ],
        [
          116.6964731,
          23.7334845
        ],
        [
          116.6865865,
          23.7347281
        ],
        [
          116.6818133,
          23.7336087
        ],
        [
          116.6716379,
          23.7321789
        ],
        [
          116.6646921,
          23.7303394
        ],
        [
          116.6612251,
          23.7322962
        ],
        [
          116.6604467,
          23.7333103
        ],
        [
          116.6599253,
          23.7355534
        ],
        [
          116.6554417,
          23.7357682
        ],
        [
          116.6524934,
          23.7335695
        ],
        [
          116.6459151,
          23.7359527
        ],
        [
          116.6428553,
          23.733298
        ],
        [
          116.6449,
          23.7293406
        ],
        [
          116.6430916,
          23.7266128
        ],
        [
          116.638503,
          23.7270663
        ],
        [
          116.6345982,
          23.73075
        ],
        [
          116.6271626,
          23.7301031
        ],
        [
          116.6227178,
          23.7316559
        ],
        [
          116.6154699,
          23.7359346
        ],
        [
          116.6077644,
          23.7375194
        ],
        [
          116.5964674,
          23.7319017
        ],
        [
          116.5813726,
          23.7402015
        ],
        [
          116.5768226,
          23.7362265
        ],
        [
          116.5768226,
          23.7320535
        ],
        [
          116.5727333,
          23.7320535
        ],
        [
          116.5724025,
          23.7345711
        ],
        [
          116.5693188,
          23.7363507
        ],
        [
          116.5647659,
          23.7295655
        ],
        [
          116.5631771,
          23.7216356
        ],
        [
          116.567082,
          23.7160426
        ],
        [
          116.5702843,
          23.7162531
        ],
        [
          116.572416,
          23.7197436
        ],
        [
          116.575902,
          23.7210631
        ],
        [
          116.5775779,
          23.7164293
        ],
        [
          116.58034,
          23.7199799
        ],
        [
          116.5825798,
          23.7179403
        ],
        [
          116.5808723,
          23.7100589
        ],
        [
          116.5834115,
          23.7076483
        ],
        [
          116.5820023,
          23.7021776
        ],
        [
          116.580869,
          23.6919666
        ],
        [
          116.5831176,
          23.6860783
        ],
        [
          116.5826667,
          23.6825246
        ],
        [
          116.5777911,
          23.6828601
        ],
        [
          116.5775374,
          23.6834795
        ],
        [
          116.5764665,
          23.6838409
        ],
        [
          116.5764946,
          23.6852862
        ],
        [
          116.5777065,
          23.6854927
        ],
        [
          116.5772838,
          23.6867831
        ],
        [
          116.5743809,
          23.6866541
        ],
        [
          116.5743809,
          23.6802017
        ],
        [
          116.5777916,
          23.6801716
        ],
        [
          116.5776789,
          23.6772293
        ],
        [
          116.5824078,
          23.6770893
        ],
        [
          116.5926938,
          23.6748987
        ],
        [
          116.5937819,
          23.6736353
        ],
        [
          116.5940852,
          23.6696992
        ],
        [
          116.5929097,
          23.6625618
        ],
        [
          116.5916915,
          23.6619969
        ],
        [
          116.5909832,
          23.6612299
        ],
        [
          116.5918647,
          23.6606174
        ],
        [
          116.5951098,
          23.6602743
        ],
        [
          116.5965919,
          23.6611427
        ],
        [
          116.5980737,
          23.6609104
        ],
        [
          116.6013443,
          23.6617033
        ],
        [
          116.6043221,
          23.661493
        ],
        [
          116.605538,
          23.6617575
        ],
        [
          116.6064505,
          23.6612186
        ],
        [
          116.6076664,
          23.6590331
        ],
        [
          116.6120505,
          23.6583241
        ],
        [
          116.6117353,
          23.6575798
        ],
        [
          116.6133159,
          23.6562991
        ],
        [
          116.617175,
          23.6579689
        ],
        [
          116.6199446,
          23.6546523
        ],
        [
          116.6254929,
          23.6480955
        ],
        [
          116.6216446,
          23.6444104
        ],
        [
          116.6240041,
          23.6424044
        ],
        [
          116.6238254,
          23.6417132
        ],
        [
          116.6210019,
          23.6397251
        ],
        [
          116.6176648,
          23.6347269
        ],
        [
          116.6182634,
          23.6300097
        ],
        [
          116.6194011,
          23.6303752
        ],
        [
          116.6215603,
          23.6328324
        ],
        [
          116.6262266,
          23.636897
        ],
        [
          116.6259578,
          23.6373544
        ],
        [
          116.6279525,
          23.6389787
        ],
        [
          116.63285,
          23.6384149
        ],
        [
          116.6378282,
          23.6348409
        ],
        [
          116.6358798,
          23.6315119
        ],
        [
          116.6368936,
          23.6276525
        ],
        [
          116.6399807,
          23.6254198
        ],
        [
          116.644494,
          23.6243259
        ],
        [
          116.6478055,
          23.6246768
        ],
        [
          116.650689,
          23.6251102
        ],
        [
          116.6529653,
          23.6245092
        ],
        [
          116.6545935,
          23.6233883
        ],
        [
          116.6546426,
          23.6217391
        ],
        [
          116.6583506,
          23.6196916
        ],
        [
          116.661572,
          23.6196503
        ],
        [
          116.662428,
          23.6187009
        ],
        [
          116.6607836,
          23.6181066
        ],
        [
          116.66286,
          23.61364
        ],
        [
          116.6643232,
          23.6124103
        ],
        [
          116.6662877,
          23.6114687
        ],
        [
          116.6679516,
          23.6115186
        ],
        [
          116.6756884,
          23.6070074
        ],
        [
          116.6776482,
          23.604778
        ],
        [
          116.6785504,
          23.604815
        ],
        [
          116.6792712,
          23.6031842
        ],
        [
          116.6804577,
          23.6019667
        ],
        [
          116.6811786,
          23.5996753
        ],
        [
          116.6807425,
          23.598959
        ],
        [
          116.6819216,
          23.5972839
        ],
        [
          116.6831164,
          23.5958523
        ],
        [
          116.6847568,
          23.5953587
        ],
        [
          116.6883161,
          23.5935214
        ],
        [
          116.6888652,
          23.592044
        ],
        [
          116.6913055,
          23.5871958
        ],
        [
          116.6904005,
          23.582877
        ],
        [
          116.6958971,
          23.5790819
        ],
        [
          116.6977523,
          23.5853547
        ]
      ]
    ]
  },
  "properties": {
    "adcode": 445102,
    "name": "湘桥",
    "parent": "潮州",
    "outer": false
  }
}
