{
  "type": "Feature",
  "geometry": {
    "type": "Polygon",
    "coordinates": [
      [
        [
          116.6262266,
          23.636897
        ],
        [
          116.6215603,
          23.6328324
        ],
        [
          116.6194011,
          23.6303752
        ],
        [
          116.6182634,
          23.6300097
        ],
        [
          116.6176648,
          23.6347269
        ],
        [
          116.6210019,
          23.6397251
        ],
        [
          116.6238254,
          23.6417132
        ],
        [
          116.6240041,
          23.6424044
        ],
        [
          116.6216446,
          23.6444104
        ],
        [
          116.6254929,
          23.6480955
        ],
        [
          116.6199446,
          23.6546523
        ],
        [
          116.617175,
          23.6579689
        ],
        [
          116.6133159,
          23.6562991
        ],
        [
          116.6117353,
          23.6575798
        ],
        [
          116.6120505,
          23.6583241
        ],
        [
          116.6076664,
          23.6590331
        ],
        [
          116.6064505,
          23.6612186
        ],
        [
          116.605538,
          23.6617575
        ],
        [
          116.6043221,
          23.661493
        ],
        [
          116.6013443,
          23.6617033
        ],
        [
          116.5980737,
          23.6609104
        ],
        [
          116.5965919,
          23.6611427
        ],
        [
          116.5951098,
          23.6602743
        ],
        [
          116.5918647,
          23.6606174
        ],
        [
          116.5909832,
          23.6612299
        ],
        [
          116.5916915,
          23.6619969
        ],
        [
          116.5929097,
          23.6625618
        ],
        [
          116.5940852,
          23.6696992
        ],
        [
          116.5937819,
          23.6736353
        ],
        [
          116.5926938,
          23.6748987
        ],
        [
          116.5824078,
          23.6770893
        ],
        [
          116.5776789,
          23.6772293
        ],
        [
          116.5777916,
          23.6801716
        ],
        [
          116.5743809,
          23.6802017
        ],
        [
          116.5743809,
          23.6866541
        ],
        [
          116.5772838,
          23.6867831
        ],
        [
          116.5777065,
          23.6854927
        ],
        [
          116.5764946,
          23.6852862
        ],
        [
          116.5764665,
          23.6838409
        ],
        [
          116.5775374,
          23.6834795
        ],
        [
          116.5777911,
          23.6828601
        ],
        [
          116.5826667,
          23.6825246
        ],
        [
          116.5831176,
          23.6860783
        ],
        [
          116.580869,
          23.6919666
        ],
        [
          116.5820023,
          23.7021776
        ],
        [
          116.5834115,
          23.7076483
        ],
        [
          116.5808723,
          23.7100589
        ],
        [
          116.5825798,
          23.7179403
        ],
        [
          116.58034,
          23.7199799
        ],
        [
          116.5775779,
          23.7164293
        ],
        [
          116.575902,
          23.7210631
        ],
        [
          116.572416,
          23.7197436
        ],
        [
          116.5702843,
          23.7162531
        ],
        [
          116.567082,
          23.7160426
        ],
        [
          116.5631771,
          23.7216356
        ],
        [
          116.5647659,
          23.7295655
        ],
        [
          116.5693188,
          23.7363507
        ],
        [
          116.5724025,
          23.7345711
        ],
        [
          116.5727333,
          23.7320535
        ],
        [
          116.5768226,
          23.7320535
        ],
        [
          116.5768226,
          23.7362265
        ],
        [
          116.5813726,
          23.7402015
        ],
        [
          116.5964674,
          23.7319017
        ],
        [
          116.6077644,
          23.7375194
        ],
        [
          116.6154699,
          23.7359346
        ],
        [
          116.6227178,
          23.7316559
        ],
        [
          116.6271626,
          23.7301031
        ],
        [
          116.6345982,
          23.73075
        ],
        [
          116.638503,
          23.7270663
        ],
        [
          116.6430916,
          23.7266128
        ],
        [
          116.6449,
          23.7293406
        ],
        [
          116.6428553,
          23.733298
        ],
        [
          116.6459151,
          23.7359527
        ],
        [
          116.6524934,
          23.7335695
        ],
        [
          116.6554417,
          23.7357682
        ],
        [
          116.6599253,
          23.7355534
        ],
        [
          116.6604467,
          23.7333103
        ],
        [
          116.6612251,
          23.7322962
        ],
        [
          116.6646921,
          23.7303394
        ],
        [
          116.6716379,
          23.7321789
        ],
        [
          116.6818133,
          23.7336087
        ],
        [
          116.6865865,
          23.7347281
        ],
        [
          116.6964731,
          23.7334845
        ],
        [
          116.7055436,
          23.7361849
        ],
        [
          116.7070816,
          23.7374735
        ],
        [
          116.7170999,
          23.7432996
        ],
        [
          116.7231693,
          23.7502291
        ],
        [
          116.7305127,
          23.756771
        ],
        [
          116.7274061,
          23.756818
        ],
        [
          116.7246248,
          23.7673774
        ],
        [
          116.7274457,
          23.7716264
        ],
        [
          116.7273906,
          23.7736694
        ],
        [
          116.7250942,
          23.777437
        ],
        [
          116.7211192,
          23.7818059
        ],
        [
          116.7185505,
          23.784967
        ],
        [
          116.7190804,
          23.7864742
        ],
        [
          116.7177612,
          23.7899537
        ],
        [
          116.7160139,
          23.7925347
        ],
        [
          116.7147521,
          23.793504
        ],
        [
          116.7115747,
          23.7970815
        ],
        [
          116.7110741,
          23.7995925
        ],
        [
          116.7113727,
          23.8011275
        ],
        [
          116.7129987,
          23.8032425
        ],
        [
          116.7148331,
          23.8047188
        ],
        [
          116.7163807,
          23.8047188
        ],
        [
          116.7336527,
          23.8195331
        ],
        [
          116.7384736,
          23.8213262
        ],
        [
          116.7381153,
          23.8243216
        ],
        [
          116.7361208,
          23.8265897
        ],
        [
          116.7355047,
          23.8280204
        ],
        [
          116.7342569,
          23.8283411
        ],
        [
          116.7337769,
          23.8294542
        ],
        [
          116.7345988,
          23.8301055
        ],
        [
          116.7339646,
          23.8317646
        ],
        [
          116.7338034,
          23.8334405
        ],
        [
          116.7346117,
          23.8353916
        ],
        [
          116.7357413,
          23.8365535
        ],
        [
          116.7367189,
          23.838011
        ],
        [
          116.7367249,
          23.8392754
        ],
        [
          116.7371971,
          23.8428483
        ],
        [
          116.7366312,
          23.8443274
        ],
        [
          116.7384693,
          23.8453106
        ],
        [
          116.7400995,
          23.8457077
        ],
        [
          116.740942,
          23.8447501
        ],
        [
          116.7415438,
          23.8434123
        ],
        [
          116.7431472,
          23.8425373
        ],
        [
          116.743332,
          23.8432462
        ],
        [
          116.7429808,
          23.8442241
        ],
        [
          116.7431163,
          23.8458695
        ],
        [
          116.743331,
          23.8467998
        ],
        [
          116.7424931,
          23.8475563
        ],
        [
          116.7427142,
          23.8484274
        ],
        [
          116.7439201,
          23.8489678
        ],
        [
          116.7447471,
          23.8513667
        ],
        [
          116.7464502,
          23.8530565
        ],
        [
          116.7512041,
          23.8562307
        ],
        [
          116.7520797,
          23.8577837
        ],
        [
          116.7520948,
          23.8594867
        ],
        [
          116.747341,
          23.8621857
        ],
        [
          116.7465012,
          23.863703
        ],
        [
          116.7460898,
          23.8656503
        ],
        [
          116.7448528,
          23.8675407
        ],
        [
          116.7440457,
          23.8698606
        ],
        [
          116.7436445,
          23.8725031
        ],
        [
          116.74427,
          23.8749884
        ],
        [
          116.7455321,
          23.8763026
        ],
        [
          116.747591,
          23.8772631
        ],
        [
          116.7502904,
          23.8776405
        ],
        [
          116.753094,
          23.8777959
        ],
        [
          116.7570782,
          23.8771303
        ],
        [
          116.7606501,
          23.8763936
        ],
        [
          116.7642242,
          23.8743213
        ],
        [
          116.7681596,
          23.8725604
        ],
        [
          116.7748809,
          23.8708065
        ],
        [
          116.7818662,
          23.8704116
        ],
        [
          116.7854737,
          23.871191
        ],
        [
          116.7857322,
          23.872682
        ],
        [
          116.7855048,
          23.8747848
        ],
        [
          116.7850639,
          23.8758595
        ],
        [
          116.7836765,
          23.8771464
        ],
        [
          116.7819129,
          23.8796921
        ],
        [
          116.7815005,
          23.8810188
        ],
        [
          116.7824612,
          23.8818664
        ],
        [
          116.784701,
          23.8829618
        ],
        [
          116.7872777,
          23.8835417
        ],
        [
          116.7870654,
          23.8844399
        ],
        [
          116.7877396,
          23.8852242
        ],
        [
          116.7855827,
          23.8873322
        ],
        [
          116.7794378,
          23.8896256
        ],
        [
          116.7768484,
          23.8912063
        ],
        [
          116.7745381,
          23.8929943
        ],
        [
          116.7740395,
          23.8930794
        ],
        [
          116.7733661,
          23.8935192
        ],
        [
          116.7717425,
          23.8936833
        ],
        [
          116.7706629,
          23.8944554
        ],
        [
          116.769448,
          23.8961706
        ],
        [
          116.7685996,
          23.8981334
        ],
        [
          116.7673513,
          23.8990598
        ],
        [
          116.7664242,
          23.8981649
        ],
        [
          116.7654051,
          23.897664
        ],
        [
          116.7643548,
          23.8977362
        ],
        [
          116.7617692,
          23.900503
        ],
        [
          116.758334,
          23.9028663
        ],
        [
          116.7579383,
          23.9020845
        ],
        [
          116.7576739,
          23.899936
        ],
        [
          116.7584221,
          23.8982476
        ],
        [
          116.7578304,
          23.8977424
        ],
        [
          116.7563233,
          23.8982408
        ],
        [
          116.7535946,
          23.8978119
        ],
        [
          116.7519985,
          23.8967182
        ],
        [
          116.7500985,
          23.8978295
        ],
        [
          116.7481016,
          23.8978604
        ],
        [
          116.7450011,
          23.9013516
        ],
        [
          116.7459394,
          23.9037166
        ],
        [
          116.747231,
          23.9039465
        ],
        [
          116.7478563,
          23.9045094
        ],
        [
          116.7479416,
          23.9054845
        ],
        [
          116.7471161,
          23.9060779
        ],
        [
          116.7479324,
          23.9074534
        ],
        [
          116.7483911,
          23.9071433
        ],
        [
          116.749706,
          23.9090625
        ],
        [
          116.7508489,
          23.9086254
        ],
        [
          116.7512912,
          23.9083006
        ],
        [
          116.7522744,
          23.9085077
        ],
        [
          116.7527461,
          23.9091025
        ],
        [
          116.7536569,
          23.9089092
        ],
        [
          116.7544911,
          23.9106659
        ],
        [
          116.7534339,
          23.9125245
        ],
        [
          116.7524155,
          23.9114088
        ],
        [
          116.7516264,
          23.9129138
        ],
        [
          116.7530587,
          23.9144989
        ],
        [
          116.7538845,
          23.9187085
        ],
        [
          116.7504669,
          23.9211836
        ],
        [
          116.7484606,
          23.9209561
        ],
        [
          116.7481793,
          23.9223926
        ],
        [
          116.7474025,
          23.9277752
        ],
        [
          116.7461704,
          23.930737
        ],
        [
          116.7450732,
          23.9339947
        ],
        [
          116.7443173,
          23.9357962
        ],
        [
          116.7438859,
          23.9379052
        ],
        [
          116.7441216,
          23.940317
        ],
        [
          116.7447771,
          23.9428508
        ],
        [
          116.744806,
          23.9451646
        ],
        [
          116.7439157,
          23.9461884
        ],
        [
          116.741115,
          23.9501274
        ],
        [
          116.7392448,
          23.9532173
        ],
        [
          116.7371673,
          23.9578228
        ],
        [
          116.7344732,
          23.9587918
        ],
        [
          116.7316059,
          23.9595561
        ],
        [
          116.7274463,
          23.9601422
        ],
        [
          116.7240891,
          23.9613094
        ],
        [
          116.7220131,
          23.9637721
        ],
        [
          116.7207837,
          23.967128
        ],
        [
          116.7183425,
          23.9715997
        ],
        [
          116.7164781,
          23.976424
        ],
        [
          116.7166898,
          23.9791014
        ],
        [
          116.7173354,
          23.9810288
        ],
        [
          116.7171473,
          23.9833317
        ],
        [
          116.7146434,
          23.9872045
        ],
        [
          116.7148141,
          23.9889838
        ],
        [
          116.7146176,
          23.9894729
        ],
        [
          116.7134524,
          23.9909672
        ],
        [
          116.712849,
          23.993639
        ],
        [
          116.7119753,
          23.9950531
        ],
        [
          116.7111847,
          23.9961238
        ],
        [
          116.71018,
          23.9967006
        ],
        [
          116.7091283,
          23.9970882
        ],
        [
          116.708704,
          23.9970811
        ],
        [
          116.7081929,
          23.9977807
        ],
        [
          116.7080652,
          23.9998709
        ],
        [
          116.7078195,
          24.000547
        ],
        [
          116.7071202,
          24.0016708
        ],
        [
          116.7055845,
          24.0023234
        ],
        [
          116.7013161,
          24.0031964
        ],
        [
          116.6994472,
          24.0042944
        ],
        [
          116.6980836,
          24.0053777
        ],
        [
          116.6977894,
          24.0045156
        ],
        [
          116.6968604,
          24.0033908
        ],
        [
          116.6966443,
          24.0020433
        ],
        [
          116.6967177,
          24.0011621
        ],
        [
          116.6935964,
          24.0047832
        ],
        [
          116.6931523,
          24.0057198
        ],
        [
          116.6869393,
          24.0088857
        ],
        [
          116.6859238,
          24.0081266
        ],
        [
          116.6883138,
          24.0027281
        ],
        [
          116.6898131,
          23.9998949
        ],
        [
          116.6903022,
          23.9979519
        ],
        [
          116.6903022,
          23.9968983
        ],
        [
          116.6906965,
          23.9951262
        ],
        [
          116.6909773,
          23.9946427
        ],
        [
          116.6901387,
          23.9937791
        ],
        [
          116.6888092,
          23.9931375
        ],
        [
          116.6862593,
          23.9924354
        ],
        [
          116.6853728,
          23.9918309
        ],
        [
          116.6853793,
          23.9913011
        ],
        [
          116.6864178,
          23.9902208
        ],
        [
          116.6883348,
          23.9890764
        ],
        [
          116.6892827,
          23.9881553
        ],
        [
          116.6897521,
          23.9866248
        ],
        [
          116.6900127,
          23.9832066
        ],
        [
          116.6891676,
          23.9822635
        ],
        [
          116.687997,
          23.9821397
        ],
        [
          116.6852166,
          23.983324
        ],
        [
          116.6834503,
          23.9837978
        ],
        [
          116.6829582,
          23.9845439
        ],
        [
          116.6823407,
          23.9858812
        ],
        [
          116.6826563,
          23.9889126
        ],
        [
          116.6826536,
          23.9906006
        ],
        [
          116.6821262,
          23.9916795
        ],
        [
          116.6810224,
          23.9924655
        ],
        [
          116.6801801,
          23.9923302
        ],
        [
          116.678378,
          23.9919799
        ],
        [
          116.6759103,
          23.9913874
        ],
        [
          116.6734873,
          23.9907191
        ],
        [
          116.6720035,
          23.9907228
        ],
        [
          116.6685349,
          23.990241
        ],
        [
          116.667622,
          23.9896995
        ],
        [
          116.6674916,
          23.9887479
        ],
        [
          116.6676235,
          23.9883163
        ],
        [
          116.667429,
          23.9878385
        ],
        [
          116.666661,
          23.9878329
        ],
        [
          116.6646385,
          23.9885373
        ],
        [
          116.6630664,
          23.9892635
        ],
        [
          116.6620902,
          23.9897857
        ],
        [
          116.6612262,
          23.9912413
        ],
        [
          116.6554486,
          23.9914673
        ],
        [
          116.6532897,
          23.9913904
        ],
        [
          116.6524671,
          23.9920357
        ],
        [
          116.6506919,
          23.9938702
        ],
        [
          116.64852,
          23.9968336
        ],
        [
          116.6468542,
          23.9978746
        ],
        [
          116.6455757,
          23.9979912
        ],
        [
          116.6445436,
          23.9975628
        ],
        [
          116.6436121,
          23.9974007
        ],
        [
          116.6425532,
          23.9972924
        ],
        [
          116.6413118,
          23.9966111
        ],
        [
          116.6406544,
          23.9955935
        ],
        [
          116.6391141,
          23.9947121
        ],
        [
          116.6374252,
          23.9932902
        ],
        [
          116.6367511,
          23.9924267
        ],
        [
          116.6366966,
          23.991368
        ],
        [
          116.6368996,
          23.990334
        ],
        [
          116.6372793,
          23.9893494
        ],
        [
          116.6377314,
          23.9887564
        ],
        [
          116.6380153,
          23.9880117
        ],
        [
          116.6378865,
          23.98681
        ],
        [
          116.6378878,
          23.986061
        ],
        [
          116.6374956,
          23.985133
        ],
        [
          116.6357181,
          23.9838091
        ],
        [
          116.6356755,
          23.9827194
        ],
        [
          116.6362758,
          23.9772011
        ],
        [
          116.6353991,
          23.9752926
        ],
        [
          116.6349727,
          23.9736181
        ],
        [
          116.6338791,
          23.9719047
        ],
        [
          116.6328457,
          23.9716701
        ],
        [
          116.6301241,
          23.9724254
        ],
        [
          116.6290705,
          23.9731501
        ],
        [
          116.6284117,
          23.9742454
        ],
        [
          116.6263888,
          23.97493
        ],
        [
          116.6243247,
          23.9764912
        ],
        [
          116.62324,
          23.9769246
        ],
        [
          116.6223211,
          23.9768566
        ],
        [
          116.6194865,
          23.9755837
        ],
        [
          116.6166503,
          23.9723803
        ],
        [
          116.61423,
          23.9713756
        ],
        [
          116.6114104,
          23.9706958
        ],
        [
          116.606429,
          23.9713354
        ],
        [
          116.6053402,
          23.9700601
        ],
        [
          116.6040812,
          23.9635238
        ],
        [
          116.6053012,
          23.9630369
        ],
        [
          116.6127445,
          23.9578743
        ],
        [
          116.6129641,
          23.9566633
        ],
        [
          116.6120593,
          23.9551056
        ],
        [
          116.6128861,
          23.954616
        ],
        [
          116.6151576,
          23.9546048
        ],
        [
          116.6171683,
          23.9549404
        ],
        [
          116.6214077,
          23.9529007
        ],
        [
          116.6191983,
          23.9501104
        ],
        [
          116.6160282,
          23.9500774
        ],
        [
          116.611362,
          23.9512405
        ],
        [
          116.6052279,
          23.9522187
        ],
        [
          116.6030229,
          23.9537704
        ],
        [
          116.6019218,
          23.9542627
        ],
        [
          116.6003531,
          23.9541132
        ],
        [
          116.5998378,
          23.9531438
        ],
        [
          116.6000191,
          23.9511336
        ],
        [
          116.6007399,
          23.9495549
        ],
        [
          116.6018161,
          23.9488464
        ],
        [
          116.6040076,
          23.9443768
        ],
        [
          116.6033275,
          23.9381601
        ],
        [
          116.6020495,
          23.9366328
        ],
        [
          116.6001192,
          23.9351304
        ],
        [
          116.5998581,
          23.9323043
        ],
        [
          116.6011069,
          23.9268431
        ],
        [
          116.6002223,
          23.9223199
        ],
        [
          116.6004282,
          23.9135629
        ],
        [
          116.5989352,
          23.9121979
        ],
        [
          116.5928502,
          23.9096539
        ],
        [
          116.5884892,
          23.9045499
        ],
        [
          116.5871531,
          23.9036049
        ],
        [
          116.5857841,
          23.9034759
        ],
        [
          116.5835012,
          23.9044289
        ],
        [
          116.5811841,
          23.9064969
        ],
        [
          116.5772671,
          23.9085239
        ],
        [
          116.5715781,
          23.9085319
        ],
        [
          116.5700612,
          23.9093879
        ],
        [
          116.5704241,
          23.9116969
        ],
        [
          116.5696492,
          23.9120609
        ],
        [
          116.5640591,
          23.9128849
        ],
        [
          116.5582221,
          23.9109539
        ],
        [
          116.5575041,
          23.9109619
        ],
        [
          116.5533492,
          23.9097669
        ],
        [
          116.5529042,
          23.9088709
        ],
        [
          116.5528461,
          23.9055519
        ],
        [
          116.5544132,
          23.9037259
        ],
        [
          116.5539921,
          23.9015779
        ],
        [
          116.5511391,
          23.8983639
        ],
        [
          116.5448401,
          23.8953509
        ],
        [
          116.5421772,
          23.8937999
        ],
        [
          116.5400171,
          23.8921689
        ],
        [
          116.5389211,
          23.8920069
        ],
        [
          116.5356142,
          23.8923709
        ],
        [
          116.5347651,
          23.8921849
        ],
        [
          116.5316071,
          23.8891399
        ],
        [
          116.5317391,
          23.8865709
        ],
        [
          116.5307172,
          23.8842369
        ],
        [
          116.5277981,
          23.8839379
        ],
        [
          116.5263061,
          23.8831629
        ],
        [
          116.5210292,
          23.8814099
        ],
        [
          116.5192071,
          23.8836389
        ],
        [
          116.5176412,
          23.8846809
        ],
        [
          116.5163541,
          23.8842859
        ],
        [
          116.5165191,
          23.8812239
        ],
        [
          116.5138151,
          23.8783399
        ],
        [
          116.5115972,
          23.8742129
        ],
        [
          116.5103362,
          23.8729609
        ],
        [
          116.5105251,
          23.8700039
        ],
        [
          116.5097172,
          23.8692369
        ],
        [
          116.5078211,
          23.8693249
        ],
        [
          116.5060151,
          23.8699229
        ],
        [
          116.5016622,
          23.8701489
        ],
        [
          116.4979111,
          23.8698019
        ],
        [
          116.4946131,
          23.8711589
        ],
        [
          116.4923211,
          23.8717489
        ],
        [
          116.4908691,
          23.8695349
        ],
        [
          116.4904571,
          23.8667809
        ],
        [
          116.4920322,
          23.8640259
        ],
        [
          116.4943162,
          23.8610039
        ],
        [
          116.5007552,
          23.8564239
        ],
        [
          116.5061221,
          23.8523839
        ],
        [
          116.5119101,
          23.8485219
        ],
        [
          116.5139722,
          23.8460249
        ],
        [
          116.5154471,
          23.8428979
        ],
        [
          116.5178712,
          23.8385679
        ],
        [
          116.5212021,
          23.8349309
        ],
        [
          116.5213342,
          23.8342279
        ],
        [
          116.5197022,
          23.8320059
        ],
        [
          116.5191251,
          23.8301959
        ],
        [
          116.5179871,
          23.8282889
        ],
        [
          116.5147712,
          23.8260589
        ],
        [
          116.5137412,
          23.8259459
        ],
        [
          116.5124541,
          23.8290319
        ],
        [
          116.5101461,
          23.8313679
        ],
        [
          116.5079531,
          23.8322159
        ],
        [
          116.5057681,
          23.8313679
        ],
        [
          116.5051991,
          23.8303009
        ],
        [
          116.5060232,
          23.8257349
        ],
        [
          116.5086951,
          23.8184059
        ],
        [
          116.5080021,
          23.8155609
        ],
        [
          116.5065352,
          23.8146069
        ],
        [
          116.5059162,
          23.8134759
        ],
        [
          116.5056692,
          23.8113419
        ],
        [
          116.5091812,
          23.8103239
        ],
        [
          116.5118531,
          23.8066059
        ],
        [
          116.5120831,
          23.8052239
        ],
        [
          116.5109372,
          23.8035269
        ],
        [
          116.5090991,
          23.8018299
        ],
        [
          116.5058421,
          23.8008839
        ],
        [
          116.5012581,
          23.7961469
        ],
        [
          116.4997661,
          23.7902469
        ],
        [
          116.4993291,
          23.7841439
        ],
        [
          116.4992961,
          23.7791879
        ],
        [
          116.4998981,
          23.7742249
        ],
        [
          116.5000711,
          23.7681209
        ],
        [
          116.4998322,
          23.7648709
        ],
        [
          116.4981741,
          23.7633669
        ],
        [
          116.4946372,
          23.7616769
        ],
        [
          116.4937961,
          23.7582489
        ],
        [
          116.4927412,
          23.7563489
        ],
        [
          116.4914962,
          23.7550229
        ],
        [
          116.4887011,
          23.7542309
        ],
        [
          116.4865901,
          23.7543119
        ],
        [
          116.4805061,
          23.7540769
        ],
        [
          116.4760371,
          23.7550639
        ],
        [
          116.4666622,
          23.7566969
        ],
        [
          116.4639832,
          23.7576909
        ],
        [
          116.4603221,
          23.7577559
        ],
        [
          116.4582772,
          23.7599309
        ],
        [
          116.4566861,
          23.7606259
        ],
        [
          116.4524321,
          23.7640379
        ],
        [
          116.4489942,
          23.7694949
        ],
        [
          116.4471471,
          23.7715649
        ],
        [
          116.4413672,
          23.7745479
        ],
        [
          116.4383581,
          23.7757119
        ],
        [
          116.4353732,
          23.7756149
        ],
        [
          116.4346812,
          23.7760999
        ],
        [
          116.4351181,
          23.7782749
        ],
        [
          116.4347882,
          23.7801419
        ],
        [
          116.4315151,
          23.7828749
        ],
        [
          116.4249851,
          23.7826479
        ],
        [
          116.4212251,
          23.7833429
        ],
        [
          116.4176882,
          23.7813549
        ],
        [
          116.4133511,
          23.7807649
        ],
        [
          116.4122131,
          23.7803609
        ],
        [
          116.4073492,
          23.7741279
        ],
        [
          116.4057821,
          23.7729389
        ],
        [
          116.4036962,
          23.7725999
        ],
        [
          116.4000851,
          23.7731579
        ],
        [
          116.3989141,
          23.7727449
        ],
        [
          116.3982551,
          23.7717669
        ],
        [
          116.3974631,
          23.7678139
        ],
        [
          116.3972821,
          23.7647659
        ],
        [
          116.3940331,
          23.7615719
        ],
        [
          116.3931181,
          23.7599069
        ],
        [
          116.3911311,
          23.7579739
        ],
        [
          116.3886081,
          23.7543279
        ],
        [
          116.3877842,
          23.7524519
        ],
        [
          116.3862752,
          23.7507539
        ],
        [
          116.3826311,
          23.7503169
        ],
        [
          116.3814522,
          23.7484819
        ],
        [
          116.3805941,
          23.7455709
        ],
        [
          116.3768455,
          23.7430302
        ],
        [
          116.376723,
          23.74016
        ],
        [
          116.3746737,
          23.7392953
        ],
        [
          116.3736585,
          23.7394184
        ],
        [
          116.3716063,
          23.7385566
        ],
        [
          116.3686739,
          23.7427554
        ],
        [
          116.367762,
          23.7426657
        ],
        [
          116.3653123,
          23.7400421
        ],
        [
          116.3640613,
          23.7376148
        ],
        [
          116.363716,
          23.7354814
        ],
        [
          116.3645729,
          23.7328666
        ],
        [
          116.3660596,
          23.7295448
        ],
        [
          116.367881,
          23.7259854
        ],
        [
          116.3668481,
          23.722803
        ],
        [
          116.3667901,
          23.7197855
        ],
        [
          116.3705357,
          23.7164402
        ],
        [
          116.3719106,
          23.7147019
        ],
        [
          116.3730056,
          23.7145712
        ],
        [
          116.3757576,
          23.7165079
        ],
        [
          116.3782332,
          23.7171399
        ],
        [
          116.3807622,
          23.7171126
        ],
        [
          116.3832381,
          23.7148462
        ],
        [
          116.3859256,
          23.7106366
        ],
        [
          116.3893391,
          23.7071346
        ],
        [
          116.391046,
          23.7060248
        ],
        [
          116.3915932,
          23.7027003
        ],
        [
          116.3937232,
          23.700778
        ],
        [
          116.3964863,
          23.699407
        ],
        [
          116.3992712,
          23.6967606
        ],
        [
          116.4026195,
          23.6957272
        ],
        [
          116.4090447,
          23.6950365
        ],
        [
          116.4222862,
          23.6952136
        ],
        [
          116.4246059,
          23.694417
        ],
        [
          116.4267743,
          23.6930737
        ],
        [
          116.4272922,
          23.6877766
        ],
        [
          116.4295475,
          23.6822298
        ],
        [
          116.4352016,
          23.6739017
        ],
        [
          116.4382697,
          23.6718263
        ],
        [
          116.4392065,
          23.671622
        ],
        [
          116.4400304,
          23.6721879
        ],
        [
          116.4418856,
          23.6783935
        ],
        [
          116.4437808,
          23.6802596
        ],
        [
          116.4475046,
          23.6796119
        ],
        [
          116.4520596,
          23.678083
        ],
        [
          116.4539648,
          23.6776743
        ],
        [
          116.4562205,
          23.677731
        ],
        [
          116.4597391,
          23.6767134
        ],
        [
          116.4603773,
          23.6751904
        ],
        [
          116.4656194,
          23.6721045
        ],
        [
          116.466685,
          23.6699985
        ],
        [
          116.4674289,
          23.6660349
        ],
        [
          116.4688567,
          23.6617863
        ],
        [
          116.4698896,
          23.6584074
        ],
        [
          116.4725004,
          23.6595493
        ],
        [
          116.4762056,
          23.6594732
        ],
        [
          116.4785125,
          23.6610733
        ],
        [
          116.4793376,
          23.661397
        ],
        [
          116.4802745,
          23.6613836
        ],
        [
          116.4824693,
          23.6596751
        ],
        [
          116.4843057,
          23.6591345
        ],
        [
          116.4887905,
          23.6598705
        ],
        [
          116.4901105,
          23.6598547
        ],
        [
          116.4941286,
          23.6588443
        ],
        [
          116.4994446,
          23.6592341
        ],
        [
          116.5039228,
          23.6585145
        ],
        [
          116.5069701,
          23.6592772
        ],
        [
          116.50862,
          23.6591024
        ],
        [
          116.5096716,
          23.6585324
        ],
        [
          116.5102349,
          23.6555774
        ],
        [
          116.5101613,
          23.6534232
        ],
        [
          116.5110208,
          23.6502197
        ],
        [
          116.5122698,
          23.6488172
        ],
        [
          116.5142677,
          23.6479991
        ],
        [
          116.5172383,
          23.6474693
        ],
        [
          116.517648,
          23.6454323
        ],
        [
          116.5192232,
          23.6429613
        ],
        [
          116.5214453,
          23.6401359
        ],
        [
          116.5223765,
          23.6377858
        ],
        [
          116.5227159,
          23.6366006
        ],
        [
          116.5220265,
          23.6337099
        ],
        [
          116.5210136,
          23.6320752
        ],
        [
          116.5210274,
          23.6302633
        ],
        [
          116.5215192,
          23.6281316
        ],
        [
          116.522752,
          23.6264599
        ],
        [
          116.5243082,
          23.6249323
        ],
        [
          116.5265621,
          23.6221876
        ],
        [
          116.5284319,
          23.6204707
        ],
        [
          116.5287236,
          23.6191412
        ],
        [
          116.5283322,
          23.6184462
        ],
        [
          116.5280661,
          23.6179484
        ],
        [
          116.5277757,
          23.6170941
        ],
        [
          116.5279531,
          23.6158141
        ],
        [
          116.5283863,
          23.6145492
        ],
        [
          116.5292918,
          23.6117085
        ],
        [
          116.5294923,
          23.6102402
        ],
        [
          116.5294598,
          23.6095275
        ],
        [
          116.5291994,
          23.6090626
        ],
        [
          116.5287598,
          23.6081497
        ],
        [
          116.526018,
          23.6066966
        ],
        [
          116.5244146,
          23.6064066
        ],
        [
          116.5239678,
          23.6059329
        ],
        [
          116.5229748,
          23.6056341
        ],
        [
          116.5226504,
          23.6040437
        ],
        [
          116.5241039,
          23.6027981
        ],
        [
          116.5238465,
          23.6006072
        ],
        [
          116.5228314,
          23.5990322
        ],
        [
          116.5230259,
          23.5978334
        ],
        [
          116.5219278,
          23.5944905
        ],
        [
          116.521913,
          23.5936077
        ],
        [
          116.5223724,
          23.5929694
        ],
        [
          116.5231431,
          23.5926977
        ],
        [
          116.5244896,
          23.5929565
        ],
        [
          116.5270833,
          23.5939344
        ],
        [
          116.5287284,
          23.5940159
        ],
        [
          116.5298844,
          23.5930244
        ],
        [
          116.5300622,
          23.5923046
        ],
        [
          116.5296028,
          23.5902945
        ],
        [
          116.529066,
          23.5887448
        ],
        [
          116.5295883,
          23.5847685
        ],
        [
          116.5309963,
          23.5844425
        ],
        [
          116.5320483,
          23.5834039
        ],
        [
          116.5335841,
          23.5828079
        ],
        [
          116.5347253,
          23.5818028
        ],
        [
          116.5353793,
          23.5799688
        ],
        [
          116.5359722,
          23.5794798
        ],
        [
          116.5366887,
          23.5784434
        ],
        [
          116.5375631,
          23.5778865
        ],
        [
          116.5377558,
          23.5772481
        ],
        [
          116.5387017,
          23.5764722
        ],
        [
          116.5406571,
          23.5756565
        ],
        [
          116.5421517,
          23.5757645
        ],
        [
          116.542785,
          23.5759561
        ],
        [
          116.5443264,
          23.5759832
        ],
        [
          116.5448288,
          23.5758176
        ],
        [
          116.5451457,
          23.5760946
        ],
        [
          116.5450123,
          23.5766787
        ],
        [
          116.5441082,
          23.5777111
        ],
        [
          116.5433079,
          23.5784038
        ],
        [
          116.5438815,
          23.5785531
        ],
        [
          116.5441483,
          23.5796126
        ],
        [
          116.5453488,
          23.5808487
        ],
        [
          116.5471951,
          23.5822069
        ],
        [
          116.5478322,
          23.58208
        ],
        [
          116.5481667,
          23.5816202
        ],
        [
          116.5482047,
          23.579863
        ],
        [
          116.5486775,
          23.5796518
        ],
        [
          116.5495344,
          23.5799215
        ],
        [
          116.5502077,
          23.5798751
        ],
        [
          116.550794,
          23.5794423
        ],
        [
          116.5512247,
          23.5783661
        ],
        [
          116.5517564,
          23.577545
        ],
        [
          116.5522615,
          23.5765943
        ],
        [
          116.5543028,
          23.575901
        ],
        [
          116.5548385,
          23.5756459
        ],
        [
          116.5553175,
          23.5744397
        ],
        [
          116.5558998,
          23.5741937
        ],
        [
          116.5572412,
          23.5742347
        ],
        [
          116.558606,
          23.5728419
        ],
        [
          116.559836,
          23.5726369
        ],
        [
          116.5605808,
          23.5715286
        ],
        [
          116.5611313,
          23.5714739
        ],
        [
          116.5620508,
          23.5720121
        ],
        [
          116.5627377,
          23.5718861
        ],
        [
          116.5631094,
          23.570537
        ],
        [
          116.5625349,
          23.5689228
        ],
        [
          116.5626051,
          23.5670304
        ],
        [
          116.5624719,
          23.5656368
        ],
        [
          116.5617687,
          23.5634077
        ],
        [
          116.5615968,
          23.5610814
        ],
        [
          116.5606257,
          23.559718
        ],
        [
          116.5633469,
          23.5543018
        ],
        [
          116.5642986,
          23.5528023
        ],
        [
          116.5664413,
          23.5510749
        ],
        [
          116.5648433,
          23.5495004
        ],
        [
          116.5631544,
          23.5496383
        ],
        [
          116.5610327,
          23.5487854
        ],
        [
          116.5602333,
          23.5476634
        ],
        [
          116.5595588,
          23.5462665
        ],
        [
          116.5583605,
          23.545245
        ],
        [
          116.5570519,
          23.5455369
        ],
        [
          116.5557077,
          23.5464163
        ],
        [
          116.5528384,
          23.5457599
        ],
        [
          116.5492386,
          23.544398
        ],
        [
          116.5490386,
          23.5435074
        ],
        [
          116.5497815,
          23.5415954
        ],
        [
          116.5506936,
          23.5403168
        ],
        [
          116.5504936,
          23.5386143
        ],
        [
          116.5495576,
          23.536957
        ],
        [
          116.5477291,
          23.535464
        ],
        [
          116.5453292,
          23.5342853
        ],
        [
          116.5417715,
          23.5333526
        ],
        [
          116.5400858,
          23.5305498
        ],
        [
          116.5396108,
          23.5271329
        ],
        [
          116.5403668,
          23.5217648
        ],
        [
          116.5397798,
          23.5128709
        ],
        [
          116.5392753,
          23.5082854
        ],
        [
          116.5396101,
          23.5064561
        ],
        [
          116.5421948,
          23.5030114
        ],
        [
          116.5459151,
          23.5002984
        ],
        [
          116.5503576,
          23.4982657
        ],
        [
          116.5534675,
          23.4890784
        ],
        [
          116.5555086,
          23.4851306
        ],
        [
          116.5575848,
          23.4832337
        ],
        [
          116.5604989,
          23.4823952
        ],
        [
          116.5634124,
          23.4839334
        ],
        [
          116.5670445,
          23.4808394
        ],
        [
          116.5707032,
          23.4789736
        ],
        [
          116.5725515,
          23.4786488
        ],
        [
          116.5743088,
          23.4774251
        ],
        [
          116.5765263,
          23.4766046
        ],
        [
          116.579869,
          23.4771287
        ],
        [
          116.5822499,
          23.4783202
        ],
        [
          116.5857293,
          23.4773471
        ],
        [
          116.5893605,
          23.475992
        ],
        [
          116.5982541,
          23.4713243
        ],
        [
          116.6040138,
          23.4675223
        ],
        [
          116.608009,
          23.4668659
        ],
        [
          116.6103748,
          23.4674754
        ],
        [
          116.6132032,
          23.4693622
        ],
        [
          116.6154888,
          23.4690478
        ],
        [
          116.6212739,
          23.4632503
        ],
        [
          116.623317,
          23.4581641
        ],
        [
          116.6276882,
          23.4559363
        ],
        [
          116.629159,
          23.4531758
        ],
        [
          116.6288584,
          23.4519544
        ],
        [
          116.6272616,
          23.44953
        ],
        [
          116.6296667,
          23.4452746
        ],
        [
          116.6255502,
          23.4391272
        ],
        [
          116.6253784,
          23.4375116
        ],
        [
          116.6270105,
          23.4351867
        ],
        [
          116.6257327,
          23.4321435
        ],
        [
          116.6272723,
          23.4302105
        ],
        [
          116.6287763,
          23.429339
        ],
        [
          116.6300141,
          23.429227
        ],
        [
          116.6312274,
          23.4293303
        ],
        [
          116.6337884,
          23.4275439
        ],
        [
          116.636208,
          23.4314388
        ],
        [
          116.6384587,
          23.4306306
        ],
        [
          116.6425222,
          23.4299143
        ],
        [
          116.644368,
          23.4289193
        ],
        [
          116.6458292,
          23.4288826
        ],
        [
          116.6471165,
          23.4309986
        ],
        [
          116.6489214,
          23.4328849
        ],
        [
          116.6501624,
          23.4338216
        ],
        [
          116.6581529,
          23.4306039
        ],
        [
          116.660418,
          23.4303183
        ],
        [
          116.6638409,
          23.4309795
        ],
        [
          116.6639405,
          23.4321332
        ],
        [
          116.6658958,
          23.4353566
        ],
        [
          116.6677074,
          23.4345704
        ],
        [
          116.6700318,
          23.4363521
        ],
        [
          116.6682703,
          23.4376377
        ],
        [
          116.6691067,
          23.4390659
        ],
        [
          116.6702711,
          23.4401983
        ],
        [
          116.6724406,
          23.4380428
        ],
        [
          116.6733025,
          23.4385741
        ],
        [
          116.6753243,
          23.4407779
        ],
        [
          116.6772497,
          23.4412738
        ],
        [
          116.6788838,
          23.4394929
        ],
        [
          116.6792729,
          23.4368705
        ],
        [
          116.6807212,
          23.4344585
        ],
        [
          116.6813904,
          23.4323509
        ],
        [
          116.6822043,
          23.4321518
        ],
        [
          116.6836288,
          23.4336128
        ],
        [
          116.6856726,
          23.4344093
        ],
        [
          116.6886941,
          23.4352008
        ],
        [
          116.691967,
          23.4364682
        ],
        [
          116.693374,
          23.4383843
        ],
        [
          116.6970862,
          23.4403398
        ],
        [
          116.6966297,
          23.4429742
        ],
        [
          116.6933182,
          23.4495461
        ],
        [
          116.6944152,
          23.4522815
        ],
        [
          116.696328,
          23.4547072
        ],
        [
          116.6973248,
          23.4600932
        ],
        [
          116.6998002,
          23.4608931
        ],
        [
          116.7034717,
          23.461037
        ],
        [
          116.7054168,
          23.4625556
        ],
        [
          116.7059382,
          23.4673916
        ],
        [
          116.7039106,
          23.4738746
        ],
        [
          116.7037368,
          23.4827485
        ],
        [
          116.7024514,
          23.4910544
        ],
        [
          116.7011376,
          23.4993848
        ],
        [
          116.698183,
          23.5041663
        ],
        [
          116.6952774,
          23.5123498
        ],
        [
          116.694921,
          23.520339
        ],
        [
          116.6962139,
          23.5287848
        ],
        [
          116.6962412,
          23.5323691
        ],
        [
          116.6979792,
          23.5353435
        ],
        [
          116.6982609,
          23.5414863
        ],
        [
          116.706236,
          23.542522
        ],
        [
          116.7093361,
          23.5447844
        ],
        [
          116.7104781,
          23.5457616
        ],
        [
          116.7131431,
          23.5464597
        ],
        [
          116.7147807,
          23.5489731
        ],
        [
          116.7124964,
          23.5550109
        ],
        [
          116.7115123,
          23.5588118
        ],
        [
          116.7103292,
          23.5632455
        ],
        [
          116.7097505,
          23.5650271
        ],
        [
          116.706129,
          23.5681818
        ],
        [
          116.702922,
          23.5704182
        ],
        [
          116.6982109,
          23.5727025
        ],
        [
          116.6955667,
          23.5753879
        ],
        [
          116.6925892,
          23.5775436
        ],
        [
          116.6891073,
          23.5806408
        ],
        [
          116.685246,
          23.5871296
        ],
        [
          116.6843961,
          23.5934315
        ],
        [
          116.6796454,
          23.5956077
        ],
        [
          116.6742942,
          23.5998429
        ],
        [
          116.6736213,
          23.5996303
        ],
        [
          116.6725644,
          23.6001413
        ],
        [
          116.6679906,
          23.604655
        ],
        [
          116.6671444,
          23.6053693
        ],
        [
          116.6662355,
          23.6065568
        ],
        [
          116.6629899,
          23.6083106
        ],
        [
          116.6623024,
          23.6091575
        ],
        [
          116.6608775,
          23.6098649
        ],
        [
          116.6586024,
          23.6117477
        ],
        [
          116.6578155,
          23.6124817
        ],
        [
          116.6571991,
          23.6143933
        ],
        [
          116.6563513,
          23.6152558
        ],
        [
          116.6559543,
          23.6160866
        ],
        [
          116.6556619,
          23.6162069
        ],
        [
          116.6550128,
          23.6171164
        ],
        [
          116.6528515,
          23.6185797
        ],
        [
          116.6501775,
          23.6206752
        ],
        [
          116.6457401,
          23.6222834
        ],
        [
          116.6436023,
          23.6221546
        ],
        [
          116.6421861,
          23.6215422
        ],
        [
          116.6404703,
          23.6211041
        ],
        [
          116.6381356,
          23.621568
        ],
        [
          116.635604,
          23.6225731
        ],
        [
          116.6335505,
          23.6255111
        ],
        [
          116.6327067,
          23.6296602
        ],
        [
          116.6323354,
          23.6345339
        ],
        [
          116.6311337,
          23.6356508
        ],
        [
          116.629568,
          23.6352889
        ],
        [
          116.6286787,
          23.6345368
        ],
        [
          116.6262266,
          23.636897
        ]
      ]
    ]
  },
  "properties": {
    "adcode": 445103,
    "name": "潮安",
    "parent": "潮州",
    "outer": false
  }
}
