{
  "type": "Feature",
  "geometry": {
    "type": "Polygon",
    "coordinates": [
      [
        [
          116.6041275,
          23.1941244
        ],
        [
          116.6033732,
          23.1972291
        ],
        [
          116.6028464,
          23.1992564
        ],
        [
          116.6040598,
          23.2013965
        ],
        [
          116.6060805,
          23.2051483
        ],
        [
          116.6102308,
          23.2047219
        ],
        [
          116.6086854,
          23.2159165
        ],
        [
          116.5973561,
          23.224117
        ],
        [
          116.5850028,
          23.2301516
        ],
        [
          116.5455919,
          23.2253882
        ],
        [
          116.5477504,
          23.2147992
        ],
        [
          116.5399724,
          23.2129671
        ],
        [
          116.5378764,
          23.2199152
        ],
        [
          116.5324869,
          23.2187457
        ],
        [
          116.5303909,
          23.2243178
        ],
        [
          116.5180857,
          23.2212896
        ],
        [
          116.5186514,
          23.2182692
        ],
        [
          116.5213462,
          23.2195763
        ],
        [
          116.5256877,
          23.218682
        ],
        [
          116.5270496,
          23.2167794
        ],
        [
          116.5257771,
          23.2098999
        ],
        [
          116.5200777,
          23.2067065
        ],
        [
          116.5162742,
          23.2028986
        ],
        [
          116.504628,
          23.201676
        ],
        [
          116.4972613,
          23.2047755
        ],
        [
          116.4980018,
          23.2061465
        ],
        [
          116.4929506,
          23.2071904
        ],
        [
          116.4923229,
          23.2054185
        ],
        [
          116.4897225,
          23.2060366
        ],
        [
          116.4895432,
          23.2085914
        ],
        [
          116.4820162,
          23.2085255
        ],
        [
          116.4731551,
          23.2054763
        ],
        [
          116.4688062,
          23.2061768
        ],
        [
          116.4664856,
          23.2090205
        ],
        [
          116.4678755,
          23.2123993
        ],
        [
          116.4696603,
          23.2150574
        ],
        [
          116.4715922,
          23.2171958
        ],
        [
          116.4700462,
          23.2226808
        ],
        [
          116.4723151,
          23.230034
        ],
        [
          116.46808,
          23.2330487
        ],
        [
          116.4625888,
          23.2336884
        ],
        [
          116.4560176,
          23.2388161
        ],
        [
          116.4563175,
          23.2513666
        ],
        [
          116.4607613,
          23.2525175
        ],
        [
          116.459519,
          23.2559811
        ],
        [
          116.4614826,
          23.2564347
        ],
        [
          116.4597578,
          23.26149
        ],
        [
          116.4581428,
          23.2623296
        ],
        [
          116.4553472,
          23.2650955
        ],
        [
          116.454487,
          23.266676
        ],
        [
          116.4542289,
          23.2676902
        ],
        [
          116.4562794,
          23.2715372
        ],
        [
          116.4570392,
          23.2722089
        ],
        [
          116.4572686,
          23.2740033
        ],
        [
          116.4567095,
          23.2756363
        ],
        [
          116.4538693,
          23.2785514
        ],
        [
          116.4526363,
          23.2811484
        ],
        [
          116.4519482,
          23.2824258
        ],
        [
          116.4510591,
          23.2836826
        ],
        [
          116.4502993,
          23.2845122
        ],
        [
          116.4491667,
          23.285276
        ],
        [
          116.4475036,
          23.2857633
        ],
        [
          116.4438321,
          23.2865257
        ],
        [
          116.4419397,
          23.2870919
        ],
        [
          116.4405047,
          23.2878201
        ],
        [
          116.440218,
          23.2878728
        ],
        [
          116.4396445,
          23.2876621
        ],
        [
          116.4393304,
          23.2868347
        ],
        [
          116.4405634,
          23.2851227
        ],
        [
          116.4410852,
          23.2839366
        ],
        [
          116.4410135,
          23.2830147
        ],
        [
          116.4407607,
          23.2824508
        ],
        [
          116.4399148,
          23.2813578
        ],
        [
          116.4388587,
          23.2804886
        ],
        [
          116.4379842,
          23.2793297
        ],
        [
          116.4362619,
          23.2769164
        ],
        [
          116.435304,
          23.2765396
        ],
        [
          116.4342575,
          23.2766317
        ],
        [
          116.4338104,
          23.2778745
        ],
        [
          116.4330596,
          23.2787312
        ],
        [
          116.4332207,
          23.2792306
        ],
        [
          116.4324321,
          23.2796257
        ],
        [
          116.4305709,
          23.2780293
        ],
        [
          116.4287881,
          23.2766827
        ],
        [
          116.426614,
          23.2767387
        ],
        [
          116.4244741,
          23.277154
        ],
        [
          116.421627,
          23.2798589
        ],
        [
          116.4201068,
          23.2801769
        ],
        [
          116.417865,
          23.2809481
        ],
        [
          116.4162722,
          23.2811438
        ],
        [
          116.4122739,
          23.2756842
        ],
        [
          116.4123919,
          23.2748814
        ],
        [
          116.4094408,
          23.2729934
        ],
        [
          116.4072879,
          23.2732447
        ],
        [
          116.4054143,
          23.2750232
        ],
        [
          116.4043567,
          23.2771888
        ],
        [
          116.403595,
          23.2794335
        ],
        [
          116.4026794,
          23.2814835
        ],
        [
          116.3986172,
          23.2807916
        ],
        [
          116.3966704,
          23.2805112
        ],
        [
          116.3952264,
          23.2807269
        ],
        [
          116.3942168,
          23.2817944
        ],
        [
          116.3933808,
          23.2862687
        ],
        [
          116.3916214,
          23.2874582
        ],
        [
          116.3892593,
          23.2877729
        ],
        [
          116.3855081,
          23.2863555
        ],
        [
          116.3819314,
          23.286377
        ],
        [
          116.3814248,
          23.2846774
        ],
        [
          116.3814542,
          23.2835553
        ],
        [
          116.3826588,
          23.2829101
        ],
        [
          116.3832127,
          23.2809502
        ],
        [
          116.3825456,
          23.2783424
        ],
        [
          116.3794671,
          23.2778279
        ],
        [
          116.3774416,
          23.2786416
        ],
        [
          116.3768986,
          23.2799812
        ],
        [
          116.378982,
          23.2835087
        ],
        [
          116.3783925,
          23.2845347
        ],
        [
          116.3744154,
          23.2871118
        ],
        [
          116.3718711,
          23.2871403
        ],
        [
          116.3696924,
          23.2881423
        ],
        [
          116.3700434,
          23.2897686
        ],
        [
          116.3700818,
          23.2909912
        ],
        [
          116.3692703,
          23.2915421
        ],
        [
          116.3674619,
          23.2915503
        ],
        [
          116.3658643,
          23.2913831
        ],
        [
          116.3583004,
          23.2926822
        ],
        [
          116.3565345,
          23.2926149
        ],
        [
          116.3549793,
          23.2917428
        ],
        [
          116.3534609,
          23.2917088
        ],
        [
          116.3515904,
          23.2945099
        ],
        [
          116.3503293,
          23.294959
        ],
        [
          116.3455512,
          23.2953989
        ],
        [
          116.3436595,
          23.295686
        ],
        [
          116.3417655,
          23.29709
        ],
        [
          116.3344263,
          23.2997448
        ],
        [
          116.3303233,
          23.3013131
        ],
        [
          116.3239423,
          23.3016674
        ],
        [
          116.3213347,
          23.3038836
        ],
        [
          116.3196824,
          23.3049374
        ],
        [
          116.3184791,
          23.3048869
        ],
        [
          116.3168649,
          23.3051079
        ],
        [
          116.3124948,
          23.3030915
        ],
        [
          116.3071218,
          23.3010455
        ],
        [
          116.3056008,
          23.3001645
        ],
        [
          116.3044818,
          23.2986615
        ],
        [
          116.3080768,
          23.2958055
        ],
        [
          116.3095768,
          23.2943285
        ],
        [
          116.3098338,
          23.2911435
        ],
        [
          116.3082208,
          23.2892135
        ],
        [
          116.3014408,
          23.2863035
        ],
        [
          116.2988098,
          23.2838485
        ],
        [
          116.2978958,
          23.2819265
        ],
        [
          116.3010188,
          23.2754405
        ],
        [
          116.3005158,
          23.2738835
        ],
        [
          116.2992008,
          23.2727795
        ],
        [
          116.2954508,
          23.2683935
        ],
        [
          116.2941868,
          23.2660975
        ],
        [
          116.2948038,
          23.2615235
        ],
        [
          116.2934988,
          23.2568785
        ],
        [
          116.2895428,
          23.2520455
        ],
        [
          116.2884438,
          23.2477655
        ],
        [
          116.2894198,
          23.2446685
        ],
        [
          116.2895848,
          23.2423985
        ],
        [
          116.2886698,
          23.2398445
        ],
        [
          116.2863788,
          23.2388385
        ],
        [
          116.2801118,
          23.2331335
        ],
        [
          116.2786118,
          23.2321545
        ],
        [
          116.2759918,
          23.2292175
        ],
        [
          116.2748718,
          23.2285765
        ],
        [
          116.2713278,
          23.2294305
        ],
        [
          116.2676188,
          23.2292525
        ],
        [
          116.2639918,
          23.2303475
        ],
        [
          116.2622558,
          23.2304985
        ],
        [
          116.2572008,
          23.2259325
        ],
        [
          116.2551568,
          23.2194615
        ],
        [
          116.2556908,
          23.2159545
        ],
        [
          116.2557008,
          23.2141205
        ],
        [
          116.2567798,
          23.2078975
        ],
        [
          116.2580748,
          23.2064735
        ],
        [
          116.2592048,
          23.2060815
        ],
        [
          116.2604068,
          23.2064915
        ],
        [
          116.2604888,
          23.2081645
        ],
        [
          116.2612598,
          23.2088865
        ],
        [
          116.2630678,
          23.2090555
        ],
        [
          116.2646598,
          23.2075505
        ],
        [
          116.2644858,
          23.2052805
        ],
        [
          116.2629438,
          23.2024675
        ],
        [
          116.2599138,
          23.1993335
        ],
        [
          116.2578488,
          23.1999125
        ],
        [
          116.2543248,
          23.1985855
        ],
        [
          116.2482428,
          23.1941345
        ],
        [
          116.2479858,
          23.1923985
        ],
        [
          116.2485098,
          23.1907955
        ],
        [
          116.2501428,
          23.1900745
        ],
        [
          116.2512528,
          23.1883475
        ],
        [
          116.2509238,
          23.1876255
        ],
        [
          116.2484688,
          23.1870825
        ],
        [
          116.2473998,
          23.1836015
        ],
        [
          116.2495878,
          23.1829605
        ],
        [
          116.2528038,
          23.1832545
        ],
        [
          116.2546328,
          23.1842515
        ],
        [
          116.2569138,
          23.1849635
        ],
        [
          116.2587528,
          23.1862105
        ],
        [
          116.2597698,
          23.1856495
        ],
        [
          116.2588138,
          23.1842065
        ],
        [
          116.2577868,
          23.1777425
        ],
        [
          116.2554448,
          23.1787125
        ],
        [
          116.2535538,
          23.1788555
        ],
        [
          116.2502148,
          23.1783475
        ],
        [
          116.2478518,
          23.1788735
        ],
        [
          116.2474098,
          23.1785085
        ],
        [
          116.2482318,
          23.1764865
        ],
        [
          116.2476058,
          23.1715715
        ],
        [
          116.2479648,
          23.1704675
        ],
        [
          116.2492388,
          23.1690155
        ],
        [
          116.2500818,
          23.1673595
        ],
        [
          116.2503278,
          23.1652845
        ],
        [
          116.2493208,
          23.1624525
        ],
        [
          116.2478928,
          23.1596125
        ],
        [
          116.2498348,
          23.1578755
        ],
        [
          116.2506668,
          23.1566735
        ],
        [
          116.2503798,
          23.1550965
        ],
        [
          116.2464138,
          23.1532355
        ],
        [
          116.2438658,
          23.1508045
        ],
        [
          116.2411328,
          23.1457275
        ],
        [
          116.2400338,
          23.1430115
        ],
        [
          116.2410283,
          23.1416882
        ],
        [
          116.2458983,
          23.1374932
        ],
        [
          116.2461553,
          23.1354802
        ],
        [
          116.2469873,
          23.1333241
        ],
        [
          116.2482613,
          23.1320332
        ],
        [
          116.2504493,
          23.1307322
        ],
        [
          116.2495043,
          23.1270182
        ],
        [
          116.2511273,
          23.1250582
        ],
        [
          116.2520423,
          23.1247552
        ],
        [
          116.2543988,
          23.1254705
        ],
        [
          116.256424,
          23.1258424
        ],
        [
          116.2570371,
          23.1256347
        ],
        [
          116.2570072,
          23.1249116
        ],
        [
          116.256733,
          23.1240957
        ],
        [
          116.257177,
          23.1220867
        ],
        [
          116.2579433,
          23.1217677
        ],
        [
          116.2586683,
          23.1221542
        ],
        [
          116.2593906,
          23.1235409
        ],
        [
          116.2602456,
          23.1237782
        ],
        [
          116.2615361,
          23.1224405
        ],
        [
          116.264686,
          23.1211956
        ],
        [
          116.2679443,
          23.1198105
        ],
        [
          116.2727869,
          23.1180715
        ],
        [
          116.277263,
          23.1155842
        ],
        [
          116.2799087,
          23.1172608
        ],
        [
          116.2828392,
          23.1158406
        ],
        [
          116.2832344,
          23.1153955
        ],
        [
          116.2826022,
          23.1140282
        ],
        [
          116.282215,
          23.1134472
        ],
        [
          116.2821578,
          23.1130523
        ],
        [
          116.2825772,
          23.1125108
        ],
        [
          116.2835938,
          23.1121812
        ],
        [
          116.2853073,
          23.1120436
        ],
        [
          116.2860246,
          23.1122987
        ],
        [
          116.2864843,
          23.1130109
        ],
        [
          116.2869118,
          23.1132038
        ],
        [
          116.2873232,
          23.1131445
        ],
        [
          116.2883083,
          23.1112862
        ],
        [
          116.2873511,
          23.1099891
        ],
        [
          116.2868301,
          23.1096244
        ],
        [
          116.2863025,
          23.1099298
        ],
        [
          116.2859509,
          23.1102773
        ],
        [
          116.2851846,
          23.1103069
        ],
        [
          116.2846326,
          23.1092991
        ],
        [
          116.2844424,
          23.1076208
        ],
        [
          116.2849748,
          23.1073167
        ],
        [
          116.2850393,
          23.1062706
        ],
        [
          116.2865244,
          23.1047006
        ],
        [
          116.28622,
          23.1034485
        ],
        [
          116.286436,
          23.1024339
        ],
        [
          116.2868555,
          23.1018106
        ],
        [
          116.2883356,
          23.1008771
        ],
        [
          116.2906958,
          23.1008069
        ],
        [
          116.2914295,
          23.101163
        ],
        [
          116.2923007,
          23.1005843
        ],
        [
          116.2943122,
          23.0998747
        ],
        [
          116.2950217,
          23.0989023
        ],
        [
          116.2983099,
          23.0986525
        ],
        [
          116.2984585,
          23.1004932
        ],
        [
          116.2988703,
          23.1015752
        ],
        [
          116.3002694,
          23.1038494
        ],
        [
          116.3009873,
          23.1043761
        ],
        [
          116.3025835,
          23.1049167
        ],
        [
          116.3053749,
          23.1042595
        ],
        [
          116.3082815,
          23.1053078
        ],
        [
          116.3126903,
          23.1042595
        ],
        [
          116.3136482,
          23.1033895
        ],
        [
          116.3142423,
          23.1021627
        ],
        [
          116.3148482,
          23.1016442
        ],
        [
          116.3161093,
          23.1018785
        ],
        [
          116.3209458,
          23.1040711
        ],
        [
          116.3223769,
          23.1033348
        ],
        [
          116.3251533,
          23.1027599
        ],
        [
          116.3243431,
          23.1000794
        ],
        [
          116.3237839,
          23.0995857
        ],
        [
          116.3231534,
          23.0994184
        ],
        [
          116.3229351,
          23.0990169
        ],
        [
          116.3236759,
          23.0981624
        ],
        [
          116.324434,
          23.0977934
        ],
        [
          116.3285661,
          23.0971533
        ],
        [
          116.3287836,
          23.0950678
        ],
        [
          116.3326593,
          23.0913763
        ],
        [
          116.3356225,
          23.0898915
        ],
        [
          116.3360105,
          23.0890773
        ],
        [
          116.3351983,
          23.0871142
        ],
        [
          116.335205,
          23.0863869
        ],
        [
          116.3364504,
          23.0852693
        ],
        [
          116.3382752,
          23.0814594
        ],
        [
          116.3383525,
          23.0786971
        ],
        [
          116.3391173,
          23.0769271
        ],
        [
          116.3395701,
          23.0727518
        ],
        [
          116.3422664,
          23.068307
        ],
        [
          116.3437501,
          23.0674794
        ],
        [
          116.3438349,
          23.0672005
        ],
        [
          116.3430993,
          23.0662722
        ],
        [
          116.3409923,
          23.0648462
        ],
        [
          116.3403967,
          23.0637186
        ],
        [
          116.3420379,
          23.0611195
        ],
        [
          116.3425074,
          23.0609351
        ],
        [
          116.3435047,
          23.0611471
        ],
        [
          116.3448554,
          23.0620839
        ],
        [
          116.345304,
          23.0619389
        ],
        [
          116.3454253,
          23.0608009
        ],
        [
          116.3460637,
          23.0604742
        ],
        [
          116.3479068,
          23.0606639
        ],
        [
          116.3500221,
          23.0605548
        ],
        [
          116.3511906,
          23.0610974
        ],
        [
          116.3514943,
          23.0626371
        ],
        [
          116.3524682,
          23.0631838
        ],
        [
          116.3558225,
          23.0626409
        ],
        [
          116.3557013,
          23.0620496
        ],
        [
          116.3545372,
          23.0614917
        ],
        [
          116.3545736,
          23.0611236
        ],
        [
          116.3553173,
          23.0607608
        ],
        [
          116.3563929,
          23.0605944
        ],
        [
          116.3582117,
          23.0600366
        ],
        [
          116.3590506,
          23.0596229
        ],
        [
          116.360348,
          23.0596099
        ],
        [
          116.3612331,
          23.0601789
        ],
        [
          116.3621789,
          23.0603016
        ],
        [
          116.3637473,
          23.0599893
        ],
        [
          116.3661737,
          23.05816
        ],
        [
          116.3670589,
          23.0570108
        ],
        [
          116.3682797,
          23.0560154
        ],
        [
          116.368304,
          23.055558
        ],
        [
          116.3670263,
          23.0541962
        ],
        [
          116.3666953,
          23.0534331
        ],
        [
          116.3669241,
          23.0529022
        ],
        [
          116.368045,
          23.0529182
        ],
        [
          116.369422,
          23.0531141
        ],
        [
          116.3703539,
          23.0529556
        ],
        [
          116.3706419,
          23.0525539
        ],
        [
          116.3707496,
          23.0520012
        ],
        [
          116.3712104,
          23.0514991
        ],
        [
          116.3722233,
          23.051442
        ],
        [
          116.3728217,
          23.0517919
        ],
        [
          116.3748224,
          23.0519147
        ],
        [
          116.3750528,
          23.0515576
        ],
        [
          116.3744587,
          23.0508324
        ],
        [
          116.3726641,
          23.0506204
        ],
        [
          116.3719551,
          23.0502844
        ],
        [
          116.3713245,
          23.0502844
        ],
        [
          116.3695865,
          23.0509473
        ],
        [
          116.3691015,
          23.0513712
        ],
        [
          116.3685437,
          23.0516056
        ],
        [
          116.3680833,
          23.0512907
        ],
        [
          116.3680469,
          23.0504093
        ],
        [
          116.3675402,
          23.0499921
        ],
        [
          116.3654509,
          23.049343
        ],
        [
          116.3660863,
          23.0484184
        ],
        [
          116.3675569,
          23.04744
        ],
        [
          116.3691084,
          23.0468572
        ],
        [
          116.371769,
          23.0471662
        ],
        [
          116.3746102,
          23.0456693
        ],
        [
          116.3747431,
          23.0451118
        ],
        [
          116.3732714,
          23.0444383
        ],
        [
          116.3758451,
          23.0423679
        ],
        [
          116.3772631,
          23.0427745
        ],
        [
          116.3789757,
          23.0426103
        ],
        [
          116.3811631,
          23.0429293
        ],
        [
          116.3835319,
          23.0437324
        ],
        [
          116.3841673,
          23.0445347
        ],
        [
          116.38411,
          23.0454881
        ],
        [
          116.385499,
          23.0457057
        ],
        [
          116.3869126,
          23.0457486
        ],
        [
          116.3893501,
          23.0461369
        ],
        [
          116.3912415,
          23.0470071
        ],
        [
          116.393183,
          23.0511837
        ],
        [
          116.3990466,
          23.0538843
        ],
        [
          116.400081,
          23.0548769
        ],
        [
          116.4007911,
          23.056423
        ],
        [
          116.4071663,
          23.0594542
        ],
        [
          116.4102793,
          23.0604522
        ],
        [
          116.4139473,
          23.0621012
        ],
        [
          116.4161272,
          23.0633057
        ],
        [
          116.4181014,
          23.066289
        ],
        [
          116.4202884,
          23.0666153
        ],
        [
          116.4221491,
          23.0658661
        ],
        [
          116.4234647,
          23.0667435
        ],
        [
          116.4245083,
          23.0693912
        ],
        [
          116.4263398,
          23.0709515
        ],
        [
          116.4280939,
          23.0715007
        ],
        [
          116.4288032,
          23.0722892
        ],
        [
          116.4291135,
          23.0733631
        ],
        [
          116.4309497,
          23.0752196
        ],
        [
          116.4318438,
          23.0775967
        ],
        [
          116.4318742,
          23.079722
        ],
        [
          116.4325302,
          23.0827667
        ],
        [
          116.4351443,
          23.0848587
        ],
        [
          116.441977,
          23.0883455
        ],
        [
          116.4426135,
          23.0898681
        ],
        [
          116.4385983,
          23.0938163
        ],
        [
          116.4394034,
          23.0955285
        ],
        [
          116.4405559,
          23.0958467
        ],
        [
          116.4437354,
          23.0943498
        ],
        [
          116.4465217,
          23.0936566
        ],
        [
          116.4493191,
          23.0936859
        ],
        [
          116.4572608,
          23.0958032
        ],
        [
          116.458768,
          23.096877
        ],
        [
          116.4598251,
          23.10158
        ],
        [
          116.4657775,
          23.1016349
        ],
        [
          116.4698163,
          23.1059762
        ],
        [
          116.4708543,
          23.1065461
        ],
        [
          116.4743263,
          23.1069652
        ],
        [
          116.4772133,
          23.1060922
        ],
        [
          116.4805833,
          23.1057892
        ],
        [
          116.4832233,
          23.1063592
        ],
        [
          116.4850933,
          23.1051832
        ],
        [
          116.4880733,
          23.1057092
        ],
        [
          116.4904363,
          23.1052102
        ],
        [
          116.4917072,
          23.1043494
        ],
        [
          116.4934065,
          23.1019301
        ],
        [
          116.4950361,
          23.102274
        ],
        [
          116.4970195,
          23.1018692
        ],
        [
          116.4992093,
          23.1036512
        ],
        [
          116.5005963,
          23.1022082
        ],
        [
          116.5014127,
          23.1017038
        ],
        [
          116.5023731,
          23.1014727
        ],
        [
          116.5015523,
          23.1044802
        ],
        [
          116.5021109,
          23.1048419
        ],
        [
          116.5032373,
          23.1048722
        ],
        [
          116.5053223,
          23.1033842
        ],
        [
          116.5054206,
          23.1010091
        ],
        [
          116.5058935,
          23.0999082
        ],
        [
          116.5075398,
          23.0985415
        ],
        [
          116.5083135,
          23.0973925
        ],
        [
          116.5092592,
          23.0967944
        ],
        [
          116.5100283,
          23.0967022
        ],
        [
          116.5111061,
          23.0973245
        ],
        [
          116.5117743,
          23.0980922
        ],
        [
          116.5127613,
          23.0985944
        ],
        [
          116.5135297,
          23.0984857
        ],
        [
          116.5143867,
          23.0978061
        ],
        [
          116.5158333,
          23.0972902
        ],
        [
          116.5185863,
          23.0980922
        ],
        [
          116.5193326,
          23.0985994
        ],
        [
          116.5196577,
          23.0993333
        ],
        [
          116.5206513,
          23.1000692
        ],
        [
          116.5235483,
          23.1008362
        ],
        [
          116.5255313,
          23.1004262
        ],
        [
          116.5266989,
          23.1004635
        ],
        [
          116.5274213,
          23.1010142
        ],
        [
          116.5283563,
          23.1022342
        ],
        [
          116.5289449,
          23.1027275
        ],
        [
          116.5294563,
          23.1027162
        ],
        [
          116.5325173,
          23.1021012
        ],
        [
          116.5336864,
          23.1023668
        ],
        [
          116.5344577,
          23.1032423
        ],
        [
          116.5352947,
          23.1036952
        ],
        [
          116.5366241,
          23.1038462
        ],
        [
          116.534096,
          23.11202
        ],
        [
          116.54396,
          23.143893
        ],
        [
          116.564399,
          23.171241
        ],
        [
          116.584437,
          23.186548
        ],
        [
          116.5938959,
          23.1909595
        ],
        [
          116.5994054,
          23.1913513
        ],
        [
          116.5992948,
          23.1937836
        ],
        [
          116.6041275,
          23.1941244
        ]
      ]
    ]
  },
  "properties": {
    "adcode": 440514,
    "name": "潮南",
    "parent": "汕头",
    "outer": false
  }
}
