{
  "type": "Feature",
  "geometry": {
    "type": "Polygon",
    "coordinates": [
      [
        [
          116.675623,
          23.221151
        ],
        [
          116.671746,
          23.223425
        ],
        [
          116.666021,
          23.225857
        ],
        [
          116.662949,
          23.228435
        ],
        [
          116.661768,
          23.231595
        ],
        [
          116.659835,
          23.232996
        ],
        [
          116.659426,
          23.234245
        ],
        [
          116.657708,
          23.235446
        ],
        [
          116.658148,
          23.236659
        ],
        [
          116.660511,
          23.236907
        ],
        [
          116.660844,
          23.237714
        ],
        [
          116.658718,
          23.239048
        ],
        [
          116.657364,
          23.241668
        ],
        [
          116.655495,
          23.242505
        ],
        [
          116.656419,
          23.24436
        ],
        [
          116.653669,
          23.246331
        ],
        [
          116.650383,
          23.247562
        ],
        [
          116.648954,
          23.247726
        ],
        [
          116.647644,
          23.247017
        ],
        [
          116.646516,
          23.248254
        ],
        [
          116.643745,
          23.249084
        ],
        [
          116.643015,
          23.248714
        ],
        [
          116.641296,
          23.249648
        ],
        [
          116.640383,
          23.251025
        ],
        [
          116.638407,
          23.251322
        ],
        [
          116.638042,
          23.252698
        ],
        [
          116.636989,
          23.253365
        ],
        [
          116.635303,
          23.257974
        ],
        [
          116.632919,
          23.262236
        ],
        [
          116.631673,
          23.261757
        ],
        [
          116.629116,
          23.265923
        ],
        [
          116.631479,
          23.266099
        ],
        [
          116.630674,
          23.266802
        ],
        [
          116.628816,
          23.266966
        ],
        [
          116.625712,
          23.270488
        ],
        [
          116.624176,
          23.271089
        ],
        [
          116.622049,
          23.273768
        ],
        [
          116.620374,
          23.274945
        ],
        [
          116.619901,
          23.276291
        ],
        [
          116.616496,
          23.278831
        ],
        [
          116.616851,
          23.280886
        ],
        [
          116.6196,
          23.28088
        ],
        [
          116.621233,
          23.283984
        ],
        [
          116.623531,
          23.284627
        ],
        [
          116.624144,
          23.285306
        ],
        [
          116.624724,
          23.287391
        ],
        [
          116.625486,
          23.2881
        ],
        [
          116.626915,
          23.287567
        ],
        [
          116.62757,
          23.286118
        ],
        [
          116.629202,
          23.287167
        ],
        [
          116.63106,
          23.29081
        ],
        [
          116.632177,
          23.292532
        ],
        [
          116.631662,
          23.29512
        ],
        [
          116.629911,
          23.29686
        ],
        [
          116.629363,
          23.297999
        ],
        [
          116.629245,
          23.300254
        ],
        [
          116.627828,
          23.301194
        ],
        [
          116.62946,
          23.302273
        ],
        [
          116.630523,
          23.305795
        ],
        [
          116.62888,
          23.307225
        ],
        [
          116.628236,
          23.309413
        ],
        [
          116.6288571,
          23.3177862
        ],
        [
          116.6275692,
          23.316305
        ],
        [
          116.626422,
          23.3148518
        ],
        [
          116.6175848,
          23.3173881
        ],
        [
          116.6097321,
          23.3105642
        ],
        [
          116.6036525,
          23.3090133
        ],
        [
          116.5991331,
          23.3037332
        ],
        [
          116.5949148,
          23.3213339
        ],
        [
          116.5942393,
          23.325172
        ],
        [
          116.5828634,
          23.3362952
        ],
        [
          116.5793125,
          23.337087
        ],
        [
          116.5769904,
          23.339723
        ],
        [
          116.572048,
          23.3481242
        ],
        [
          116.5630996,
          23.3631873
        ],
        [
          116.5580575,
          23.3715664
        ],
        [
          116.5533576,
          23.3807958
        ],
        [
          116.5470871,
          23.3934779
        ],
        [
          116.5441068,
          23.4080262
        ],
        [
          116.5442303,
          23.409433
        ],
        [
          116.5460735,
          23.4093744
        ],
        [
          116.544918,
          23.411958
        ],
        [
          116.5423726,
          23.4166802
        ],
        [
          116.5384264,
          23.4223241
        ],
        [
          116.5334123,
          23.4280074
        ],
        [
          116.5282827,
          23.4323813
        ],
        [
          116.522389,
          23.4351529
        ],
        [
          116.5159731,
          23.4373844
        ],
        [
          116.5126973,
          23.4376457
        ],
        [
          116.5062126,
          23.4379922
        ],
        [
          116.5012877,
          23.437526
        ],
        [
          116.4939256,
          23.4367395
        ],
        [
          116.4862876,
          23.4364203
        ],
        [
          116.4790375,
          23.4370318
        ],
        [
          116.4748305,
          23.4360777
        ],
        [
          116.4695738,
          23.436258
        ],
        [
          116.462303,
          23.438875
        ],
        [
          116.4587866,
          23.4431972
        ],
        [
          116.4577688,
          23.446343
        ],
        [
          116.457762,
          23.4488643
        ],
        [
          116.4598305,
          23.4538975
        ],
        [
          116.4621517,
          23.457966
        ],
        [
          116.4647265,
          23.4615968
        ],
        [
          116.4709132,
          23.4663408
        ],
        [
          116.4758685,
          23.4704324
        ],
        [
          116.4790852,
          23.4747494
        ],
        [
          116.4812418,
          23.4800578
        ],
        [
          116.4831601,
          23.4864976
        ],
        [
          116.4847232,
          23.4932306
        ],
        [
          116.4844247,
          23.496505
        ],
        [
          116.4832355,
          23.4989109
        ],
        [
          116.4820389,
          23.4998133
        ],
        [
          116.4795377,
          23.500735
        ],
        [
          116.4764631,
          23.5009096
        ],
        [
          116.4734492,
          23.5004804
        ],
        [
          116.4665322,
          23.4987985
        ],
        [
          116.4559473,
          23.4954213
        ],
        [
          116.4478317,
          23.491035
        ],
        [
          116.4422338,
          23.4877426
        ],
        [
          116.4398957,
          23.4849057
        ],
        [
          116.4370039,
          23.4806637
        ],
        [
          116.434404,
          23.4770486
        ],
        [
          116.4314852,
          23.4739177
        ],
        [
          116.4276593,
          23.4709777
        ],
        [
          116.4249342,
          23.4697922
        ],
        [
          116.4240819,
          23.4693058
        ],
        [
          116.4208153,
          23.4691567
        ],
        [
          116.41512,
          23.4709864
        ],
        [
          116.4127268,
          23.4733209
        ],
        [
          116.4108282,
          23.4771687
        ],
        [
          116.4089564,
          23.4828104
        ],
        [
          116.4070506,
          23.4878467
        ],
        [
          116.4066896,
          23.4934826
        ],
        [
          116.4070916,
          23.4964868
        ],
        [
          116.4067221,
          23.4969748
        ],
        [
          116.4070121,
          23.4995329
        ],
        [
          116.4069825,
          23.503851
        ],
        [
          116.4075442,
          23.5050981
        ],
        [
          116.4084788,
          23.5053706
        ],
        [
          116.4085675,
          23.5097661
        ],
        [
          116.4082867,
          23.5115553
        ],
        [
          116.407581,
          23.5138477
        ],
        [
          116.4068715,
          23.5146745
        ],
        [
          116.4058816,
          23.514863
        ],
        [
          116.4044035,
          23.5140904
        ],
        [
          116.4038193,
          23.5126355
        ],
        [
          116.4019433,
          23.5076395
        ],
        [
          116.4003807,
          23.5045818
        ],
        [
          116.3977681,
          23.5021941
        ],
        [
          116.3937984,
          23.5009414
        ],
        [
          116.388841,
          23.5010941
        ],
        [
          116.3849694,
          23.5019821
        ],
        [
          116.3827726,
          23.5030018
        ],
        [
          116.3800232,
          23.5025409
        ],
        [
          116.3778761,
          23.5027776
        ],
        [
          116.3765901,
          23.5024252
        ],
        [
          116.3752302,
          23.5022625
        ],
        [
          116.3729834,
          23.5027505
        ],
        [
          116.3727355,
          23.5020063
        ],
        [
          116.3740362,
          23.5001221
        ],
        [
          116.3743632,
          23.4986807
        ],
        [
          116.3739345,
          23.497542
        ],
        [
          116.3727046,
          23.4969576
        ],
        [
          116.3714482,
          23.4969681
        ],
        [
          116.368078,
          23.4985948
        ],
        [
          116.3675311,
          23.4985406
        ],
        [
          116.3673094,
          23.4979848
        ],
        [
          116.3681963,
          23.4960734
        ],
        [
          116.368243,
          23.4952852
        ],
        [
          116.3677949,
          23.4937848
        ],
        [
          116.3660328,
          23.4922501
        ],
        [
          116.3637133,
          23.4910771
        ],
        [
          116.3609349,
          23.4860879
        ],
        [
          116.3610144,
          23.4850455
        ],
        [
          116.3608222,
          23.4840694
        ],
        [
          116.3602404,
          23.4834685
        ],
        [
          116.3594423,
          23.4817332
        ],
        [
          116.3590833,
          23.4806128
        ],
        [
          116.3592576,
          23.4801583
        ],
        [
          116.3596567,
          23.4788432
        ],
        [
          116.3595694,
          23.4776633
        ],
        [
          116.3560399,
          23.475328
        ],
        [
          116.355245,
          23.4753527
        ],
        [
          116.3541605,
          23.475675
        ],
        [
          116.3525219,
          23.4771336
        ],
        [
          116.3519292,
          23.4772325
        ],
        [
          116.3512416,
          23.4769238
        ],
        [
          116.3505546,
          23.4746501
        ],
        [
          116.3511608,
          23.4739335
        ],
        [
          116.3514302,
          23.4732538
        ],
        [
          116.3512012,
          23.4724506
        ],
        [
          116.3502626,
          23.4716993
        ],
        [
          116.3493903,
          23.4712426
        ],
        [
          116.349341,
          23.4676023
        ],
        [
          116.3465332,
          23.4643743
        ],
        [
          116.3459349,
          23.4587004
        ],
        [
          116.3448381,
          23.4556019
        ],
        [
          116.3399671,
          23.4488642
        ],
        [
          116.333638,
          23.4494775
        ],
        [
          116.3330209,
          23.4476846
        ],
        [
          116.3310598,
          23.4461358
        ],
        [
          116.3279055,
          23.4462144
        ],
        [
          116.3148951,
          23.4514181
        ],
        [
          116.312678,
          23.4474404
        ],
        [
          116.3124085,
          23.4433057
        ],
        [
          116.3143539,
          23.4326262
        ],
        [
          116.3170768,
          23.4271945
        ],
        [
          116.3185737,
          23.4240756
        ],
        [
          116.3197253,
          23.4237959
        ],
        [
          116.3255679,
          23.4268744
        ],
        [
          116.3267855,
          23.4208862
        ],
        [
          116.3312545,
          23.4211848
        ],
        [
          116.334554,
          23.4180051
        ],
        [
          116.3353203,
          23.4141163
        ],
        [
          116.3406214,
          23.4110982
        ],
        [
          116.3419763,
          23.410834
        ],
        [
          116.3444187,
          23.412872
        ],
        [
          116.3484441,
          23.4119545
        ],
        [
          116.3498842,
          23.4078227
        ],
        [
          116.3497318,
          23.4064239
        ],
        [
          116.3487623,
          23.4055664
        ],
        [
          116.3447756,
          23.4075542
        ],
        [
          116.3418326,
          23.4076382
        ],
        [
          116.3403365,
          23.4017373
        ],
        [
          116.3417197,
          23.3994103
        ],
        [
          116.3429682,
          23.3929015
        ],
        [
          116.3457498,
          23.3905269
        ],
        [
          116.3453156,
          23.3749041
        ],
        [
          116.3455616,
          23.3612473
        ],
        [
          116.3505066,
          23.353907
        ],
        [
          116.3497361,
          23.3499746
        ],
        [
          116.3485514,
          23.3470034
        ],
        [
          116.3455305,
          23.3444049
        ],
        [
          116.3444564,
          23.3384793
        ],
        [
          116.3248751,
          23.3388726
        ],
        [
          116.3190825,
          23.3361113
        ],
        [
          116.3167385,
          23.3368139
        ],
        [
          116.3142206,
          23.3332978
        ],
        [
          116.3147179,
          23.3290387
        ],
        [
          116.3203203,
          23.3248564
        ],
        [
          116.3262088,
          23.318634
        ],
        [
          116.3261061,
          23.3150414
        ],
        [
          116.3184791,
          23.3048869
        ],
        [
          116.3196824,
          23.3049374
        ],
        [
          116.3213347,
          23.3038836
        ],
        [
          116.3239423,
          23.3016674
        ],
        [
          116.3303233,
          23.3013131
        ],
        [
          116.3344263,
          23.2997448
        ],
        [
          116.3417655,
          23.29709
        ],
        [
          116.3436595,
          23.295686
        ],
        [
          116.3455512,
          23.2953989
        ],
        [
          116.3503293,
          23.294959
        ],
        [
          116.3515904,
          23.2945099
        ],
        [
          116.3534609,
          23.2917088
        ],
        [
          116.3549793,
          23.2917428
        ],
        [
          116.3565345,
          23.2926149
        ],
        [
          116.3583004,
          23.2926822
        ],
        [
          116.3658643,
          23.2913831
        ],
        [
          116.3674619,
          23.2915503
        ],
        [
          116.3692703,
          23.2915421
        ],
        [
          116.3700818,
          23.2909912
        ],
        [
          116.3700434,
          23.2897686
        ],
        [
          116.3696924,
          23.2881423
        ],
        [
          116.3718711,
          23.2871403
        ],
        [
          116.3744154,
          23.2871118
        ],
        [
          116.3783925,
          23.2845347
        ],
        [
          116.378982,
          23.2835087
        ],
        [
          116.3768986,
          23.2799812
        ],
        [
          116.3774416,
          23.2786416
        ],
        [
          116.3794671,
          23.2778279
        ],
        [
          116.3825456,
          23.2783424
        ],
        [
          116.3832127,
          23.2809502
        ],
        [
          116.3826588,
          23.2829101
        ],
        [
          116.3814542,
          23.2835553
        ],
        [
          116.3814248,
          23.2846774
        ],
        [
          116.3819314,
          23.286377
        ],
        [
          116.3855081,
          23.2863555
        ],
        [
          116.3892593,
          23.2877729
        ],
        [
          116.3916214,
          23.2874582
        ],
        [
          116.3933808,
          23.2862687
        ],
        [
          116.3942168,
          23.2817944
        ],
        [
          116.3952264,
          23.2807269
        ],
        [
          116.3966704,
          23.2805112
        ],
        [
          116.3986172,
          23.2807916
        ],
        [
          116.4026794,
          23.2814835
        ],
        [
          116.403595,
          23.2794335
        ],
        [
          116.4043567,
          23.2771888
        ],
        [
          116.4054143,
          23.2750232
        ],
        [
          116.4072879,
          23.2732447
        ],
        [
          116.4094408,
          23.2729934
        ],
        [
          116.4123919,
          23.2748814
        ],
        [
          116.4122739,
          23.2756842
        ],
        [
          116.4162722,
          23.2811438
        ],
        [
          116.4206762,
          23.2814928
        ],
        [
          116.4227888,
          23.2812281
        ],
        [
          116.4257481,
          23.2780774
        ],
        [
          116.4288319,
          23.2778095
        ],
        [
          116.4302619,
          23.2785248
        ],
        [
          116.4311469,
          23.280431
        ],
        [
          116.4326033,
          23.2811164
        ],
        [
          116.4333206,
          23.2810473
        ],
        [
          116.4339125,
          23.2806123
        ],
        [
          116.4345862,
          23.2794941
        ],
        [
          116.4357316,
          23.2792811
        ],
        [
          116.4366413,
          23.2795065
        ],
        [
          116.4384743,
          23.2817685
        ],
        [
          116.4398019,
          23.2836742
        ],
        [
          116.4395591,
          23.2850586
        ],
        [
          116.4385625,
          23.2862728
        ],
        [
          116.4383613,
          23.2874971
        ],
        [
          116.4388414,
          23.2884836
        ],
        [
          116.439601,
          23.2892108
        ],
        [
          116.4422456,
          23.2882141
        ],
        [
          116.4442525,
          23.28739
        ],
        [
          116.4462127,
          23.2871012
        ],
        [
          116.4480778,
          23.2867491
        ],
        [
          116.4500123,
          23.2859885
        ],
        [
          116.4518703,
          23.2845489
        ],
        [
          116.4528896,
          23.2831955
        ],
        [
          116.4536546,
          23.2812842
        ],
        [
          116.4552321,
          23.2788478
        ],
        [
          116.4578056,
          23.2762846
        ],
        [
          116.4588092,
          23.2741671
        ],
        [
          116.4586426,
          23.2720837
        ],
        [
          116.4567241,
          23.2692722
        ],
        [
          116.4557982,
          23.267547
        ],
        [
          116.4560293,
          23.2662385
        ],
        [
          116.4597578,
          23.26149
        ],
        [
          116.4614826,
          23.2564347
        ],
        [
          116.459519,
          23.2559811
        ],
        [
          116.4607613,
          23.2525175
        ],
        [
          116.4563175,
          23.2513666
        ],
        [
          116.4560176,
          23.2388161
        ],
        [
          116.4625888,
          23.2336884
        ],
        [
          116.46808,
          23.2330487
        ],
        [
          116.4723151,
          23.230034
        ],
        [
          116.4700462,
          23.2226808
        ],
        [
          116.4715922,
          23.2171958
        ],
        [
          116.4696603,
          23.2150574
        ],
        [
          116.4678755,
          23.2123993
        ],
        [
          116.4664856,
          23.2090205
        ],
        [
          116.4688062,
          23.2061768
        ],
        [
          116.4731551,
          23.2054763
        ],
        [
          116.4820162,
          23.2085255
        ],
        [
          116.4895432,
          23.2085914
        ],
        [
          116.4897225,
          23.2060366
        ],
        [
          116.4923229,
          23.2054185
        ],
        [
          116.4929506,
          23.2071904
        ],
        [
          116.4980018,
          23.2061465
        ],
        [
          116.4972613,
          23.2047755
        ],
        [
          116.504628,
          23.201676
        ],
        [
          116.5162742,
          23.2028986
        ],
        [
          116.5200777,
          23.2067065
        ],
        [
          116.5257771,
          23.2098999
        ],
        [
          116.5270496,
          23.2167794
        ],
        [
          116.5256877,
          23.218682
        ],
        [
          116.5213462,
          23.2195763
        ],
        [
          116.5186514,
          23.2182692
        ],
        [
          116.5180857,
          23.2212896
        ],
        [
          116.5303909,
          23.2243178
        ],
        [
          116.5324869,
          23.2187457
        ],
        [
          116.5378764,
          23.2199152
        ],
        [
          116.5399724,
          23.2129671
        ],
        [
          116.5477504,
          23.2147992
        ],
        [
          116.5455919,
          23.2253882
        ],
        [
          116.5447062,
          23.23036
        ],
        [
          116.5686368,
          23.2326652
        ],
        [
          116.583401,
          23.2359679
        ],
        [
          116.5883388,
          23.2367878
        ],
        [
          116.6017149,
          23.2315277
        ],
        [
          116.6067279,
          23.23118
        ],
        [
          116.612433,
          23.2273164
        ],
        [
          116.6184497,
          23.2215219
        ],
        [
          116.6204504,
          23.2131025
        ],
        [
          116.6188537,
          23.2022254
        ],
        [
          116.6148532,
          23.2000764
        ],
        [
          116.6103643,
          23.1988488
        ],
        [
          116.607835,
          23.1971297
        ],
        [
          116.606979,
          23.19426
        ],
        [
          116.604861,
          23.188652
        ],
        [
          116.607505,
          23.183119
        ],
        [
          116.6211184,
          23.1830098
        ],
        [
          116.632267,
          23.179664
        ],
        [
          116.632322,
          23.175396
        ],
        [
          116.629282,
          23.177073
        ],
        [
          116.62873,
          23.174938
        ],
        [
          116.637343,
          23.16447
        ],
        [
          116.636468,
          23.161306
        ],
        [
          116.640085,
          23.160609
        ],
        [
          116.640335,
          23.163308
        ],
        [
          116.649241,
          23.166394
        ],
        [
          116.6490453,
          23.1744895
        ],
        [
          116.6546859,
          23.1766045
        ],
        [
          116.6575708,
          23.1796913
        ],
        [
          116.658734,
          23.181377
        ],
        [
          116.662458,
          23.188634
        ],
        [
          116.663186,
          23.19032
        ],
        [
          116.661854,
          23.195876
        ],
        [
          116.664925,
          23.202727
        ],
        [
          116.6785764,
          23.2190998
        ],
        [
          116.675623,
          23.221151
        ]
      ]
    ]
  },
  "properties": {
    "adcode": 440513,
    "name": "潮阳",
    "parent": "汕头",
    "outer": false
  }
}
