{
  "type": "Feature",
  "geometry": {
    "type": "Polygon",
    "coordinates": [
      [
        [
          116.9059872,
          23.5788626
        ],
        [
          116.9037684,
          23.5820093
        ],
        [
          116.9015877,
          23.5910392
        ],
        [
          116.9027933,
          23.5913471
        ],
        [
          116.9049261,
          23.600692
        ],
        [
          116.9058463,
          23.6055313
        ],
        [
          116.9048933,
          23.6063026
        ],
        [
          116.901325,
          23.6081586
        ],
        [
          116.898471,
          23.6109403
        ],
        [
          116.896531,
          23.6132234
        ],
        [
          116.8967725,
          23.6133963
        ],
        [
          116.8953387,
          23.6186921
        ],
        [
          116.8946824,
          23.6198775
        ],
        [
          116.8959924,
          23.6203829
        ],
        [
          116.896472,
          23.621107
        ],
        [
          116.8960586,
          23.6226242
        ],
        [
          116.8946373,
          23.6215442
        ],
        [
          116.8916166,
          23.6234922
        ],
        [
          116.8908409,
          23.6229531
        ],
        [
          116.8869617,
          23.6253239
        ],
        [
          116.8830544,
          23.6216621
        ],
        [
          116.8823851,
          23.6219467
        ],
        [
          116.8811528,
          23.6232906
        ],
        [
          116.8802695,
          23.6225796
        ],
        [
          116.8792388,
          23.6214566
        ],
        [
          116.8785331,
          23.6220096
        ],
        [
          116.8779029,
          23.6212802
        ],
        [
          116.8762999,
          23.6224574
        ],
        [
          116.8755236,
          23.6214041
        ],
        [
          116.8751292,
          23.620495
        ],
        [
          116.8743818,
          23.6193098
        ],
        [
          116.8724975,
          23.6203329
        ],
        [
          116.8717735,
          23.6197605
        ],
        [
          116.870976,
          23.6183378
        ],
        [
          116.8712151,
          23.6182193
        ],
        [
          116.8699728,
          23.6173241
        ],
        [
          116.867799,
          23.6187043
        ],
        [
          116.8681177,
          23.6201607
        ],
        [
          116.8672864,
          23.6205429
        ],
        [
          116.8668537,
          23.6210672
        ],
        [
          116.8656199,
          23.6212153
        ],
        [
          116.8631161,
          23.6209899
        ],
        [
          116.8587221,
          23.6251215
        ],
        [
          116.8582894,
          23.626188
        ],
        [
          116.8583064,
          23.6296272
        ],
        [
          116.8585338,
          23.630476
        ],
        [
          116.857805,
          23.633052
        ],
        [
          116.8585805,
          23.6353415
        ],
        [
          116.8578437,
          23.6367478
        ],
        [
          116.8555009,
          23.6375101
        ],
        [
          116.8542257,
          23.6388482
        ],
        [
          116.8517622,
          23.6407676
        ],
        [
          116.8497382,
          23.6410106
        ],
        [
          116.8477142,
          23.6402945
        ],
        [
          116.8460038,
          23.6402581
        ],
        [
          116.842561,
          23.6416674
        ],
        [
          116.8408221,
          23.6426626
        ],
        [
          116.8395167,
          23.6425892
        ],
        [
          116.8371581,
          23.6430751
        ],
        [
          116.8358438,
          23.6442065
        ],
        [
          116.8336421,
          23.647325
        ],
        [
          116.8308369,
          23.6483168
        ],
        [
          116.8264509,
          23.6484906
        ],
        [
          116.8235519,
          23.6461581
        ],
        [
          116.8200076,
          23.6446688
        ],
        [
          116.8183134,
          23.6421761
        ],
        [
          116.8186903,
          23.641281
        ],
        [
          116.8188718,
          23.6389794
        ],
        [
          116.8177671,
          23.6382507
        ],
        [
          116.8168285,
          23.6382168
        ],
        [
          116.8190701,
          23.6362988
        ],
        [
          116.8207429,
          23.6355344
        ],
        [
          116.8208508,
          23.6367098
        ],
        [
          116.8206255,
          23.6380547
        ],
        [
          116.822813,
          23.6363877
        ],
        [
          116.8232969,
          23.6354123
        ],
        [
          116.8219217,
          23.6352769
        ],
        [
          116.8191131,
          23.6332909
        ],
        [
          116.8189298,
          23.6328501
        ],
        [
          116.8204647,
          23.6311187
        ],
        [
          116.8203916,
          23.6306548
        ],
        [
          116.8179972,
          23.6300445
        ],
        [
          116.8179726,
          23.6296107
        ],
        [
          116.8190457,
          23.6287663
        ],
        [
          116.8215012,
          23.6279227
        ],
        [
          116.8225872,
          23.6252716
        ],
        [
          116.8232762,
          23.6248913
        ],
        [
          116.825206,
          23.6247048
        ],
        [
          116.8270387,
          23.6250616
        ],
        [
          116.8273458,
          23.6247807
        ],
        [
          116.8261387,
          23.6230237
        ],
        [
          116.8258127,
          23.6195391
        ],
        [
          116.8250909,
          23.6177328
        ],
        [
          116.8239499,
          23.6172603
        ],
        [
          116.823209,
          23.6145539
        ],
        [
          116.82201,
          23.6145254
        ],
        [
          116.8191508,
          23.6165206
        ],
        [
          116.8173932,
          23.6148527
        ],
        [
          116.8170524,
          23.6133499
        ],
        [
          116.8154046,
          23.6128035
        ],
        [
          116.8127636,
          23.6134013
        ],
        [
          116.8118715,
          23.6147831
        ],
        [
          116.8104335,
          23.6150801
        ],
        [
          116.8083048,
          23.6140746
        ],
        [
          116.8072156,
          23.6124144
        ],
        [
          116.8055589,
          23.61185
        ],
        [
          116.8030288,
          23.6099894
        ],
        [
          116.8008915,
          23.609401
        ],
        [
          116.7973019,
          23.6105492
        ],
        [
          116.7960275,
          23.6128457
        ],
        [
          116.7912156,
          23.6130682
        ],
        [
          116.7895825,
          23.6106539
        ],
        [
          116.7903897,
          23.6084353
        ],
        [
          116.7896963,
          23.6055376
        ],
        [
          116.7870535,
          23.6018697
        ],
        [
          116.7871359,
          23.5963851
        ],
        [
          116.7900821,
          23.5958935
        ],
        [
          116.7899655,
          23.5920973
        ],
        [
          116.7876772,
          23.5917728
        ],
        [
          116.7844111,
          23.5902934
        ],
        [
          116.7833066,
          23.5890866
        ],
        [
          116.7820959,
          23.5886778
        ],
        [
          116.7808787,
          23.5854443
        ],
        [
          116.7821744,
          23.5845684
        ],
        [
          116.7821448,
          23.5841276
        ],
        [
          116.781241,
          23.5833617
        ],
        [
          116.78054,
          23.5820769
        ],
        [
          116.776076,
          23.5832715
        ],
        [
          116.7749103,
          23.585294
        ],
        [
          116.7735935,
          23.5857417
        ],
        [
          116.7733598,
          23.5867928
        ],
        [
          116.7723828,
          23.5866565
        ],
        [
          116.7715557,
          23.5851578
        ],
        [
          116.7695379,
          23.5861506
        ],
        [
          116.7677112,
          23.5868319
        ],
        [
          116.7665961,
          23.5854459
        ],
        [
          116.7640956,
          23.5834439
        ],
        [
          116.7631093,
          23.5830228
        ],
        [
          116.7621713,
          23.580891
        ],
        [
          116.7603064,
          23.5790859
        ],
        [
          116.7597789,
          23.5792369
        ],
        [
          116.758643,
          23.5805105
        ],
        [
          116.7578412,
          23.5799034
        ],
        [
          116.7587436,
          23.5786334
        ],
        [
          116.7567353,
          23.5765924
        ],
        [
          116.7512606,
          23.578202
        ],
        [
          116.751084,
          23.5809251
        ],
        [
          116.7501051,
          23.5816645
        ],
        [
          116.7501051,
          23.5837091
        ],
        [
          116.7490324,
          23.5848612
        ],
        [
          116.7477077,
          23.5846696
        ],
        [
          116.7469921,
          23.5867264
        ],
        [
          116.7465215,
          23.5886911
        ],
        [
          116.7471727,
          23.5890361
        ],
        [
          116.7465104,
          23.5906973
        ],
        [
          116.7457086,
          23.5904896
        ],
        [
          116.7450396,
          23.5920067
        ],
        [
          116.7426751,
          23.5948929
        ],
        [
          116.7399726,
          23.5952455
        ],
        [
          116.737794,
          23.5967309
        ],
        [
          116.7365349,
          23.5971788
        ],
        [
          116.7363606,
          23.5978975
        ],
        [
          116.736756,
          23.598659
        ],
        [
          116.7359121,
          23.5996723
        ],
        [
          116.7362879,
          23.601158
        ],
        [
          116.7351104,
          23.6022439
        ],
        [
          116.7342374,
          23.6042438
        ],
        [
          116.7326131,
          23.6054545
        ],
        [
          116.729303,
          23.6062106
        ],
        [
          116.7279935,
          23.6040774
        ],
        [
          116.7141189,
          23.602993
        ],
        [
          116.7079497,
          23.6000064
        ],
        [
          116.7066439,
          23.5960786
        ],
        [
          116.7090883,
          23.5941852
        ],
        [
          116.7101068,
          23.5888517
        ],
        [
          116.7100444,
          23.5873217
        ],
        [
          116.7068683,
          23.5851239
        ],
        [
          116.704453,
          23.5844839
        ],
        [
          116.7038419,
          23.5831504
        ],
        [
          116.7013684,
          23.5822436
        ],
        [
          116.7004445,
          23.5827685
        ],
        [
          116.6988262,
          23.5858224
        ],
        [
          116.6977523,
          23.5853547
        ],
        [
          116.6991986,
          23.57769
        ],
        [
          116.7052997,
          23.575575
        ],
        [
          116.7118476,
          23.5735817
        ],
        [
          116.7141923,
          23.5703336
        ],
        [
          116.7146719,
          23.5688683
        ],
        [
          116.7159242,
          23.5673053
        ],
        [
          116.7167764,
          23.5651183
        ],
        [
          116.7166597,
          23.5633357
        ],
        [
          116.7159207,
          23.5612322
        ],
        [
          116.715937,
          23.5584985
        ],
        [
          116.7170286,
          23.5568201
        ],
        [
          116.7196961,
          23.5538287
        ],
        [
          116.7147267,
          23.5469815
        ],
        [
          116.713154,
          23.5456271
        ],
        [
          116.7108188,
          23.5451465
        ],
        [
          116.7093852,
          23.5437184
        ],
        [
          116.7065977,
          23.5410979
        ],
        [
          116.7056943,
          23.5392179
        ],
        [
          116.7051279,
          23.5379322
        ],
        [
          116.7031607,
          23.5342574
        ],
        [
          116.7005331,
          23.5212146
        ],
        [
          116.7046167,
          23.5175194
        ],
        [
          116.7053894,
          23.5139555
        ],
        [
          116.704984,
          23.5114274
        ],
        [
          116.7062063,
          23.5043603
        ],
        [
          116.706855,
          23.4996383
        ],
        [
          116.7088174,
          23.49708
        ],
        [
          116.7109318,
          23.4943986
        ],
        [
          116.7128373,
          23.4930972
        ],
        [
          116.712959,
          23.488598
        ],
        [
          116.7130662,
          23.4840481
        ],
        [
          116.7146926,
          23.4778259
        ],
        [
          116.7174496,
          23.4738467
        ],
        [
          116.7195497,
          23.4715585
        ],
        [
          116.726928,
          23.4656714
        ],
        [
          116.7330546,
          23.4624257
        ],
        [
          116.7365413,
          23.4620166
        ],
        [
          116.7443819,
          23.458932
        ],
        [
          116.7548192,
          23.4530471
        ],
        [
          116.7654319,
          23.44915
        ],
        [
          116.7777001,
          23.4440756
        ],
        [
          116.7862951,
          23.4404742
        ],
        [
          116.7940857,
          23.4365526
        ],
        [
          116.8034683,
          23.429302
        ],
        [
          116.8054144,
          23.4235357
        ],
        [
          116.8076576,
          23.4179308
        ],
        [
          116.8085626,
          23.4110049
        ],
        [
          116.8101438,
          23.4024472
        ],
        [
          116.8131584,
          23.3988566
        ],
        [
          116.8207401,
          23.3914145
        ],
        [
          116.8264812,
          23.3859152
        ],
        [
          116.8295104,
          23.387058
        ],
        [
          116.8369955,
          23.4026303
        ],
        [
          116.84823,
          23.418079
        ],
        [
          116.857808,
          23.417148
        ],
        [
          116.863103,
          23.413116
        ],
        [
          116.866709,
          23.415701
        ],
        [
          116.865582,
          23.41932
        ],
        [
          116.85961,
          23.420457
        ],
        [
          116.85792,
          23.429969
        ],
        [
          116.873602,
          23.455437
        ],
        [
          116.880201,
          23.46005
        ],
        [
          116.870179,
          23.476618
        ],
        [
          116.864959,
          23.473861
        ],
        [
          116.859581,
          23.478649
        ],
        [
          116.899866,
          23.552717
        ],
        [
          116.912678,
          23.552428
        ],
        [
          116.912248,
          23.5677
        ],
        [
          116.9059872,
          23.5788626
        ]
      ]
    ]
  },
  "properties": {
    "adcode": 440515,
    "name": "澄海",
    "parent": "汕头",
    "outer": false
  }
}
