{
  "type": "Feature",
  "properties": {
    "adcode": 440512,
    "name": "濠江",
    "parent": "汕头",
    "outer": false
  },
  "geometry": {
    "type": "Polygon",
    "coordinates": [
      [
        [
          116.7558048,
          23.3178409
        ],
        [
          116.7555426,
          23.3203479
        ],
        [
          116.7525603,
          23.3220706
        ],
        [
          116.7495337,
          23.3263652
        ],
        [
          116.7447235,
          23.329027
        ],
        [
          116.7422221,
          23.3289386
        ],
        [
          116.7382778,
          23.3312796
        ],
        [
          116.7395391,
          23.3328988
        ],
        [
          116.733977,
          23.337007
        ],
        [
          116.7279957,
          23.3240998
        ],
        [
          116.6985719,
          23.3274829
        ],
        [
          116.6936362,
          23.3321524
        ],
        [
          116.6898012,
          23.3385018
        ],
        [
          116.683151,
          23.3426694
        ],
        [
          116.6782887,
          23.3435347
        ],
        [
          116.664185,
          23.341334
        ],
        [
          116.6518861,
          23.3382441
        ],
        [
          116.6535222,
          23.3345126
        ],
        [
          116.6513583,
          23.3327679
        ],
        [
          116.6500111,
          23.327619
        ],
        [
          116.6445221,
          23.3219001
        ],
        [
          116.6414279,
          23.3205035
        ],
        [
          116.638111,
          23.3183494
        ],
        [
          116.6288571,
          23.3177862
        ],
        [
          116.628236,
          23.309413
        ],
        [
          116.62888,
          23.307225
        ],
        [
          116.630523,
          23.305795
        ],
        [
          116.62946,
          23.302273
        ],
        [
          116.627828,
          23.301194
        ],
        [
          116.629245,
          23.300254
        ],
        [
          116.629363,
          23.297999
        ],
        [
          116.629911,
          23.29686
        ],
        [
          116.631662,
          23.29512
        ],
        [
          116.632177,
          23.292532
        ],
        [
          116.63106,
          23.29081
        ],
        [
          116.629202,
          23.287167
        ],
        [
          116.62757,
          23.286118
        ],
        [
          116.626915,
          23.287567
        ],
        [
          116.625486,
          23.2881
        ],
        [
          116.624724,
          23.287391
        ],
        [
          116.624144,
          23.285306
        ],
        [
          116.623531,
          23.284627
        ],
        [
          116.621233,
          23.283984
        ],
        [
          116.6196,
          23.28088
        ],
        [
          116.616851,
          23.280886
        ],
        [
          116.616496,
          23.278831
        ],
        [
          116.619901,
          23.276291
        ],
        [
          116.620374,
          23.274945
        ],
        [
          116.622049,
          23.273768
        ],
        [
          116.624176,
          23.271089
        ],
        [
          116.625712,
          23.270488
        ],
        [
          116.628816,
          23.266966
        ],
        [
          116.630674,
          23.266802
        ],
        [
          116.631479,
          23.266099
        ],
        [
          116.629116,
          23.265923
        ],
        [
          116.631673,
          23.261757
        ],
        [
          116.632919,
          23.262236
        ],
        [
          116.635303,
          23.257974
        ],
        [
          116.636989,
          23.253365
        ],
        [
          116.638042,
          23.252698
        ],
        [
          116.638407,
          23.251322
        ],
        [
          116.640383,
          23.251025
        ],
        [
          116.641296,
          23.249648
        ],
        [
          116.643015,
          23.248714
        ],
        [
          116.643745,
          23.249084
        ],
        [
          116.646516,
          23.248254
        ],
        [
          116.647644,
          23.247017
        ],
        [
          116.648954,
          23.247726
        ],
        [
          116.650383,
          23.247562
        ],
        [
          116.653669,
          23.246331
        ],
        [
          116.656419,
          23.24436
        ],
        [
          116.655495,
          23.242505
        ],
        [
          116.657364,
          23.241668
        ],
        [
          116.658718,
          23.239048
        ],
        [
          116.660844,
          23.237714
        ],
        [
          116.660511,
          23.236907
        ],
        [
          116.658148,
          23.236659
        ],
        [
          116.657708,
          23.235446
        ],
        [
          116.659426,
          23.234245
        ],
        [
          116.659835,
          23.232996
        ],
        [
          116.661768,
          23.231595
        ],
        [
          116.662949,
          23.228435
        ],
        [
          116.666021,
          23.225857
        ],
        [
          116.671746,
          23.223425
        ],
        [
          116.675623,
          23.221151
        ],
        [
          116.6785764,
          23.2190998
        ],
        [
          116.683115,
          23.224149
        ],
        [
          116.703826,
          23.238911
        ],
        [
          116.724769,
          23.245512
        ],
        [
          116.738382,
          23.245927
        ],
        [
          116.741011,
          23.241821
        ],
        [
          116.745262,
          23.244283
        ],
        [
          116.754759,
          23.234988
        ],
        [
          116.755932,
          23.228024
        ],
        [
          116.765786,
          23.230235
        ],
        [
          116.76601,
          23.227511
        ],
        [
          116.777659,
          23.226339
        ],
        [
          116.775191,
          23.220259
        ],
        [
          116.784661,
          23.212345
        ],
        [
          116.790563,
          23.21187
        ],
        [
          116.797189,
          23.216234
        ],
        [
          116.79549,
          23.224977
        ],
        [
          116.800912,
          23.228904
        ],
        [
          116.802616,
          23.237024
        ],
        [
          116.807771,
          23.237263
        ],
        [
          116.807806,
          23.240116
        ],
        [
          116.798478,
          23.24425
        ],
        [
          116.797224,
          23.240422
        ],
        [
          116.791011,
          23.241876
        ],
        [
          116.788203,
          23.237257
        ],
        [
          116.777907,
          23.2435
        ],
        [
          116.771241,
          23.268838
        ],
        [
          116.775251,
          23.27977
        ],
        [
          116.771505,
          23.283097
        ],
        [
          116.773123,
          23.291748
        ],
        [
          116.757224,
          23.305519
        ],
        [
          116.757929,
          23.31021
        ],
        [
          116.760395,
          23.315629
        ],
        [
          116.7558048,
          23.3178409
        ]
      ]
    ]
  }
}
