{
  "type": "Feature",
  "geometry": {
    "type": "Polygon",
    "coordinates": [
      [
        [
          117.3681175,
          23.7785203
        ],
        [
          117.3666266,
          23.7811319
        ],
        [
          117.365209,
          23.78074
        ],
        [
          117.3595977,
          23.7887391
        ],
        [
          117.3496606,
          23.7948666
        ],
        [
          117.3494796,
          23.7973221
        ],
        [
          117.3484883,
          23.8015318
        ],
        [
          117.3509924,
          23.80812
        ],
        [
          117.3520324,
          23.8137161
        ],
        [
          117.3537479,
          23.8171767
        ],
        [
          117.354981,
          23.8259052
        ],
        [
          117.3528593,
          23.8336993
        ],
        [
          117.3495609,
          23.8345659
        ],
        [
          117.3507536,
          23.8385331
        ],
        [
          117.3553619,
          23.8398472
        ],
        [
          117.3594344,
          23.8436154
        ],
        [
          117.3614672,
          23.8509306
        ],
        [
          117.3513615,
          23.8531378
        ],
        [
          117.3467825,
          23.8598071
        ],
        [
          117.3431071,
          23.8640077
        ],
        [
          117.3377466,
          23.8630264
        ],
        [
          117.33343,
          23.8582653
        ],
        [
          117.3226646,
          23.858657
        ],
        [
          117.318545,
          23.860946
        ],
        [
          117.3137561,
          23.8672165
        ],
        [
          117.3063406,
          23.8674819
        ],
        [
          117.3020001,
          23.8648244
        ],
        [
          117.2980153,
          23.865816
        ],
        [
          117.293958,
          23.8623845
        ],
        [
          117.285577,
          23.8572894
        ],
        [
          117.2870511,
          23.8535475
        ],
        [
          117.2850452,
          23.8527046
        ],
        [
          117.2835,
          23.8544152
        ],
        [
          117.2828651,
          23.8535855
        ],
        [
          117.2829736,
          23.8508832
        ],
        [
          117.2751124,
          23.8540318
        ],
        [
          117.2723623,
          23.8544919
        ],
        [
          117.2686669,
          23.8532702
        ],
        [
          117.2632289,
          23.8557279
        ],
        [
          117.2542395,
          23.8552811
        ],
        [
          117.2458425,
          23.8580084
        ],
        [
          117.2390113,
          23.8493048
        ],
        [
          117.2324227,
          23.855067
        ],
        [
          117.2274793,
          23.8619292
        ],
        [
          117.2227807,
          23.8642959
        ],
        [
          117.2215765,
          23.871362
        ],
        [
          117.2152451,
          23.8726581
        ],
        [
          117.2160246,
          23.8760081
        ],
        [
          117.2106132,
          23.8786525
        ],
        [
          117.2077086,
          23.8781397
        ],
        [
          117.2020141,
          23.8844531
        ],
        [
          117.2031449,
          23.8873318
        ],
        [
          117.1985861,
          23.8913355
        ],
        [
          117.2045549,
          23.8952421
        ],
        [
          117.2006084,
          23.9003751
        ],
        [
          117.1918798,
          23.901292
        ],
        [
          117.1912689,
          23.9086974
        ],
        [
          117.1891922,
          23.917215
        ],
        [
          117.1841802,
          23.920031
        ],
        [
          117.1797757,
          23.9189352
        ],
        [
          117.171339,
          23.9233119
        ],
        [
          117.1755525,
          23.925424
        ],
        [
          117.1705908,
          23.9289352
        ],
        [
          117.1713109,
          23.9305605
        ],
        [
          117.1628285,
          23.9346672
        ],
        [
          117.163676,
          23.941887
        ],
        [
          117.1535888,
          23.9503099
        ],
        [
          117.1539411,
          23.9530454
        ],
        [
          117.1477849,
          23.9565617
        ],
        [
          117.1483306,
          23.9602983
        ],
        [
          117.1504309,
          23.9684052
        ],
        [
          117.1552056,
          23.9681391
        ],
        [
          117.1564141,
          23.9750411
        ],
        [
          117.1532273,
          23.9824139
        ],
        [
          117.1541468,
          23.9843027
        ],
        [
          117.1462315,
          23.9855615
        ],
        [
          117.1470716,
          23.9907008
        ],
        [
          117.1536427,
          24.0045525
        ],
        [
          117.1364492,
          24.0173167
        ],
        [
          117.1452946,
          24.0244976
        ],
        [
          117.1396926,
          24.0390874
        ],
        [
          117.1362577,
          24.0378359
        ],
        [
          117.1333238,
          24.0399944
        ],
        [
          117.1293711,
          24.0397711
        ],
        [
          117.122675,
          24.043079
        ],
        [
          117.1180435,
          24.0506693
        ],
        [
          117.116613,
          24.0566328
        ],
        [
          117.110084,
          24.0668775
        ],
        [
          117.1067636,
          24.0744313
        ],
        [
          117.0998218,
          24.0791021
        ],
        [
          117.1007261,
          24.0854995
        ],
        [
          117.0989219,
          24.0831777
        ],
        [
          117.0917039,
          24.0835546
        ],
        [
          117.0869147,
          24.0884793
        ],
        [
          117.0833408,
          24.0899948
        ],
        [
          117.075685,
          24.1042242
        ],
        [
          117.0456793,
          24.1151945
        ],
        [
          117.0352273,
          24.1242738
        ],
        [
          117.0311035,
          24.1219049
        ],
        [
          117.0288397,
          24.1283461
        ],
        [
          117.0320749,
          24.1300624
        ],
        [
          117.0263177,
          24.1383731
        ],
        [
          117.0276446,
          24.140468
        ],
        [
          117.019451,
          24.1422306
        ],
        [
          117.0174108,
          24.1503326
        ],
        [
          117.010563,
          24.1521125
        ],
        [
          117.0083716,
          24.1565252
        ],
        [
          117.0033729,
          24.1550853
        ],
        [
          116.9981597,
          24.1606608
        ],
        [
          116.9979332,
          24.1636377
        ],
        [
          116.9934154,
          24.1632406
        ],
        [
          116.9901428,
          24.169488
        ],
        [
          116.9864456,
          24.172926
        ],
        [
          116.9857469,
          24.1711924
        ],
        [
          116.9840759,
          24.1692597
        ],
        [
          116.9807319,
          24.1675453
        ],
        [
          116.9765689,
          24.166634
        ],
        [
          116.9742046,
          24.1648869
        ],
        [
          116.9718898,
          24.1615473
        ],
        [
          116.9701887,
          24.1576732
        ],
        [
          116.9682917,
          24.1563561
        ],
        [
          116.9601799,
          24.1561999
        ],
        [
          116.9570222,
          24.1545143
        ],
        [
          116.9518556,
          24.148743
        ],
        [
          116.9506819,
          24.1478951
        ],
        [
          116.9478073,
          24.1463399
        ],
        [
          116.9458492,
          24.1428959
        ],
        [
          116.9444279,
          24.1397625
        ],
        [
          116.9424879,
          24.1377867
        ],
        [
          116.9406405,
          24.1374223
        ],
        [
          116.9368796,
          24.1366933
        ],
        [
          116.9359779,
          24.13574
        ],
        [
          116.9358392,
          24.1337709
        ],
        [
          116.9343966,
          24.1325589
        ],
        [
          116.9312074,
          24.1311044
        ],
        [
          116.9320869,
          24.1282035
        ],
        [
          116.9303163,
          24.1276326
        ],
        [
          116.9285496,
          24.1241949
        ],
        [
          116.9290952,
          24.1230812
        ],
        [
          116.9278324,
          24.1174607
        ],
        [
          116.926362,
          24.1123726
        ],
        [
          116.9231921,
          24.1072669
        ],
        [
          116.9220496,
          24.1035737
        ],
        [
          116.9220945,
          24.1014879
        ],
        [
          116.9226658,
          24.0992249
        ],
        [
          116.9249713,
          24.0942245
        ],
        [
          116.9238644,
          24.0881513
        ],
        [
          116.9242762,
          24.0820084
        ],
        [
          116.9254313,
          24.0739057
        ],
        [
          116.924812,
          24.0702571
        ],
        [
          116.9252425,
          24.0683679
        ],
        [
          116.9267084,
          24.0667617
        ],
        [
          116.9308377,
          24.0637502
        ],
        [
          116.931215,
          24.0623826
        ],
        [
          116.9314311,
          24.060875
        ],
        [
          116.9306807,
          24.0588731
        ],
        [
          116.9308372,
          24.0581289
        ],
        [
          116.9320695,
          24.0578868
        ],
        [
          116.9338586,
          24.0566065
        ],
        [
          116.9362241,
          24.0558833
        ],
        [
          116.9374776,
          24.0560461
        ],
        [
          116.9404094,
          24.0576524
        ],
        [
          116.9441103,
          24.0585658
        ],
        [
          116.9471038,
          24.0581431
        ],
        [
          116.9479062,
          24.0575513
        ],
        [
          116.947603,
          24.0547469
        ],
        [
          116.9478725,
          24.0535763
        ],
        [
          116.9477729,
          24.0494617
        ],
        [
          116.9468612,
          24.0477976
        ],
        [
          116.9462342,
          24.0448313
        ],
        [
          116.9473638,
          24.0421945
        ],
        [
          116.9473384,
          24.0403742
        ],
        [
          116.9437583,
          24.0388712
        ],
        [
          116.9393606,
          24.0381806
        ],
        [
          116.9375819,
          24.0385947
        ],
        [
          116.9359462,
          24.038031
        ],
        [
          116.9353758,
          24.0371432
        ],
        [
          116.9352518,
          24.0358326
        ],
        [
          116.9371142,
          24.0324567
        ],
        [
          116.9385522,
          24.0317207
        ],
        [
          116.940805,
          24.0320589
        ],
        [
          116.9446082,
          24.0286579
        ],
        [
          116.9452065,
          24.0271577
        ],
        [
          116.9506491,
          24.0229825
        ],
        [
          116.9536267,
          24.0187816
        ],
        [
          116.9573037,
          24.0147663
        ],
        [
          116.9593482,
          24.0146163
        ],
        [
          116.9611634,
          24.0130874
        ],
        [
          116.9650906,
          24.0102641
        ],
        [
          116.972226,
          24.0072807
        ],
        [
          116.9771124,
          24.0020565
        ],
        [
          116.9769724,
          23.9979553
        ],
        [
          116.9742816,
          23.9969587
        ],
        [
          116.970841,
          23.993495
        ],
        [
          116.9689714,
          23.9869195
        ],
        [
          116.9706441,
          23.981039
        ],
        [
          116.9704259,
          23.9778724
        ],
        [
          116.967472,
          23.9757011
        ],
        [
          116.9714602,
          23.9717408
        ],
        [
          116.9780397,
          23.9620107
        ],
        [
          116.9748034,
          23.9554102
        ],
        [
          116.975967,
          23.9508788
        ],
        [
          116.9755536,
          23.9437966
        ],
        [
          116.9722407,
          23.9389863
        ],
        [
          116.9719131,
          23.9342854
        ],
        [
          116.9688143,
          23.9297325
        ],
        [
          116.9642689,
          23.9273394
        ],
        [
          116.9640045,
          23.9267702
        ],
        [
          116.9633289,
          23.9260998
        ],
        [
          116.9628076,
          23.9264163
        ],
        [
          116.9605326,
          23.9254549
        ],
        [
          116.9586686,
          23.9254181
        ],
        [
          116.9576667,
          23.9252016
        ],
        [
          116.9569445,
          23.9254085
        ],
        [
          116.9566713,
          23.9252307
        ],
        [
          116.9563519,
          23.9253226
        ],
        [
          116.956273,
          23.9257175
        ],
        [
          116.9557029,
          23.9262941
        ],
        [
          116.9552432,
          23.9260881
        ],
        [
          116.9541694,
          23.926617
        ],
        [
          116.9534124,
          23.925419
        ],
        [
          116.9509426,
          23.9250233
        ],
        [
          116.9502156,
          23.923245
        ],
        [
          116.9503894,
          23.9216212
        ],
        [
          116.9517161,
          23.9195792
        ],
        [
          116.953048,
          23.9187815
        ],
        [
          116.9547406,
          23.9172554
        ],
        [
          116.9556872,
          23.9143804
        ],
        [
          116.956047,
          23.9106896
        ],
        [
          116.9553693,
          23.9081762
        ],
        [
          116.9543873,
          23.9075459
        ],
        [
          116.9533926,
          23.9060823
        ],
        [
          116.9535187,
          23.9050078
        ],
        [
          116.9542604,
          23.9034224
        ],
        [
          116.9581956,
          23.9014791
        ],
        [
          116.9624931,
          23.8996974
        ],
        [
          116.9663441,
          23.8987692
        ],
        [
          116.9676347,
          23.8981524
        ],
        [
          116.9683973,
          23.8975893
        ],
        [
          116.9701572,
          23.8941031
        ],
        [
          116.9693841,
          23.8922564
        ],
        [
          116.9685271,
          23.8909339
        ],
        [
          116.9688945,
          23.8891741
        ],
        [
          116.9700286,
          23.887769
        ],
        [
          116.9746521,
          23.8871734
        ],
        [
          116.9758427,
          23.8855411
        ],
        [
          116.9753443,
          23.8845701
        ],
        [
          116.9728761,
          23.8834424
        ],
        [
          116.9710745,
          23.8779646
        ],
        [
          116.9708702,
          23.8750227
        ],
        [
          116.9723791,
          23.8726213
        ],
        [
          116.960234,
          23.8735226
        ],
        [
          116.9572855,
          23.874437
        ],
        [
          116.9541103,
          23.8708428
        ],
        [
          116.9597854,
          23.8666416
        ],
        [
          116.9576115,
          23.864181
        ],
        [
          116.9604736,
          23.8611373
        ],
        [
          116.9626394,
          23.8607568
        ],
        [
          116.9651939,
          23.8597384
        ],
        [
          116.9670557,
          23.8589083
        ],
        [
          116.970033,
          23.8588122
        ],
        [
          116.9742515,
          23.8590738
        ],
        [
          116.9753802,
          23.8587685
        ],
        [
          116.9765238,
          23.8588905
        ],
        [
          116.9781715,
          23.8625051
        ],
        [
          116.9802292,
          23.8658289
        ],
        [
          116.9830773,
          23.865312
        ],
        [
          116.9846348,
          23.8653036
        ],
        [
          116.986316,
          23.8651348
        ],
        [
          116.9889867,
          23.8642335
        ],
        [
          116.9942942,
          23.8621243
        ],
        [
          116.9963009,
          23.8601633
        ],
        [
          116.9984628,
          23.859262
        ],
        [
          117.0023115,
          23.8585783
        ],
        [
          117.007436,
          23.8584225
        ],
        [
          117.0078811,
          23.856896
        ],
        [
          117.0081501,
          23.8516203
        ],
        [
          117.0107572,
          23.8494539
        ],
        [
          117.0130154,
          23.8496866
        ],
        [
          117.0129729,
          23.8482042
        ],
        [
          117.0138949,
          23.8454999
        ],
        [
          117.0163519,
          23.842902
        ],
        [
          117.0176236,
          23.8424367
        ],
        [
          117.0187283,
          23.8402663
        ],
        [
          117.0185741,
          23.8352581
        ],
        [
          117.019814,
          23.8343565
        ],
        [
          117.0196588,
          23.8322805
        ],
        [
          117.0211797,
          23.8299122
        ],
        [
          117.0263461,
          23.8323116
        ],
        [
          117.0292991,
          23.8298293
        ],
        [
          117.0282658,
          23.8285642
        ],
        [
          117.0287113,
          23.8270234
        ],
        [
          117.0273399,
          23.8264756
        ],
        [
          117.0271804,
          23.8254668
        ],
        [
          117.0278958,
          23.82344
        ],
        [
          117.0246584,
          23.8202027
        ],
        [
          117.0235893,
          23.8200947
        ],
        [
          117.0245282,
          23.8186797
        ],
        [
          117.0265312,
          23.8190869
        ],
        [
          117.0271862,
          23.8185524
        ],
        [
          117.0220521,
          23.8163943
        ],
        [
          117.0200361,
          23.8146123
        ],
        [
          117.0197818,
          23.8134343
        ],
        [
          117.0169044,
          23.8127072
        ],
        [
          117.0163893,
          23.8119913
        ],
        [
          117.0179949,
          23.8107551
        ],
        [
          117.0192723,
          23.8091525
        ],
        [
          117.0189465,
          23.8075771
        ],
        [
          117.0211123,
          23.8037126
        ],
        [
          117.0221216,
          23.8030312
        ],
        [
          117.0238544,
          23.7991478
        ],
        [
          117.0237153,
          23.7977519
        ],
        [
          117.0244266,
          23.7955586
        ],
        [
          117.0269452,
          23.7938911
        ],
        [
          117.0292212,
          23.7916318
        ],
        [
          117.0300771,
          23.7900749
        ],
        [
          117.0308402,
          23.7868602
        ],
        [
          117.0316044,
          23.7852575
        ],
        [
          117.0344943,
          23.7809313
        ],
        [
          117.0353646,
          23.7760218
        ],
        [
          117.0370597,
          23.7714845
        ],
        [
          117.0372979,
          23.7693191
        ],
        [
          117.0329143,
          23.7669109
        ],
        [
          117.0376766,
          23.767266
        ],
        [
          117.0377037,
          23.7662907
        ],
        [
          117.0390075,
          23.7645325
        ],
        [
          117.04091,
          23.7632245
        ],
        [
          117.0405588,
          23.7582016
        ],
        [
          117.0399176,
          23.7548788
        ],
        [
          117.0425688,
          23.7523378
        ],
        [
          117.0445182,
          23.7480888
        ],
        [
          117.0443909,
          23.7464221
        ],
        [
          117.0464902,
          23.7425356
        ],
        [
          117.0481801,
          23.7416211
        ],
        [
          117.0483961,
          23.7409986
        ],
        [
          117.0479922,
          23.7401727
        ],
        [
          117.0483262,
          23.7397808
        ],
        [
          117.0483219,
          23.7380613
        ],
        [
          117.0472271,
          23.7368797
        ],
        [
          117.045837,
          23.7359958
        ],
        [
          117.0454003,
          23.7353989
        ],
        [
          117.0450072,
          23.7342068
        ],
        [
          117.0450138,
          23.733277
        ],
        [
          117.0452045,
          23.7321565
        ],
        [
          117.0458421,
          23.731187
        ],
        [
          117.0460586,
          23.7302379
        ],
        [
          117.0460692,
          23.7296586
        ],
        [
          117.0446352,
          23.7275503
        ],
        [
          117.0444399,
          23.726567
        ],
        [
          117.0450992,
          23.7240682
        ],
        [
          117.0465302,
          23.721642
        ],
        [
          117.0473574,
          23.7207013
        ],
        [
          117.0473853,
          23.7187811
        ],
        [
          117.046168,
          23.7157336
        ],
        [
          117.0467679,
          23.7136353
        ],
        [
          117.0490948,
          23.7109923
        ],
        [
          117.048085,
          23.7080407
        ],
        [
          117.047904,
          23.7053749
        ],
        [
          117.0483351,
          23.7027616
        ],
        [
          117.0483416,
          23.7007826
        ],
        [
          117.0490132,
          23.699119
        ],
        [
          117.0506532,
          23.6966431
        ],
        [
          117.0529681,
          23.6947696
        ],
        [
          117.055516,
          23.6936058
        ],
        [
          117.058134,
          23.6929276
        ],
        [
          117.0594306,
          23.6919233
        ],
        [
          117.0616678,
          23.6912159
        ],
        [
          117.0625218,
          23.6913882
        ],
        [
          117.0635834,
          23.692019
        ],
        [
          117.0646553,
          23.6929989
        ],
        [
          117.0660559,
          23.6937574
        ],
        [
          117.0675675,
          23.6937064
        ],
        [
          117.0691694,
          23.6933276
        ],
        [
          117.0715197,
          23.690335
        ],
        [
          117.0720743,
          23.6881552
        ],
        [
          117.0748044,
          23.682884
        ],
        [
          117.0806836,
          23.6763717
        ],
        [
          117.0825314,
          23.6723745
        ],
        [
          117.0836291,
          23.6714778
        ],
        [
          117.0846363,
          23.6686688
        ],
        [
          117.0854013,
          23.668157
        ],
        [
          117.0859159,
          23.6665079
        ],
        [
          117.088051,
          23.6683407
        ],
        [
          117.0881997,
          23.6696987
        ],
        [
          117.0879609,
          23.6720369
        ],
        [
          117.0902482,
          23.6714406
        ],
        [
          117.0907825,
          23.6698351
        ],
        [
          117.0921584,
          23.6676169
        ],
        [
          117.0957983,
          23.6677939
        ],
        [
          117.0961174,
          23.6665969
        ],
        [
          117.101386,
          23.6681736
        ],
        [
          117.1038998,
          23.6667943
        ],
        [
          117.1037321,
          23.6654534
        ],
        [
          117.102804,
          23.66345
        ],
        [
          117.1071527,
          23.6584294
        ],
        [
          117.1091093,
          23.658721
        ],
        [
          117.1116945,
          23.6574019
        ],
        [
          117.1131138,
          23.6573609
        ],
        [
          117.1156233,
          23.6562388
        ],
        [
          117.1176882,
          23.652196
        ],
        [
          117.1177965,
          23.6509802
        ],
        [
          117.1184692,
          23.6478362
        ],
        [
          117.1180222,
          23.6470232
        ],
        [
          117.1187263,
          23.6471972
        ],
        [
          117.120644,
          23.6488792
        ],
        [
          117.1219962,
          23.6488485
        ],
        [
          117.1238153,
          23.6507083
        ],
        [
          117.1254245,
          23.6538715
        ],
        [
          117.1309244,
          23.6538631
        ],
        [
          117.1318088,
          23.6540122
        ],
        [
          117.1327523,
          23.6554188
        ],
        [
          117.1339937,
          23.6556683
        ],
        [
          117.1351361,
          23.6556138
        ],
        [
          117.1356001,
          23.6551102
        ],
        [
          117.1361666,
          23.6531748
        ],
        [
          117.1369073,
          23.6530902
        ],
        [
          117.1376234,
          23.6541976
        ],
        [
          117.1392157,
          23.6545902
        ],
        [
          117.1415232,
          23.6564239
        ],
        [
          117.1425337,
          23.6561995
        ],
        [
          117.1451151,
          23.6523554
        ],
        [
          117.1471374,
          23.6501423
        ],
        [
          117.149149,
          23.6471438
        ],
        [
          117.1523058,
          23.6433504
        ],
        [
          117.1551791,
          23.6418046
        ],
        [
          117.1587698,
          23.640396
        ],
        [
          117.1594144,
          23.6411864
        ],
        [
          117.1621092,
          23.6418877
        ],
        [
          117.1629711,
          23.6408734
        ],
        [
          117.1642619,
          23.6414296
        ],
        [
          117.1648616,
          23.6412683
        ],
        [
          117.1695455,
          23.6429195
        ],
        [
          117.1694576,
          23.6421117
        ],
        [
          117.1708747,
          23.6397939
        ],
        [
          117.1735335,
          23.6375603
        ],
        [
          117.1753981,
          23.6387245
        ],
        [
          117.1763474,
          23.6385001
        ],
        [
          117.1788478,
          23.6349986
        ],
        [
          117.1817223,
          23.6358121
        ],
        [
          117.1824573,
          23.6355456
        ],
        [
          117.182197,
          23.6348022
        ],
        [
          117.1828528,
          23.632248
        ],
        [
          117.1862825,
          23.6318412
        ],
        [
          117.1866365,
          23.6307837
        ],
        [
          117.1863402,
          23.6255538
        ],
        [
          117.1875046,
          23.6219264
        ],
        [
          117.1895918,
          23.6195029
        ],
        [
          117.226233,
          23.625077
        ],
        [
          117.223295,
          23.641789
        ],
        [
          117.22061,
          23.642228
        ],
        [
          117.22272,
          23.648202
        ],
        [
          117.213513,
          23.656196
        ],
        [
          117.217349,
          23.656723
        ],
        [
          117.217733,
          23.661554
        ],
        [
          117.229721,
          23.660763
        ],
        [
          117.232598,
          23.674905
        ],
        [
          117.235571,
          23.676398
        ],
        [
          117.237872,
          23.674202
        ],
        [
          117.245654,
          23.676071
        ],
        [
          117.246908,
          23.672545
        ],
        [
          117.237268,
          23.655363
        ],
        [
          117.237731,
          23.652575
        ],
        [
          117.243289,
          23.655484
        ],
        [
          117.2419,
          23.649726
        ],
        [
          117.236488,
          23.647796
        ],
        [
          117.228385,
          23.628705
        ],
        [
          117.231751,
          23.614842
        ],
        [
          117.229541,
          23.606741
        ],
        [
          117.232019,
          23.601033
        ],
        [
          117.239721,
          23.605821
        ],
        [
          117.244343,
          23.604777
        ],
        [
          117.253184,
          23.612919
        ],
        [
          117.255964,
          23.624638
        ],
        [
          117.278838,
          23.62773
        ],
        [
          117.283004,
          23.635365
        ],
        [
          117.28005,
          23.642073
        ],
        [
          117.27272,
          23.644617
        ],
        [
          117.276269,
          23.646314
        ],
        [
          117.270329,
          23.649353
        ],
        [
          117.264117,
          23.663292
        ],
        [
          117.268876,
          23.677326
        ],
        [
          117.278631,
          23.675274
        ],
        [
          117.281044,
          23.679104
        ],
        [
          117.268497,
          23.718577
        ],
        [
          117.272249,
          23.722668
        ],
        [
          117.274718,
          23.73542
        ],
        [
          117.314541,
          23.746851
        ],
        [
          117.311715,
          23.757169
        ],
        [
          117.304779,
          23.761268
        ],
        [
          117.294154,
          23.776937
        ],
        [
          117.305393,
          23.789793
        ],
        [
          117.299412,
          23.776664
        ],
        [
          117.308366,
          23.762005
        ],
        [
          117.318529,
          23.759661
        ],
        [
          117.318432,
          23.756573
        ],
        [
          117.325235,
          23.751247
        ],
        [
          117.345064,
          23.753992
        ],
        [
          117.346416,
          23.758153
        ],
        [
          117.348883,
          23.756922
        ],
        [
          117.359868,
          23.766292
        ],
        [
          117.360615,
          23.771353
        ],
        [
          117.3681175,
          23.7785203
        ]
      ]
    ]
  },
  "properties": {
    "adcode": 350624,
    "name": "诏安",
    "parent": "漳州",
    "outer": true
  }
}
