{
  "type": "Feature",
  "geometry": {
    "type": "Polygon",
    "coordinates": [
      [
        [
          116.5804463,
          23.3834243
        ],
        [
          116.594816,
          23.3739143
        ],
        [
          116.608904,
          23.364804
        ],
        [
          116.613871,
          23.3639267
        ],
        [
          116.6236525,
          23.3568077
        ],
        [
          116.6440085,
          23.3510636
        ],
        [
          116.6538781,
          23.3495265
        ],
        [
          116.6595784,
          23.3498028
        ],
        [
          116.6776668,
          23.3533924
        ],
        [
          116.6826524,
          23.3537418
        ],
        [
          116.6947454,
          23.3538248
        ],
        [
          116.7141482,
          23.3549993
        ],
        [
          116.7140606,
          23.3592161
        ],
        [
          116.7115712,
          23.3591678
        ],
        [
          116.7114693,
          23.3674046
        ],
        [
          116.7114041,
          23.3691902
        ],
        [
          116.7091829,
          23.3762197
        ],
        [
          116.7085687,
          23.3794011
        ],
        [
          116.7041866,
          23.3847775
        ],
        [
          116.7106095,
          23.3862502
        ],
        [
          116.7082892,
          23.3891087
        ],
        [
          116.7109293,
          23.3897261
        ],
        [
          116.7105086,
          23.391275
        ],
        [
          116.7127757,
          23.3917779
        ],
        [
          116.7133142,
          23.3926985
        ],
        [
          116.7168594,
          23.3906911
        ],
        [
          116.7171157,
          23.390401
        ],
        [
          116.7173188,
          23.389634
        ],
        [
          116.7184709,
          23.3899656
        ],
        [
          116.7188526,
          23.390316
        ],
        [
          116.7220158,
          23.3986638
        ],
        [
          116.7208404,
          23.4012063
        ],
        [
          116.7190698,
          23.3993698
        ],
        [
          116.716746,
          23.3962782
        ],
        [
          116.7153097,
          23.3991
        ],
        [
          116.7139237,
          23.4018399
        ],
        [
          116.7130812,
          23.4036281
        ],
        [
          116.7110919,
          23.4055438
        ],
        [
          116.7093742,
          23.4074636
        ],
        [
          116.7052988,
          23.4063026
        ],
        [
          116.7014596,
          23.4023934
        ],
        [
          116.7003391,
          23.3994229
        ],
        [
          116.6961214,
          23.4007023
        ],
        [
          116.6947702,
          23.4011939
        ],
        [
          116.6953236,
          23.4027101
        ],
        [
          116.69613,
          23.4062778
        ],
        [
          116.697668,
          23.4091058
        ],
        [
          116.6983181,
          23.4115966
        ],
        [
          116.6981561,
          23.4139999
        ],
        [
          116.6968718,
          23.4179111
        ],
        [
          116.6946932,
          23.4218091
        ],
        [
          116.6939039,
          23.4243777
        ],
        [
          116.6943747,
          23.4262491
        ],
        [
          116.6957936,
          23.4294063
        ],
        [
          116.6967724,
          23.4330764
        ],
        [
          116.6970862,
          23.4403398
        ],
        [
          116.693374,
          23.4383843
        ],
        [
          116.691967,
          23.4364682
        ],
        [
          116.6886941,
          23.4352008
        ],
        [
          116.6856726,
          23.4344093
        ],
        [
          116.6836288,
          23.4336128
        ],
        [
          116.6822043,
          23.4321518
        ],
        [
          116.6813904,
          23.4323509
        ],
        [
          116.6807212,
          23.4344585
        ],
        [
          116.6792729,
          23.4368705
        ],
        [
          116.6788838,
          23.4394929
        ],
        [
          116.6772497,
          23.4412738
        ],
        [
          116.6753243,
          23.4407779
        ],
        [
          116.6733025,
          23.4385741
        ],
        [
          116.6724406,
          23.4380428
        ],
        [
          116.6702711,
          23.4401983
        ],
        [
          116.6691067,
          23.4390659
        ],
        [
          116.6682703,
          23.4376377
        ],
        [
          116.6700318,
          23.4363521
        ],
        [
          116.6677074,
          23.4345704
        ],
        [
          116.6658958,
          23.4353566
        ],
        [
          116.6639405,
          23.4321332
        ],
        [
          116.6638409,
          23.4309795
        ],
        [
          116.660418,
          23.4303183
        ],
        [
          116.6581529,
          23.4306039
        ],
        [
          116.6501624,
          23.4338216
        ],
        [
          116.6489214,
          23.4328849
        ],
        [
          116.6471165,
          23.4309986
        ],
        [
          116.6458292,
          23.4288826
        ],
        [
          116.644368,
          23.4289193
        ],
        [
          116.6425222,
          23.4299143
        ],
        [
          116.6384587,
          23.4306306
        ],
        [
          116.636208,
          23.4314388
        ],
        [
          116.6337884,
          23.4275439
        ],
        [
          116.6312274,
          23.4293303
        ],
        [
          116.6300141,
          23.429227
        ],
        [
          116.6287763,
          23.429339
        ],
        [
          116.6272723,
          23.4302105
        ],
        [
          116.6257327,
          23.4321435
        ],
        [
          116.624601,
          23.4323714
        ],
        [
          116.6235639,
          23.432019
        ],
        [
          116.6223102,
          23.4313008
        ],
        [
          116.6199212,
          23.4315488
        ],
        [
          116.6176227,
          23.434369
        ],
        [
          116.6164583,
          23.4352252
        ],
        [
          116.6142623,
          23.4356538
        ],
        [
          116.6115204,
          23.4353133
        ],
        [
          116.6096624,
          23.4360354
        ],
        [
          116.6090966,
          23.4377507
        ],
        [
          116.60754,
          23.4390317
        ],
        [
          116.6048653,
          23.4401372
        ],
        [
          116.6027804,
          23.4422133
        ],
        [
          116.6020598,
          23.4448212
        ],
        [
          116.6011055,
          23.445776
        ],
        [
          116.5999147,
          23.4462904
        ],
        [
          116.5980199,
          23.4473561
        ],
        [
          116.595986,
          23.4489287
        ],
        [
          116.5933132,
          23.4498153
        ],
        [
          116.591925,
          23.4514247
        ],
        [
          116.59035,
          23.453971
        ],
        [
          116.5892661,
          23.4547159
        ],
        [
          116.5877558,
          23.4551468
        ],
        [
          116.5855752,
          23.4560184
        ],
        [
          116.5846203,
          23.4579534
        ],
        [
          116.5842836,
          23.4594959
        ],
        [
          116.5843329,
          23.4616056
        ],
        [
          116.5837283,
          23.4648154
        ],
        [
          116.5799662,
          23.4675117
        ],
        [
          116.5781214,
          23.4666465
        ],
        [
          116.5759045,
          23.4638842
        ],
        [
          116.57554,
          23.4604854
        ],
        [
          116.5751969,
          23.4599891
        ],
        [
          116.5746978,
          23.4582184
        ],
        [
          116.5755227,
          23.4507387
        ],
        [
          116.5785733,
          23.4479368
        ],
        [
          116.5799572,
          23.44838
        ],
        [
          116.5814095,
          23.4490946
        ],
        [
          116.5841849,
          23.4473814
        ],
        [
          116.5851748,
          23.4461829
        ],
        [
          116.5849817,
          23.4445076
        ],
        [
          116.5849478,
          23.4408159
        ],
        [
          116.5859021,
          23.4402804
        ],
        [
          116.5861189,
          23.4384906
        ],
        [
          116.5857343,
          23.4371683
        ],
        [
          116.585951,
          23.4360373
        ],
        [
          116.5868339,
          23.4338861
        ],
        [
          116.5868513,
          23.431784
        ],
        [
          116.5870708,
          23.4309569
        ],
        [
          116.5868127,
          23.4290604
        ],
        [
          116.5856995,
          23.4282095
        ],
        [
          116.5841538,
          23.4275819
        ],
        [
          116.5829868,
          23.4258867
        ],
        [
          116.5811241,
          23.4250627
        ],
        [
          116.5794764,
          23.4257134
        ],
        [
          116.5776328,
          23.4259665
        ],
        [
          116.575139,
          23.422024
        ],
        [
          116.5738555,
          23.4190826
        ],
        [
          116.5736729,
          23.4175763
        ],
        [
          116.5724675,
          23.4146092
        ],
        [
          116.5820481,
          23.4123527
        ],
        [
          116.5798294,
          23.4083289
        ],
        [
          116.5707312,
          23.4106692
        ],
        [
          116.5710307,
          23.4073958
        ],
        [
          116.5737749,
          23.4062659
        ],
        [
          116.5661677,
          23.3939898
        ],
        [
          116.5804463,
          23.3834243
        ]
      ]
    ]
  },
  "properties": {
    "adcode": 440511,
    "name": "金平",
    "parent": "汕头",
    "outer": false
  }
}
