{
  "type": "Feature",
  "geometry": {
    "type": "MultiPolygon",
    "coordinates": [
      [
        [
          [
            117.1875046,
            23.6219264
          ],
          [
            117.1863402,
            23.6255538
          ],
          [
            117.1866365,
            23.6307837
          ],
          [
            117.1862825,
            23.6318412
          ],
          [
            117.1828528,
            23.632248
          ],
          [
            117.182197,
            23.6348022
          ],
          [
            117.1824573,
            23.6355456
          ],
          [
            117.1817223,
            23.6358121
          ],
          [
            117.1788478,
            23.6349986
          ],
          [
            117.1763474,
            23.6385001
          ],
          [
            117.1753981,
            23.6387245
          ],
          [
            117.1735335,
            23.6375603
          ],
          [
            117.1708747,
            23.6397939
          ],
          [
            117.1694576,
            23.6421117
          ],
          [
            117.1695455,
            23.6429195
          ],
          [
            117.1648616,
            23.6412683
          ],
          [
            117.1642619,
            23.6414296
          ],
          [
            117.1629711,
            23.6408734
          ],
          [
            117.1621092,
            23.6418877
          ],
          [
            117.1594144,
            23.6411864
          ],
          [
            117.1587698,
            23.640396
          ],
          [
            117.1551791,
            23.6418046
          ],
          [
            117.1523058,
            23.6433504
          ],
          [
            117.149149,
            23.6471438
          ],
          [
            117.1471374,
            23.6501423
          ],
          [
            117.1451151,
            23.6523554
          ],
          [
            117.1425337,
            23.6561995
          ],
          [
            117.1415232,
            23.6564239
          ],
          [
            117.1392157,
            23.6545902
          ],
          [
            117.1376234,
            23.6541976
          ],
          [
            117.1369073,
            23.6530902
          ],
          [
            117.1361666,
            23.6531748
          ],
          [
            117.1356001,
            23.6551102
          ],
          [
            117.1351361,
            23.6556138
          ],
          [
            117.1339937,
            23.6556683
          ],
          [
            117.1327523,
            23.6554188
          ],
          [
            117.1318088,
            23.6540122
          ],
          [
            117.1309244,
            23.6538631
          ],
          [
            117.1254245,
            23.6538715
          ],
          [
            117.1238153,
            23.6507083
          ],
          [
            117.1219962,
            23.6488485
          ],
          [
            117.120644,
            23.6488792
          ],
          [
            117.1187263,
            23.6471972
          ],
          [
            117.1180222,
            23.6470232
          ],
          [
            117.1184692,
            23.6478362
          ],
          [
            117.1177965,
            23.6509802
          ],
          [
            117.1176882,
            23.652196
          ],
          [
            117.1156233,
            23.6562388
          ],
          [
            117.1131138,
            23.6573609
          ],
          [
            117.1116945,
            23.6574019
          ],
          [
            117.1091093,
            23.658721
          ],
          [
            117.1071527,
            23.6584294
          ],
          [
            117.102804,
            23.66345
          ],
          [
            117.1037321,
            23.6654534
          ],
          [
            117.1038998,
            23.6667943
          ],
          [
            117.101386,
            23.6681736
          ],
          [
            117.0961174,
            23.6665969
          ],
          [
            117.0957983,
            23.6677939
          ],
          [
            117.0921584,
            23.6676169
          ],
          [
            117.0907825,
            23.6698351
          ],
          [
            117.0902482,
            23.6714406
          ],
          [
            117.0879609,
            23.6720369
          ],
          [
            117.0881997,
            23.6696987
          ],
          [
            117.088051,
            23.6683407
          ],
          [
            117.0859159,
            23.6665079
          ],
          [
            117.0854013,
            23.668157
          ],
          [
            117.0846363,
            23.6686688
          ],
          [
            117.0836291,
            23.6714778
          ],
          [
            117.0825314,
            23.6723745
          ],
          [
            117.0806836,
            23.6763717
          ],
          [
            117.0748044,
            23.682884
          ],
          [
            117.0720743,
            23.6881552
          ],
          [
            117.0715197,
            23.690335
          ],
          [
            117.0691694,
            23.6933276
          ],
          [
            117.0675675,
            23.6937064
          ],
          [
            117.0660559,
            23.6937574
          ],
          [
            117.0646553,
            23.6929989
          ],
          [
            117.0635834,
            23.692019
          ],
          [
            117.0625218,
            23.6913882
          ],
          [
            117.0616678,
            23.6912159
          ],
          [
            117.0594306,
            23.6919233
          ],
          [
            117.058134,
            23.6929276
          ],
          [
            117.055516,
            23.6936058
          ],
          [
            117.0529681,
            23.6947696
          ],
          [
            117.0506532,
            23.6966431
          ],
          [
            117.0490132,
            23.699119
          ],
          [
            117.0483416,
            23.7007826
          ],
          [
            117.0483351,
            23.7027616
          ],
          [
            117.047904,
            23.7053749
          ],
          [
            117.048085,
            23.7080407
          ],
          [
            117.0490948,
            23.7109923
          ],
          [
            117.0467679,
            23.7136353
          ],
          [
            117.046168,
            23.7157336
          ],
          [
            117.0473853,
            23.7187811
          ],
          [
            117.0473574,
            23.7207013
          ],
          [
            117.0465302,
            23.721642
          ],
          [
            117.0450992,
            23.7240682
          ],
          [
            117.0444399,
            23.726567
          ],
          [
            117.0446352,
            23.7275503
          ],
          [
            117.0460692,
            23.7296586
          ],
          [
            117.0460586,
            23.7302379
          ],
          [
            117.0458421,
            23.731187
          ],
          [
            117.0452045,
            23.7321565
          ],
          [
            117.0450138,
            23.733277
          ],
          [
            117.0450072,
            23.7342068
          ],
          [
            117.0454003,
            23.7353989
          ],
          [
            117.045837,
            23.7359958
          ],
          [
            117.0472271,
            23.7368797
          ],
          [
            117.0483219,
            23.7380613
          ],
          [
            117.0483262,
            23.7397808
          ],
          [
            117.0479922,
            23.7401727
          ],
          [
            117.0483961,
            23.7409986
          ],
          [
            117.0481801,
            23.7416211
          ],
          [
            117.0464902,
            23.7425356
          ],
          [
            117.0443909,
            23.7464221
          ],
          [
            117.0445182,
            23.7480888
          ],
          [
            117.0425688,
            23.7523378
          ],
          [
            117.0399176,
            23.7548788
          ],
          [
            117.0405588,
            23.7582016
          ],
          [
            117.04091,
            23.7632245
          ],
          [
            117.0390075,
            23.7645325
          ],
          [
            117.0377037,
            23.7662907
          ],
          [
            117.0376766,
            23.767266
          ],
          [
            117.0329143,
            23.7669109
          ],
          [
            117.0372979,
            23.7693191
          ],
          [
            117.0370597,
            23.7714845
          ],
          [
            117.0353646,
            23.7760218
          ],
          [
            117.0344943,
            23.7809313
          ],
          [
            117.0316044,
            23.7852575
          ],
          [
            117.0308402,
            23.7868602
          ],
          [
            117.0300771,
            23.7900749
          ],
          [
            117.0292212,
            23.7916318
          ],
          [
            117.0269452,
            23.7938911
          ],
          [
            117.0244266,
            23.7955586
          ],
          [
            117.0237153,
            23.7977519
          ],
          [
            117.0238544,
            23.7991478
          ],
          [
            117.0221216,
            23.8030312
          ],
          [
            117.0211123,
            23.8037126
          ],
          [
            117.0189465,
            23.8075771
          ],
          [
            117.0192723,
            23.8091525
          ],
          [
            117.0179949,
            23.8107551
          ],
          [
            117.0163893,
            23.8119913
          ],
          [
            117.0169044,
            23.8127072
          ],
          [
            117.0197818,
            23.8134343
          ],
          [
            117.0200361,
            23.8146123
          ],
          [
            117.0220521,
            23.8163943
          ],
          [
            117.0271862,
            23.8185524
          ],
          [
            117.0265312,
            23.8190869
          ],
          [
            117.0245282,
            23.8186797
          ],
          [
            117.0235893,
            23.8200947
          ],
          [
            117.0246584,
            23.8202027
          ],
          [
            117.0278958,
            23.82344
          ],
          [
            117.0271804,
            23.8254668
          ],
          [
            117.0273399,
            23.8264756
          ],
          [
            117.0287113,
            23.8270234
          ],
          [
            117.0282658,
            23.8285642
          ],
          [
            117.0292991,
            23.8298293
          ],
          [
            117.0263461,
            23.8323116
          ],
          [
            117.0211797,
            23.8299122
          ],
          [
            117.0196588,
            23.8322805
          ],
          [
            117.019814,
            23.8343565
          ],
          [
            117.0185741,
            23.8352581
          ],
          [
            117.0187283,
            23.8402663
          ],
          [
            117.0176236,
            23.8424367
          ],
          [
            117.0163519,
            23.842902
          ],
          [
            117.0138949,
            23.8454999
          ],
          [
            117.0129729,
            23.8482042
          ],
          [
            117.0130154,
            23.8496866
          ],
          [
            117.0107572,
            23.8494539
          ],
          [
            117.0081501,
            23.8516203
          ],
          [
            117.0078811,
            23.856896
          ],
          [
            117.007436,
            23.8584225
          ],
          [
            117.0023115,
            23.8585783
          ],
          [
            116.9984628,
            23.859262
          ],
          [
            116.9963009,
            23.8601633
          ],
          [
            116.9942942,
            23.8621243
          ],
          [
            116.9889867,
            23.8642335
          ],
          [
            116.986316,
            23.8651348
          ],
          [
            116.9846348,
            23.8653036
          ],
          [
            116.9830773,
            23.865312
          ],
          [
            116.9802292,
            23.8658289
          ],
          [
            116.9781715,
            23.8625051
          ],
          [
            116.9765238,
            23.8588905
          ],
          [
            116.9753802,
            23.8587685
          ],
          [
            116.9742515,
            23.8590738
          ],
          [
            116.970033,
            23.8588122
          ],
          [
            116.9670557,
            23.8589083
          ],
          [
            116.9651939,
            23.8597384
          ],
          [
            116.9626394,
            23.8607568
          ],
          [
            116.9604736,
            23.8611373
          ],
          [
            116.9576115,
            23.864181
          ],
          [
            116.9597854,
            23.8666416
          ],
          [
            116.9541103,
            23.8708428
          ],
          [
            116.9572855,
            23.874437
          ],
          [
            116.960234,
            23.8735226
          ],
          [
            116.9723791,
            23.8726213
          ],
          [
            116.9708702,
            23.8750227
          ],
          [
            116.9710745,
            23.8779646
          ],
          [
            116.9728761,
            23.8834424
          ],
          [
            116.9753443,
            23.8845701
          ],
          [
            116.9758427,
            23.8855411
          ],
          [
            116.9746521,
            23.8871734
          ],
          [
            116.9700286,
            23.887769
          ],
          [
            116.9688945,
            23.8891741
          ],
          [
            116.9685271,
            23.8909339
          ],
          [
            116.9693841,
            23.8922564
          ],
          [
            116.9701572,
            23.8941031
          ],
          [
            116.9683973,
            23.8975893
          ],
          [
            116.9676347,
            23.8981524
          ],
          [
            116.9663441,
            23.8987692
          ],
          [
            116.9624931,
            23.8996974
          ],
          [
            116.9581956,
            23.9014791
          ],
          [
            116.9542604,
            23.9034224
          ],
          [
            116.9535187,
            23.9050078
          ],
          [
            116.9533926,
            23.9060823
          ],
          [
            116.9543873,
            23.9075459
          ],
          [
            116.9553693,
            23.9081762
          ],
          [
            116.956047,
            23.9106896
          ],
          [
            116.9556872,
            23.9143804
          ],
          [
            116.9547406,
            23.9172554
          ],
          [
            116.953048,
            23.9187815
          ],
          [
            116.9517161,
            23.9195792
          ],
          [
            116.9503894,
            23.9216212
          ],
          [
            116.9502156,
            23.923245
          ],
          [
            116.9509426,
            23.9250233
          ],
          [
            116.9534124,
            23.925419
          ],
          [
            116.9541694,
            23.926617
          ],
          [
            116.9552432,
            23.9260881
          ],
          [
            116.9557029,
            23.9262941
          ],
          [
            116.956273,
            23.9257175
          ],
          [
            116.9563519,
            23.9253226
          ],
          [
            116.9566713,
            23.9252307
          ],
          [
            116.9569445,
            23.9254085
          ],
          [
            116.9576667,
            23.9252016
          ],
          [
            116.9586686,
            23.9254181
          ],
          [
            116.9605326,
            23.9254549
          ],
          [
            116.9628076,
            23.9264163
          ],
          [
            116.9633289,
            23.9260998
          ],
          [
            116.9640045,
            23.9267702
          ],
          [
            116.9642689,
            23.9273394
          ],
          [
            116.9688143,
            23.9297325
          ],
          [
            116.9719131,
            23.9342854
          ],
          [
            116.9722407,
            23.9389863
          ],
          [
            116.9755536,
            23.9437966
          ],
          [
            116.975967,
            23.9508788
          ],
          [
            116.9748034,
            23.9554102
          ],
          [
            116.9780397,
            23.9620107
          ],
          [
            116.9714602,
            23.9717408
          ],
          [
            116.967472,
            23.9757011
          ],
          [
            116.9704259,
            23.9778724
          ],
          [
            116.9706441,
            23.981039
          ],
          [
            116.9689714,
            23.9869195
          ],
          [
            116.970841,
            23.993495
          ],
          [
            116.9742816,
            23.9969587
          ],
          [
            116.9769724,
            23.9979553
          ],
          [
            116.9771124,
            24.0020565
          ],
          [
            116.972226,
            24.0072807
          ],
          [
            116.9650906,
            24.0102641
          ],
          [
            116.9611634,
            24.0130874
          ],
          [
            116.9593482,
            24.0146163
          ],
          [
            116.9573037,
            24.0147663
          ],
          [
            116.9536267,
            24.0187816
          ],
          [
            116.9506491,
            24.0229825
          ],
          [
            116.9452065,
            24.0271577
          ],
          [
            116.9446082,
            24.0286579
          ],
          [
            116.940805,
            24.0320589
          ],
          [
            116.9385522,
            24.0317207
          ],
          [
            116.9371142,
            24.0324567
          ],
          [
            116.9352518,
            24.0358326
          ],
          [
            116.9353758,
            24.0371432
          ],
          [
            116.9359462,
            24.038031
          ],
          [
            116.9375819,
            24.0385947
          ],
          [
            116.9393606,
            24.0381806
          ],
          [
            116.9437583,
            24.0388712
          ],
          [
            116.9473384,
            24.0403742
          ],
          [
            116.9473638,
            24.0421945
          ],
          [
            116.9462342,
            24.0448313
          ],
          [
            116.9468612,
            24.0477976
          ],
          [
            116.9477729,
            24.0494617
          ],
          [
            116.9478725,
            24.0535763
          ],
          [
            116.947603,
            24.0547469
          ],
          [
            116.9479062,
            24.0575513
          ],
          [
            116.9471038,
            24.0581431
          ],
          [
            116.9441103,
            24.0585658
          ],
          [
            116.9404094,
            24.0576524
          ],
          [
            116.9374776,
            24.0560461
          ],
          [
            116.9362241,
            24.0558833
          ],
          [
            116.9338586,
            24.0566065
          ],
          [
            116.9320695,
            24.0578868
          ],
          [
            116.9308372,
            24.0581289
          ],
          [
            116.9306807,
            24.0588731
          ],
          [
            116.9314311,
            24.060875
          ],
          [
            116.931215,
            24.0623826
          ],
          [
            116.9308377,
            24.0637502
          ],
          [
            116.9267084,
            24.0667617
          ],
          [
            116.9252425,
            24.0683679
          ],
          [
            116.924812,
            24.0702571
          ],
          [
            116.9254313,
            24.0739057
          ],
          [
            116.9242762,
            24.0820084
          ],
          [
            116.9238644,
            24.0881513
          ],
          [
            116.9249713,
            24.0942245
          ],
          [
            116.9226658,
            24.0992249
          ],
          [
            116.9220945,
            24.1014879
          ],
          [
            116.9220496,
            24.1035737
          ],
          [
            116.9231921,
            24.1072669
          ],
          [
            116.926362,
            24.1123726
          ],
          [
            116.9278324,
            24.1174607
          ],
          [
            116.9290952,
            24.1230812
          ],
          [
            116.9285496,
            24.1241949
          ],
          [
            116.9303163,
            24.1276326
          ],
          [
            116.9320869,
            24.1282035
          ],
          [
            116.9312074,
            24.1311044
          ],
          [
            116.9343966,
            24.1325589
          ],
          [
            116.9358392,
            24.1337709
          ],
          [
            116.9359779,
            24.13574
          ],
          [
            116.9368796,
            24.1366933
          ],
          [
            116.9406405,
            24.1374223
          ],
          [
            116.9424879,
            24.1377867
          ],
          [
            116.9444279,
            24.1397625
          ],
          [
            116.9458492,
            24.1428959
          ],
          [
            116.9478073,
            24.1463399
          ],
          [
            116.9506819,
            24.1478951
          ],
          [
            116.9518556,
            24.148743
          ],
          [
            116.9570222,
            24.1545143
          ],
          [
            116.9601799,
            24.1561999
          ],
          [
            116.9682917,
            24.1563561
          ],
          [
            116.9701887,
            24.1576732
          ],
          [
            116.9718898,
            24.1615473
          ],
          [
            116.9742046,
            24.1648869
          ],
          [
            116.9765689,
            24.166634
          ],
          [
            116.9807319,
            24.1675453
          ],
          [
            116.9840759,
            24.1692597
          ],
          [
            116.9857469,
            24.1711924
          ],
          [
            116.9864456,
            24.172926
          ],
          [
            116.9870456,
            24.1746812
          ],
          [
            116.9880279,
            24.176246
          ],
          [
            116.9889976,
            24.1789757
          ],
          [
            116.9905367,
            24.1820515
          ],
          [
            116.9921599,
            24.1847334
          ],
          [
            116.9934134,
            24.1855691
          ],
          [
            116.9929724,
            24.1880943
          ],
          [
            116.9872836,
            24.1883625
          ],
          [
            116.9862007,
            24.1893243
          ],
          [
            116.986025,
            24.1932289
          ],
          [
            116.9864541,
            24.1939873
          ],
          [
            116.9844467,
            24.1947083
          ],
          [
            116.9838832,
            24.1956724
          ],
          [
            116.9831058,
            24.1959015
          ],
          [
            116.9823586,
            24.1957961
          ],
          [
            116.9811643,
            24.1973262
          ],
          [
            116.9776638,
            24.1992185
          ],
          [
            116.9766854,
            24.2003391
          ],
          [
            116.9755295,
            24.2005115
          ],
          [
            116.974435,
            24.2029968
          ],
          [
            116.9745343,
            24.2038629
          ],
          [
            116.9732608,
            24.2041094
          ],
          [
            116.9689316,
            24.2014961
          ],
          [
            116.9673464,
            24.2010363
          ],
          [
            116.9665283,
            24.2023142
          ],
          [
            116.9652262,
            24.2035351
          ],
          [
            116.9644283,
            24.2051176
          ],
          [
            116.9632719,
            24.2060223
          ],
          [
            116.9618721,
            24.2065307
          ],
          [
            116.9617455,
            24.2077717
          ],
          [
            116.9618851,
            24.209339
          ],
          [
            116.9616636,
            24.2106348
          ],
          [
            116.960672,
            24.2117496
          ],
          [
            116.9592489,
            24.2127777
          ],
          [
            116.9579955,
            24.2135203
          ],
          [
            116.954441,
            24.2145373
          ],
          [
            116.9531613,
            24.2151825
          ],
          [
            116.9526392,
            24.2160018
          ],
          [
            116.9521801,
            24.2170847
          ],
          [
            116.9515423,
            24.2198692
          ],
          [
            116.9497152,
            24.2202886
          ],
          [
            116.9486464,
            24.220078
          ],
          [
            116.9475947,
            24.2200962
          ],
          [
            116.9440433,
            24.2197204
          ],
          [
            116.9423699,
            24.2197275
          ],
          [
            116.9413544,
            24.2199628
          ],
          [
            116.9387877,
            24.218646
          ],
          [
            116.9364515,
            24.2201913
          ],
          [
            116.9329986,
            24.2208803
          ],
          [
            116.9294888,
            24.2220842
          ],
          [
            116.928607,
            24.2231527
          ],
          [
            116.928547,
            24.2261073
          ],
          [
            116.9282944,
            24.2262483
          ],
          [
            116.9281081,
            24.2261124
          ],
          [
            116.9273098,
            24.226438
          ],
          [
            116.9273992,
            24.2270034
          ],
          [
            116.9257218,
            24.2271142
          ],
          [
            116.9258253,
            24.228024
          ],
          [
            116.9254347,
            24.2282243
          ],
          [
            116.9245198,
            24.2280468
          ],
          [
            116.9241299,
            24.2280532
          ],
          [
            116.9233431,
            24.228587
          ],
          [
            116.9225153,
            24.228658
          ],
          [
            116.922285,
            24.2299514
          ],
          [
            116.9216812,
            24.2300194
          ],
          [
            116.9214501,
            24.23074
          ],
          [
            116.920607,
            24.2306882
          ],
          [
            116.917472,
            24.2342113
          ],
          [
            116.9126713,
            24.235748
          ],
          [
            116.9082364,
            24.2342258
          ],
          [
            116.9055557,
            24.2303023
          ],
          [
            116.9033553,
            24.2295193
          ],
          [
            116.9020176,
            24.2284453
          ],
          [
            116.9019131,
            24.2280121
          ],
          [
            116.8991093,
            24.2275689
          ],
          [
            116.8971195,
            24.2264733
          ],
          [
            116.8956928,
            24.2247636
          ],
          [
            116.893543,
            24.2232651
          ],
          [
            116.8920982,
            24.2217023
          ],
          [
            116.8918229,
            24.2194654
          ],
          [
            116.8927018,
            24.2173618
          ],
          [
            116.8950265,
            24.2136987
          ],
          [
            116.8976659,
            24.2103473
          ],
          [
            116.8988702,
            24.2083004
          ],
          [
            116.9000716,
            24.2057551
          ],
          [
            116.9001091,
            24.2051387
          ],
          [
            116.8996586,
            24.2037918
          ],
          [
            116.8991568,
            24.2031295
          ],
          [
            116.8971547,
            24.2015477
          ],
          [
            116.8962786,
            24.1999268
          ],
          [
            116.8957906,
            24.1997099
          ],
          [
            116.8941238,
            24.1995818
          ],
          [
            116.8922293,
            24.200681
          ],
          [
            116.8909629,
            24.2007544
          ],
          [
            116.8847442,
            24.1988725
          ],
          [
            116.8797709,
            24.1965235
          ],
          [
            116.8798132,
            24.1908748
          ],
          [
            116.8794216,
            24.1845697
          ],
          [
            116.8782962,
            24.1834679
          ],
          [
            116.8774766,
            24.1794252
          ],
          [
            116.8769825,
            24.1757808
          ],
          [
            116.8758879,
            24.1729482
          ],
          [
            116.8739918,
            24.170724
          ],
          [
            116.8727553,
            24.1701676
          ],
          [
            116.8716061,
            24.1700213
          ],
          [
            116.8692923,
            24.1682484
          ],
          [
            116.8667253,
            24.1667789
          ],
          [
            116.8625715,
            24.1665945
          ],
          [
            116.8592595,
            24.1681336
          ],
          [
            116.8569192,
            24.1710545
          ],
          [
            116.8559711,
            24.1750689
          ],
          [
            116.8549875,
            24.1801747
          ],
          [
            116.8522576,
            24.1830119
          ],
          [
            116.8490958,
            24.1851628
          ],
          [
            116.8462348,
            24.1857351
          ],
          [
            116.8422991,
            24.1844405
          ],
          [
            116.8381992,
            24.1838154
          ],
          [
            116.8372479,
            24.1810375
          ],
          [
            116.8354312,
            24.1800662
          ],
          [
            116.8345783,
            24.177707
          ],
          [
            116.8314668,
            24.1762311
          ],
          [
            116.8256423,
            24.168494
          ],
          [
            116.8270048,
            24.1654399
          ],
          [
            116.827985,
            24.1645906
          ],
          [
            116.8275581,
            24.1638833
          ],
          [
            116.8214565,
            24.1656335
          ],
          [
            116.817521,
            24.167118
          ],
          [
            116.8165562,
            24.1686278
          ],
          [
            116.8150808,
            24.1683025
          ],
          [
            116.8121563,
            24.1685097
          ],
          [
            116.8089316,
            24.1719596
          ],
          [
            116.8061364,
            24.1716929
          ],
          [
            116.805031,
            24.1719708
          ],
          [
            116.802117,
            24.1697882
          ],
          [
            116.8009291,
            24.1700654
          ],
          [
            116.8010332,
            24.1666232
          ],
          [
            116.7995965,
            24.1660468
          ],
          [
            116.7982535,
            24.1665842
          ],
          [
            116.7971516,
            24.1647846
          ],
          [
            116.7973248,
            24.1637805
          ],
          [
            116.7968903,
            24.163139
          ],
          [
            116.7964355,
            24.1631859
          ],
          [
            116.7944798,
            24.1625095
          ],
          [
            116.7942844,
            24.1621331
          ],
          [
            116.7938179,
            24.161902
          ],
          [
            116.792956,
            24.1622186
          ],
          [
            116.7915585,
            24.1614944
          ],
          [
            116.7915778,
            24.1605846
          ],
          [
            116.7911977,
            24.1603908
          ],
          [
            116.7914406,
            24.159355
          ],
          [
            116.7900214,
            24.1580954
          ],
          [
            116.7863598,
            24.1585207
          ],
          [
            116.7859712,
            24.1594684
          ],
          [
            116.7848477,
            24.1597911
          ],
          [
            116.7845442,
            24.1592487
          ],
          [
            116.783733,
            24.1589105
          ],
          [
            116.7832695,
            24.1590424
          ],
          [
            116.7829317,
            24.1586312
          ],
          [
            116.7824671,
            24.1585869
          ],
          [
            116.7823327,
            24.1581604
          ],
          [
            116.7820915,
            24.1575792
          ],
          [
            116.7815313,
            24.1575485
          ],
          [
            116.7810261,
            24.1569767
          ],
          [
            116.7796699,
            24.1560398
          ],
          [
            116.7798915,
            24.1553912
          ],
          [
            116.7813308,
            24.1553841
          ],
          [
            116.7814555,
            24.1547523
          ],
          [
            116.7808768,
            24.1539965
          ],
          [
            116.7809889,
            24.1531591
          ],
          [
            116.7804063,
            24.1526858
          ],
          [
            116.7799424,
            24.1515607
          ],
          [
            116.7785937,
            24.1513373
          ],
          [
            116.7774707,
            24.15212
          ],
          [
            116.7770892,
            24.151761
          ],
          [
            116.77612,
            24.151903
          ],
          [
            116.7756756,
            24.1527756
          ],
          [
            116.7753043,
            24.1527551
          ],
          [
            116.7740509,
            24.1520005
          ],
          [
            116.7742618,
            24.1513074
          ],
          [
            116.7737615,
            24.151009
          ],
          [
            116.7734423,
            24.1497885
          ],
          [
            116.7738644,
            24.1475032
          ],
          [
            116.7687011,
            24.139014
          ],
          [
            116.7657676,
            24.1354598
          ],
          [
            116.7635282,
            24.1318286
          ],
          [
            116.763717,
            24.1306847
          ],
          [
            116.7618716,
            24.130831
          ],
          [
            116.7611839,
            24.1292118
          ],
          [
            116.7603807,
            24.129069
          ],
          [
            116.7602242,
            24.1284977
          ],
          [
            116.7596124,
            24.1282429
          ],
          [
            116.7601077,
            24.1247337
          ],
          [
            116.7596206,
            24.122345
          ],
          [
            116.7597501,
            24.1189879
          ],
          [
            116.7618581,
            24.1177133
          ],
          [
            116.7625043,
            24.110108
          ],
          [
            116.7674548,
            24.1051466
          ],
          [
            116.7647956,
            24.1012007
          ],
          [
            116.7675201,
            24.0967415
          ],
          [
            116.7675481,
            24.0951287
          ],
          [
            116.7695089,
            24.0937591
          ],
          [
            116.7695128,
            24.0932113
          ],
          [
            116.7688422,
            24.0926353
          ],
          [
            116.7690977,
            24.0915939
          ],
          [
            116.768901,
            24.0903147
          ],
          [
            116.7676171,
            24.0910791
          ],
          [
            116.7671269,
            24.0906474
          ],
          [
            116.7659441,
            24.0902505
          ],
          [
            116.7650029,
            24.0901147
          ],
          [
            116.7658668,
            24.0864451
          ],
          [
            116.763591,
            24.085319
          ],
          [
            116.7635546,
            24.0843115
          ],
          [
            116.762886,
            24.0837333
          ],
          [
            116.7622757,
            24.0839366
          ],
          [
            116.7621107,
            24.0834246
          ],
          [
            116.7611893,
            24.0829927
          ],
          [
            116.7619844,
            24.0793901
          ],
          [
            116.7631842,
            24.0777449
          ],
          [
            116.7627401,
            24.0770847
          ],
          [
            116.7613982,
            24.0777898
          ],
          [
            116.7528761,
            24.0848641
          ],
          [
            116.7518253,
            24.084483
          ],
          [
            116.7514246,
            24.083899
          ],
          [
            116.7501213,
            24.0813616
          ],
          [
            116.7493325,
            24.0791597
          ],
          [
            116.7457349,
            24.0738283
          ],
          [
            116.7438663,
            24.0696515
          ],
          [
            116.7417484,
            24.0669847
          ],
          [
            116.7394788,
            24.0647208
          ],
          [
            116.7373584,
            24.0635714
          ],
          [
            116.7355443,
            24.0630195
          ],
          [
            116.7340229,
            24.0624284
          ],
          [
            116.7329829,
            24.0616503
          ],
          [
            116.7314928,
            24.0571018
          ],
          [
            116.730039,
            24.0563444
          ],
          [
            116.7283586,
            24.0563618
          ],
          [
            116.7237548,
            24.0569322
          ],
          [
            116.719827,
            24.0586579
          ],
          [
            116.7169501,
            24.060718
          ],
          [
            116.7142004,
            24.0630566
          ],
          [
            116.7110858,
            24.0644062
          ],
          [
            116.7079815,
            24.0651864
          ],
          [
            116.7067189,
            24.0644009
          ],
          [
            116.7056845,
            24.063273
          ],
          [
            116.7031634,
            24.0614186
          ],
          [
            116.7012874,
            24.0596374
          ],
          [
            116.7004357,
            24.0570083
          ],
          [
            116.6972019,
            24.0548407
          ],
          [
            116.6960403,
            24.0537827
          ],
          [
            116.6956173,
            24.0528049
          ],
          [
            116.6962443,
            24.0511062
          ],
          [
            116.6972771,
            24.049383
          ],
          [
            116.6974554,
            24.0463384
          ],
          [
            116.6980849,
            24.0436616
          ],
          [
            116.699743,
            24.0413733
          ],
          [
            116.7020385,
            24.0394686
          ],
          [
            116.704345,
            24.0363665
          ],
          [
            116.7053071,
            24.0345482
          ],
          [
            116.7055934,
            24.0326138
          ],
          [
            116.7063058,
            24.0304926
          ],
          [
            116.7063125,
            24.0284854
          ],
          [
            116.7053805,
            24.0274201
          ],
          [
            116.7049129,
            24.0272994
          ],
          [
            116.7045733,
            24.0270547
          ],
          [
            116.7049605,
            24.0266064
          ],
          [
            116.7046359,
            24.0254785
          ],
          [
            116.7042952,
            24.0249585
          ],
          [
            116.7044559,
            24.0242814
          ],
          [
            116.7049501,
            24.0238699
          ],
          [
            116.7050243,
            24.0234586
          ],
          [
            116.7044719,
            24.0231017
          ],
          [
            116.7025832,
            24.0219533
          ],
          [
            116.7045543,
            24.0188806
          ],
          [
            116.7045208,
            24.0186057
          ],
          [
            116.7037448,
            24.0184937
          ],
          [
            116.7031344,
            24.0176154
          ],
          [
            116.7019973,
            24.0181042
          ],
          [
            116.7014705,
            24.0184326
          ],
          [
            116.7009653,
            24.0182633
          ],
          [
            116.7010991,
            24.0169325
          ],
          [
            116.7003131,
            24.0169707
          ],
          [
            116.6999201,
            24.0163137
          ],
          [
            116.6994937,
            24.0160769
          ],
          [
            116.6989099,
            24.0159272
          ],
          [
            116.6987874,
            24.0152937
          ],
          [
            116.6979835,
            24.015051
          ],
          [
            116.696753,
            24.012778
          ],
          [
            116.6947507,
            24.0082396
          ],
          [
            116.6931523,
            24.0057198
          ],
          [
            116.6935964,
            24.0047832
          ],
          [
            116.6967177,
            24.0011621
          ],
          [
            116.6966443,
            24.0020433
          ],
          [
            116.6968604,
            24.0033908
          ],
          [
            116.6977894,
            24.0045156
          ],
          [
            116.6980836,
            24.0053777
          ],
          [
            116.6994472,
            24.0042944
          ],
          [
            116.7013161,
            24.0031964
          ],
          [
            116.7055845,
            24.0023234
          ],
          [
            116.7071202,
            24.0016708
          ],
          [
            116.7078195,
            24.000547
          ],
          [
            116.7080652,
            23.9998709
          ],
          [
            116.7081929,
            23.9977807
          ],
          [
            116.708704,
            23.9970811
          ],
          [
            116.7091283,
            23.9970882
          ],
          [
            116.71018,
            23.9967006
          ],
          [
            116.7111847,
            23.9961238
          ],
          [
            116.7119753,
            23.9950531
          ],
          [
            116.712849,
            23.993639
          ],
          [
            116.7134524,
            23.9909672
          ],
          [
            116.7146176,
            23.9894729
          ],
          [
            116.7148141,
            23.9889838
          ],
          [
            116.7146434,
            23.9872045
          ],
          [
            116.7171473,
            23.9833317
          ],
          [
            116.7173354,
            23.9810288
          ],
          [
            116.7166898,
            23.9791014
          ],
          [
            116.7164781,
            23.976424
          ],
          [
            116.7183425,
            23.9715997
          ],
          [
            116.7207837,
            23.967128
          ],
          [
            116.7220131,
            23.9637721
          ],
          [
            116.7240891,
            23.9613094
          ],
          [
            116.7274463,
            23.9601422
          ],
          [
            116.7316059,
            23.9595561
          ],
          [
            116.7344732,
            23.9587918
          ],
          [
            116.7371673,
            23.9578228
          ],
          [
            116.7392448,
            23.9532173
          ],
          [
            116.741115,
            23.9501274
          ],
          [
            116.7439157,
            23.9461884
          ],
          [
            116.744806,
            23.9451646
          ],
          [
            116.7447771,
            23.9428508
          ],
          [
            116.7441216,
            23.940317
          ],
          [
            116.7438859,
            23.9379052
          ],
          [
            116.7443173,
            23.9357962
          ],
          [
            116.7450732,
            23.9339947
          ],
          [
            116.7461704,
            23.930737
          ],
          [
            116.7474025,
            23.9277752
          ],
          [
            116.7481793,
            23.9223926
          ],
          [
            116.7484606,
            23.9209561
          ],
          [
            116.7504669,
            23.9211836
          ],
          [
            116.7538845,
            23.9187085
          ],
          [
            116.7530587,
            23.9144989
          ],
          [
            116.7516264,
            23.9129138
          ],
          [
            116.7524155,
            23.9114088
          ],
          [
            116.7534339,
            23.9125245
          ],
          [
            116.7544911,
            23.9106659
          ],
          [
            116.7536569,
            23.9089092
          ],
          [
            116.7527461,
            23.9091025
          ],
          [
            116.7522744,
            23.9085077
          ],
          [
            116.7512912,
            23.9083006
          ],
          [
            116.7508489,
            23.9086254
          ],
          [
            116.749706,
            23.9090625
          ],
          [
            116.7483911,
            23.9071433
          ],
          [
            116.7479324,
            23.9074534
          ],
          [
            116.7471161,
            23.9060779
          ],
          [
            116.7479416,
            23.9054845
          ],
          [
            116.7478563,
            23.9045094
          ],
          [
            116.747231,
            23.9039465
          ],
          [
            116.7459394,
            23.9037166
          ],
          [
            116.7450011,
            23.9013516
          ],
          [
            116.7481016,
            23.8978604
          ],
          [
            116.7500985,
            23.8978295
          ],
          [
            116.7519985,
            23.8967182
          ],
          [
            116.7535946,
            23.8978119
          ],
          [
            116.7563233,
            23.8982408
          ],
          [
            116.7578304,
            23.8977424
          ],
          [
            116.7584221,
            23.8982476
          ],
          [
            116.7576739,
            23.899936
          ],
          [
            116.7579383,
            23.9020845
          ],
          [
            116.758334,
            23.9028663
          ],
          [
            116.7617692,
            23.900503
          ],
          [
            116.7643548,
            23.8977362
          ],
          [
            116.7654051,
            23.897664
          ],
          [
            116.7664242,
            23.8981649
          ],
          [
            116.7673513,
            23.8990598
          ],
          [
            116.7685996,
            23.8981334
          ],
          [
            116.769448,
            23.8961706
          ],
          [
            116.7706629,
            23.8944554
          ],
          [
            116.7717425,
            23.8936833
          ],
          [
            116.7733661,
            23.8935192
          ],
          [
            116.7740395,
            23.8930794
          ],
          [
            116.7745381,
            23.8929943
          ],
          [
            116.7768484,
            23.8912063
          ],
          [
            116.7794378,
            23.8896256
          ],
          [
            116.7855827,
            23.8873322
          ],
          [
            116.7877396,
            23.8852242
          ],
          [
            116.7870654,
            23.8844399
          ],
          [
            116.7872777,
            23.8835417
          ],
          [
            116.784701,
            23.8829618
          ],
          [
            116.7824612,
            23.8818664
          ],
          [
            116.7815005,
            23.8810188
          ],
          [
            116.7819129,
            23.8796921
          ],
          [
            116.7836765,
            23.8771464
          ],
          [
            116.7850639,
            23.8758595
          ],
          [
            116.7855048,
            23.8747848
          ],
          [
            116.7857322,
            23.872682
          ],
          [
            116.7854737,
            23.871191
          ],
          [
            116.7818662,
            23.8704116
          ],
          [
            116.7748809,
            23.8708065
          ],
          [
            116.7681596,
            23.8725604
          ],
          [
            116.7642242,
            23.8743213
          ],
          [
            116.7606501,
            23.8763936
          ],
          [
            116.7570782,
            23.8771303
          ],
          [
            116.753094,
            23.8777959
          ],
          [
            116.7502904,
            23.8776405
          ],
          [
            116.747591,
            23.8772631
          ],
          [
            116.7455321,
            23.8763026
          ],
          [
            116.74427,
            23.8749884
          ],
          [
            116.7436445,
            23.8725031
          ],
          [
            116.7440457,
            23.8698606
          ],
          [
            116.7448528,
            23.8675407
          ],
          [
            116.7460898,
            23.8656503
          ],
          [
            116.7465012,
            23.863703
          ],
          [
            116.747341,
            23.8621857
          ],
          [
            116.7520948,
            23.8594867
          ],
          [
            116.7520797,
            23.8577837
          ],
          [
            116.7512041,
            23.8562307
          ],
          [
            116.7464502,
            23.8530565
          ],
          [
            116.7447471,
            23.8513667
          ],
          [
            116.7439201,
            23.8489678
          ],
          [
            116.7427142,
            23.8484274
          ],
          [
            116.7424931,
            23.8475563
          ],
          [
            116.743331,
            23.8467998
          ],
          [
            116.7431163,
            23.8458695
          ],
          [
            116.7429808,
            23.8442241
          ],
          [
            116.743332,
            23.8432462
          ],
          [
            116.7431472,
            23.8425373
          ],
          [
            116.7415438,
            23.8434123
          ],
          [
            116.740942,
            23.8447501
          ],
          [
            116.7400995,
            23.8457077
          ],
          [
            116.7384693,
            23.8453106
          ],
          [
            116.7366312,
            23.8443274
          ],
          [
            116.7371971,
            23.8428483
          ],
          [
            116.7367249,
            23.8392754
          ],
          [
            116.7367189,
            23.838011
          ],
          [
            116.7357413,
            23.8365535
          ],
          [
            116.7346117,
            23.8353916
          ],
          [
            116.7338034,
            23.8334405
          ],
          [
            116.7339646,
            23.8317646
          ],
          [
            116.7345988,
            23.8301055
          ],
          [
            116.7337769,
            23.8294542
          ],
          [
            116.7342569,
            23.8283411
          ],
          [
            116.7355047,
            23.8280204
          ],
          [
            116.7361208,
            23.8265897
          ],
          [
            116.7381153,
            23.8243216
          ],
          [
            116.7384736,
            23.8213262
          ],
          [
            116.7336527,
            23.8195331
          ],
          [
            116.7163807,
            23.8047188
          ],
          [
            116.7148331,
            23.8047188
          ],
          [
            116.7129987,
            23.8032425
          ],
          [
            116.7113727,
            23.8011275
          ],
          [
            116.7110741,
            23.7995925
          ],
          [
            116.7115747,
            23.7970815
          ],
          [
            116.7147521,
            23.793504
          ],
          [
            116.7160139,
            23.7925347
          ],
          [
            116.7177612,
            23.7899537
          ],
          [
            116.7190804,
            23.7864742
          ],
          [
            116.7185505,
            23.784967
          ],
          [
            116.7211192,
            23.7818059
          ],
          [
            116.7250942,
            23.777437
          ],
          [
            116.7273906,
            23.7736694
          ],
          [
            116.7274457,
            23.7716264
          ],
          [
            116.7246248,
            23.7673774
          ],
          [
            116.7274061,
            23.756818
          ],
          [
            116.7305127,
            23.756771
          ],
          [
            116.7355671,
            23.7588932
          ],
          [
            116.7457121,
            23.7676941
          ],
          [
            116.7551556,
            23.769026
          ],
          [
            116.761783,
            23.7686888
          ],
          [
            116.7670974,
            23.7670876
          ],
          [
            116.7657781,
            23.7656869
          ],
          [
            116.764683,
            23.7618675
          ],
          [
            116.7689845,
            23.7565635
          ],
          [
            116.7621234,
            23.7457168
          ],
          [
            116.7596898,
            23.7363048
          ],
          [
            116.7650378,
            23.7263688
          ],
          [
            116.767942,
            23.7221475
          ],
          [
            116.7732879,
            23.7162703
          ],
          [
            116.7763854,
            23.7144801
          ],
          [
            116.7795748,
            23.7095855
          ],
          [
            116.7840146,
            23.7082789
          ],
          [
            116.7909351,
            23.7078775
          ],
          [
            116.7932524,
            23.7087451
          ],
          [
            116.7970782,
            23.7074405
          ],
          [
            116.799752,
            23.7049067
          ],
          [
            116.8016369,
            23.7057624
          ],
          [
            116.8052368,
            23.6995688
          ],
          [
            116.806709,
            23.6991567
          ],
          [
            116.8069895,
            23.6982576
          ],
          [
            116.8077736,
            23.6971683
          ],
          [
            116.8070176,
            23.6962406
          ],
          [
            116.8081343,
            23.6941643
          ],
          [
            116.8081402,
            23.6929835
          ],
          [
            116.8091448,
            23.6912036
          ],
          [
            116.8104692,
            23.6915401
          ],
          [
            116.809989,
            23.6899066
          ],
          [
            116.8106262,
            23.6897111
          ],
          [
            116.8113511,
            23.6879374
          ],
          [
            116.8125752,
            23.6862691
          ],
          [
            116.8126144,
            23.6854741
          ],
          [
            116.8132791,
            23.6850168
          ],
          [
            116.8135495,
            23.6832171
          ],
          [
            116.8168107,
            23.6828917
          ],
          [
            116.8186954,
            23.6810747
          ],
          [
            116.817944,
            23.6800114
          ],
          [
            116.8183511,
            23.6788026
          ],
          [
            116.8193566,
            23.6787951
          ],
          [
            116.8208155,
            23.6796447
          ],
          [
            116.8238629,
            23.6795199
          ],
          [
            116.8249569,
            23.6807664
          ],
          [
            116.8254497,
            23.6805026
          ],
          [
            116.8259223,
            23.6794883
          ],
          [
            116.827561,
            23.6794877
          ],
          [
            116.8277537,
            23.678967
          ],
          [
            116.8305277,
            23.6791982
          ],
          [
            116.8307226,
            23.6784552
          ],
          [
            116.8340671,
            23.6789662
          ],
          [
            116.8346846,
            23.6781965
          ],
          [
            116.8364282,
            23.6782173
          ],
          [
            116.8370892,
            23.6776329
          ],
          [
            116.8380722,
            23.677446
          ],
          [
            116.8379828,
            23.6748666
          ],
          [
            116.8346318,
            23.6737806
          ],
          [
            116.8334959,
            23.6738642
          ],
          [
            116.8328236,
            23.6731232
          ],
          [
            116.8320109,
            23.6730701
          ],
          [
            116.8311991,
            23.6722268
          ],
          [
            116.8302533,
            23.6721642
          ],
          [
            116.828286,
            23.6702275
          ],
          [
            116.8288989,
            23.669763
          ],
          [
            116.8294272,
            23.6702082
          ],
          [
            116.831477,
            23.6707307
          ],
          [
            116.8323223,
            23.6713888
          ],
          [
            116.8333789,
            23.6719114
          ],
          [
            116.8335057,
            23.6711565
          ],
          [
            116.8300823,
            23.6690856
          ],
          [
            116.8283196,
            23.6685288
          ],
          [
            116.8285267,
            23.6675818
          ],
          [
            116.8299426,
            23.667098
          ],
          [
            116.8284633,
            23.6658593
          ],
          [
            116.8238276,
            23.6646495
          ],
          [
            116.8164836,
            23.6616236
          ],
          [
            116.8090474,
            23.6566862
          ],
          [
            116.8043169,
            23.65455
          ],
          [
            116.8046501,
            23.6507357
          ],
          [
            116.8065239,
            23.6483327
          ],
          [
            116.8050833,
            23.6456517
          ],
          [
            116.8122352,
            23.641228
          ],
          [
            116.8153999,
            23.640694
          ],
          [
            116.8168285,
            23.6382168
          ],
          [
            116.8177671,
            23.6382507
          ],
          [
            116.8188718,
            23.6389794
          ],
          [
            116.8186903,
            23.641281
          ],
          [
            116.8183134,
            23.6421761
          ],
          [
            116.8200076,
            23.6446688
          ],
          [
            116.8235519,
            23.6461581
          ],
          [
            116.8264509,
            23.6484906
          ],
          [
            116.8308369,
            23.6483168
          ],
          [
            116.8336421,
            23.647325
          ],
          [
            116.8358438,
            23.6442065
          ],
          [
            116.8371581,
            23.6430751
          ],
          [
            116.8395167,
            23.6425892
          ],
          [
            116.8408221,
            23.6426626
          ],
          [
            116.842561,
            23.6416674
          ],
          [
            116.8460038,
            23.6402581
          ],
          [
            116.8477142,
            23.6402945
          ],
          [
            116.8497382,
            23.6410106
          ],
          [
            116.8517622,
            23.6407676
          ],
          [
            116.8542257,
            23.6388482
          ],
          [
            116.8555009,
            23.6375101
          ],
          [
            116.8578437,
            23.6367478
          ],
          [
            116.8585805,
            23.6353415
          ],
          [
            116.857805,
            23.633052
          ],
          [
            116.8585338,
            23.630476
          ],
          [
            116.8583064,
            23.6296272
          ],
          [
            116.8582894,
            23.626188
          ],
          [
            116.8587221,
            23.6251215
          ],
          [
            116.8631161,
            23.6209899
          ],
          [
            116.8656199,
            23.6212153
          ],
          [
            116.8668537,
            23.6210672
          ],
          [
            116.8672864,
            23.6205429
          ],
          [
            116.8681177,
            23.6201607
          ],
          [
            116.867799,
            23.6187043
          ],
          [
            116.8699728,
            23.6173241
          ],
          [
            116.8712151,
            23.6182193
          ],
          [
            116.870976,
            23.6183378
          ],
          [
            116.8717735,
            23.6197605
          ],
          [
            116.8724975,
            23.6203329
          ],
          [
            116.8743818,
            23.6193098
          ],
          [
            116.8751292,
            23.620495
          ],
          [
            116.8755236,
            23.6214041
          ],
          [
            116.8762999,
            23.6224574
          ],
          [
            116.8779029,
            23.6212802
          ],
          [
            116.8785331,
            23.6220096
          ],
          [
            116.8792388,
            23.6214566
          ],
          [
            116.8802695,
            23.6225796
          ],
          [
            116.8811528,
            23.6232906
          ],
          [
            116.8823851,
            23.6219467
          ],
          [
            116.8830544,
            23.6216621
          ],
          [
            116.8869617,
            23.6253239
          ],
          [
            116.8908409,
            23.6229531
          ],
          [
            116.8916166,
            23.6234922
          ],
          [
            116.8946373,
            23.6215442
          ],
          [
            116.8960586,
            23.6226242
          ],
          [
            116.896472,
            23.621107
          ],
          [
            116.8959924,
            23.6203829
          ],
          [
            116.8946824,
            23.6198775
          ],
          [
            116.8953387,
            23.6186921
          ],
          [
            116.8967725,
            23.6133963
          ],
          [
            116.896531,
            23.6132234
          ],
          [
            116.898471,
            23.6109403
          ],
          [
            116.901325,
            23.6081586
          ],
          [
            116.9048933,
            23.6063026
          ],
          [
            116.9048933,
            23.6063026
          ],
          [
            116.9075103,
            23.6133264
          ],
          [
            116.9100117,
            23.6163448
          ],
          [
            116.913402,
            23.6184839
          ],
          [
            116.9180559,
            23.6162599
          ],
          [
            116.9282488,
            23.6158647
          ],
          [
            116.9376641,
            23.6152436
          ],
          [
            116.9408415,
            23.6135455
          ],
          [
            116.9445019,
            23.6064466
          ],
          [
            116.9492472,
            23.6038928
          ],
          [
            116.9521848,
            23.6018912
          ],
          [
            116.95671,
            23.602961
          ],
          [
            116.966466,
            23.613152
          ],
          [
            116.969978,
            23.614404
          ],
          [
            116.970563,
            23.610471
          ],
          [
            116.974661,
            23.610471
          ],
          [
            116.974661,
            23.616013
          ],
          [
            116.987734,
            23.629779
          ],
          [
            117.007442,
            23.622449
          ],
          [
            117.020515,
            23.612795
          ],
          [
            117.034437,
            23.62236
          ],
          [
            117.045504,
            23.621853
          ],
          [
            117.046611,
            23.626922
          ],
          [
            117.052513,
            23.626753
          ],
          [
            117.054542,
            23.631823
          ],
          [
            117.05196,
            23.635202
          ],
          [
            117.053989,
            23.644496
          ],
          [
            117.065794,
            23.647537
          ],
          [
            117.064503,
            23.643989
          ],
          [
            117.067638,
            23.64061
          ],
          [
            117.065056,
            23.631992
          ],
          [
            117.074647,
            23.629795
          ],
          [
            117.072471,
            23.606573
          ],
          [
            117.085198,
            23.588825
          ],
          [
            117.085198,
            23.582064
          ],
          [
            117.078742,
            23.577161
          ],
          [
            117.083722,
            23.563298
          ],
          [
            117.075053,
            23.552308
          ],
          [
            117.083722,
            23.548419
          ],
          [
            117.082246,
            23.545714
          ],
          [
            117.088887,
            23.546898
          ],
          [
            117.089809,
            23.55197
          ],
          [
            117.105302,
            23.567694
          ],
          [
            117.117845,
            23.562791
          ],
          [
            117.124854,
            23.563975
          ],
          [
            117.129465,
            23.57919
          ],
          [
            117.136843,
            23.587811
          ],
          [
            117.169959,
            23.6126
          ],
          [
            117.1895918,
            23.6195029
          ],
          [
            117.1875046,
            23.6219264
          ]
        ]
      ],
      [
        [
          [
            116.9726289,
            23.601954
          ],
          [
            116.9578144,
            23.5974288
          ],
          [
            116.9465116,
            23.5917973
          ],
          [
            116.945085,
            23.5810364
          ],
          [
            116.9394884,
            23.5758065
          ],
          [
            116.9338919,
            23.5735938
          ],
          [
            116.9287342,
            23.5712805
          ],
          [
            116.9222598,
            23.5668549
          ],
          [
            116.9200651,
            23.5632338
          ],
          [
            116.9179801,
            23.5577014
          ],
          [
            116.918858,
            23.5517664
          ],
          [
            116.9205986,
            23.5437229
          ],
          [
            116.9241125,
            23.5391592
          ],
          [
            116.9320188,
            23.5379064
          ],
          [
            116.936704,
            23.5384433
          ],
          [
            116.939437,
            23.5447072
          ],
          [
            116.9465624,
            23.5434545
          ],
          [
            116.9515404,
            23.5441703
          ],
          [
            116.9597395,
            23.5430966
          ],
          [
            116.9634486,
            23.5471232
          ],
          [
            116.9647175,
            23.5535657
          ],
          [
            116.9652056,
            23.5582184
          ],
          [
            116.9638391,
            23.5589341
          ],
          [
            116.9601299,
            23.5651076
          ],
          [
            116.9609466,
            23.567813
          ],
          [
            116.9603136,
            23.5711492
          ],
          [
            116.9609466,
            23.573615
          ],
          [
            116.9609466,
            23.5762259
          ],
          [
            116.96245,
            23.5789092
          ],
          [
            116.9641117,
            23.5799245
          ],
          [
            116.9681472,
            23.5795619
          ],
          [
            116.9683056,
            23.5805395
          ],
          [
            116.9680487,
            23.5811516
          ],
          [
            116.9693844,
            23.583741
          ],
          [
            116.9709256,
            23.583741
          ],
          [
            116.971281,
            23.5850454
          ],
          [
            116.9711287,
            23.5883476
          ],
          [
            116.9727527,
            23.5888127
          ],
          [
            116.9755948,
            23.5949054
          ],
          [
            116.9766605,
            23.5963471
          ],
          [
            116.9750365,
            23.5967191
          ],
          [
            116.9747416,
            23.5975355
          ],
          [
            116.9746101,
            23.5985397
          ],
          [
            116.9742594,
            23.598841
          ],
          [
            116.973821,
            23.5988812
          ],
          [
            116.9736457,
            23.5994837
          ],
          [
            116.9739087,
            23.601432
          ],
          [
            116.9726289,
            23.601954
          ]
        ]
      ],
      [
        [
          [
            117.0105132,
            23.5701011
          ],
          [
            117.0097192,
            23.5688741
          ],
          [
            117.0095864,
            23.5687172
          ],
          [
            117.0095864,
            23.5682743
          ],
          [
            117.0091327,
            23.5678882
          ],
          [
            117.0087735,
            23.5679693
          ],
          [
            117.0083846,
            23.5673617
          ],
          [
            117.0074683,
            23.5638792
          ],
          [
            117.0034587,
            23.5629063
          ],
          [
            116.999567,
            23.5637711
          ],
          [
            116.9990363,
            23.5649061
          ],
          [
            116.9966187,
            23.5642575
          ],
          [
            116.9960291,
            23.562528
          ],
          [
            116.9936705,
            23.5618253
          ],
          [
            116.9920784,
            23.5611227
          ],
          [
            116.9935526,
            23.5586364
          ],
          [
            116.9952625,
            23.5574473
          ],
          [
            116.9959701,
            23.5581499
          ],
          [
            116.9977391,
            23.5574473
          ],
          [
            116.9980339,
            23.5557717
          ],
          [
            116.996206,
            23.5547447
          ],
          [
            116.9934346,
            23.5551771
          ],
          [
            116.9904274,
            23.5534475
          ],
          [
            116.9895429,
            23.5531772
          ],
          [
            116.9871843,
            23.5547447
          ],
          [
            116.9864178,
            23.5563663
          ],
          [
            116.9824082,
            23.556096
          ],
          [
            116.9805213,
            23.5570149
          ],
          [
            116.9797547,
            23.5595012
          ],
          [
            116.9790472,
            23.5602038
          ],
          [
            116.9774551,
            23.5606903
          ],
          [
            116.9768655,
            23.5616632
          ],
          [
            116.9751555,
            23.5617172
          ],
          [
            116.9741531,
            23.5627442
          ],
          [
            116.9728558,
            23.5613929
          ],
          [
            116.9729738,
            23.5602579
          ],
          [
            116.9723252,
            23.5601498
          ],
          [
            116.9722662,
            23.5584742
          ],
          [
            116.9690093,
            23.5583581
          ],
          [
            116.9679038,
            23.5539929
          ],
          [
            116.9672235,
            23.5500953
          ],
          [
            116.9660921,
            23.5468438
          ],
          [
            116.9623481,
            23.542198
          ],
          [
            116.9598899,
            23.5409152
          ],
          [
            116.9552382,
            23.5403258
          ],
          [
            116.9475843,
            23.5400927
          ],
          [
            116.9471424,
            23.5391022
          ],
          [
            116.9442723,
            23.5390649
          ],
          [
            116.9398542,
            23.5383981
          ],
          [
            116.938615,
            23.5377559
          ],
          [
            116.9372949,
            23.5369902
          ],
          [
            116.9336519,
            23.5360288
          ],
          [
            116.9329419,
            23.5361471
          ],
          [
            116.9322158,
            23.5354962
          ],
          [
            116.9320544,
            23.5342388
          ],
          [
            116.9318447,
            23.5336914
          ],
          [
            116.932119,
            23.5330849
          ],
          [
            116.9309895,
            23.5307919
          ],
          [
            116.9320252,
            23.5284426
          ],
          [
            116.9337304,
            23.5260642
          ],
          [
            116.9376488,
            23.5248999
          ],
          [
            116.9376125,
            23.5239851
          ],
          [
            116.9391026,
            23.5233722
          ],
          [
            116.9404135,
            23.5222188
          ],
          [
            116.9400424,
            23.5209467
          ],
          [
            116.9412589,
            23.520479
          ],
          [
            116.9424361,
            23.520335
          ],
          [
            116.9436657,
            23.5197474
          ],
          [
            116.9437311,
            23.5193875
          ],
          [
            116.9446358,
            23.5195745
          ],
          [
            116.9512952,
            23.5181021
          ],
          [
            116.9552707,
            23.5168388
          ],
          [
            116.9572513,
            23.5167466
          ],
          [
            116.9575383,
            23.5161544
          ],
          [
            116.9597055,
            23.515378
          ],
          [
            116.9598347,
            23.5149174
          ],
          [
            116.9608771,
            23.5148264
          ],
          [
            116.9612728,
            23.5142996
          ],
          [
            116.9634175,
            23.5140304
          ],
          [
            116.9643239,
            23.5137494
          ],
          [
            116.9651026,
            23.5137026
          ],
          [
            116.9654533,
            23.5133401
          ],
          [
            116.9662959,
            23.5132114
          ],
          [
            116.9667682,
            23.5132699
          ],
          [
            116.9674321,
            23.5135977
          ],
          [
            116.9682108,
            23.5135157
          ],
          [
            116.969347,
            23.5133167
          ],
          [
            116.969998,
            23.5127899
          ],
          [
            116.9705852,
            23.5128134
          ],
          [
            116.9719234,
            23.5132687
          ],
          [
            116.972639,
            23.5132874
          ],
          [
            116.9735592,
            23.513503
          ],
          [
            116.9744851,
            23.5132937
          ],
          [
            116.9769194,
            23.5121416
          ],
          [
            116.9777719,
            23.5124193
          ],
          [
            116.9788712,
            23.5118947
          ],
          [
            116.9796149,
            23.5115539
          ],
          [
            116.9803623,
            23.511063
          ],
          [
            116.9816046,
            23.5106833
          ],
          [
            116.9823924,
            23.5101276
          ],
          [
            116.9829883,
            23.5099887
          ],
          [
            116.9835539,
            23.5100072
          ],
          [
            116.9843417,
            23.5106185
          ],
          [
            116.9848561,
            23.5107397
          ],
          [
            116.985311,
            23.5105257
          ],
          [
            116.9857776,
            23.5101781
          ],
          [
            116.9865475,
            23.5099588
          ],
          [
            116.9866175,
            23.5095737
          ],
          [
            116.9867225,
            23.5092207
          ],
          [
            116.9870316,
            23.5089373
          ],
          [
            116.9876032,
            23.5087501
          ],
          [
            116.987924,
            23.508718
          ],
          [
            116.9882623,
            23.5089159
          ],
          [
            116.9885391,
            23.5088593
          ],
          [
            116.9891325,
            23.5082862
          ],
          [
            116.9893583,
            23.508291
          ],
          [
            116.9894476,
            23.5086137
          ],
          [
            116.9897836,
            23.5087967
          ],
          [
            116.9900305,
            23.5089893
          ],
          [
            116.9898572,
            23.509466
          ],
          [
            116.9900042,
            23.509885
          ],
          [
            116.9909136,
            23.5102483
          ],
          [
            116.991372,
            23.5102792
          ],
          [
            116.9919355,
            23.5099707
          ],
          [
            116.9923628,
            23.5100631
          ],
          [
            116.9928614,
            23.5099107
          ],
          [
            116.9932478,
            23.5100326
          ],
          [
            116.99347,
            23.5106923
          ],
          [
            116.9937573,
            23.5112569
          ],
          [
            116.9934385,
            23.51183
          ],
          [
            116.9933112,
            23.5123532
          ],
          [
            116.9929546,
            23.5128349
          ],
          [
            116.992815,
            23.5128839
          ],
          [
            116.9926042,
            23.5133218
          ],
          [
            116.9921209,
            23.5136733
          ],
          [
            116.9918375,
            23.5137039
          ],
          [
            116.991682,
            23.5140452
          ],
          [
            116.9917598,
            23.5142031
          ],
          [
            116.9913444,
            23.5149691
          ],
          [
            116.9914055,
            23.5157427
          ],
          [
            116.9977967,
            23.5431377
          ],
          [
            116.9999392,
            23.5466617
          ],
          [
            117.0015345,
            23.5473404
          ],
          [
            117.0030063,
            23.5463284
          ],
          [
            117.0045242,
            23.5468133
          ],
          [
            117.006525,
            23.5456538
          ],
          [
            117.0084798,
            23.5466657
          ],
          [
            117.0117454,
            23.5522947
          ],
          [
            117.0123973,
            23.5516411
          ],
          [
            117.0125008,
            23.5526471
          ],
          [
            117.0140538,
            23.5540328
          ],
          [
            117.0150061,
            23.5531761
          ],
          [
            117.0164721,
            23.5527882
          ],
          [
            117.0177718,
            23.5528436
          ],
          [
            117.0183462,
            23.5534393
          ],
          [
            117.0181043,
            23.5541182
          ],
          [
            117.0191321,
            23.5560023
          ],
          [
            117.0190716,
            23.5564595
          ],
          [
            117.0194948,
            23.5567227
          ],
          [
            117.0194041,
            23.5570691
          ],
          [
            117.0187089,
            23.5576094
          ],
          [
            117.0187969,
            23.5583071
          ],
          [
            117.0194572,
            23.5587721
          ],
          [
            117.0185554,
            23.5600047
          ],
          [
            117.0184402,
            23.5602373
          ],
          [
            117.0189624,
            23.5615356
          ],
          [
            117.0194746,
            23.5618348
          ],
          [
            117.0195937,
            23.5621405
          ],
          [
            117.0193603,
            23.5632053
          ],
          [
            117.0194105,
            23.5636564
          ],
          [
            117.018326,
            23.5643326
          ],
          [
            117.0181425,
            23.5638542
          ],
          [
            117.0181253,
            23.5635283
          ],
          [
            117.0177754,
            23.5634231
          ],
          [
            117.0168003,
            23.5635493
          ],
          [
            117.0160203,
            23.5634967
          ],
          [
            117.0156647,
            23.5635808
          ],
          [
            117.015355,
            23.5638805
          ],
          [
            117.0143837,
            23.5641468
          ],
          [
            117.0140972,
            23.564685
          ],
          [
            117.0133982,
            23.5651655
          ],
          [
            117.0132654,
            23.5651591
          ],
          [
            117.0124896,
            23.5657805
          ],
          [
            117.0125259,
            23.568202
          ],
          [
            117.0126486,
            23.5683567
          ],
          [
            117.0125291,
            23.5694543
          ],
          [
            117.01248,
            23.5699446
          ],
          [
            117.0122033,
            23.5697861
          ],
          [
            117.0119497,
            23.5698917
          ],
          [
            117.0117537,
            23.5697966
          ],
          [
            117.0114424,
            23.5698178
          ],
          [
            117.0108116,
            23.5701736
          ],
          [
            117.0105132,
            23.5701011
          ]
        ]
      ],
      [
        [
          [
            117.0341822,
            23.5819176
          ],
          [
            117.0329701,
            23.5810021
          ],
          [
            117.0317886,
            23.5789176
          ],
          [
            117.0312274,
            23.5771038
          ],
          [
            117.0303117,
            23.5773203
          ],
          [
            117.0292483,
            23.576833
          ],
          [
            117.0281554,
            23.5768872
          ],
          [
            117.0276828,
            23.5767789
          ],
          [
            117.0267671,
            23.577943
          ],
          [
            117.0265308,
            23.5780513
          ],
          [
            117.0262354,
            23.5777806
          ],
          [
            117.0251721,
            23.5779701
          ],
          [
            117.0243745,
            23.5788364
          ],
          [
            117.0236952,
            23.5786469
          ],
          [
            117.0228681,
            23.5792695
          ],
          [
            117.0226909,
            23.5800275
          ],
          [
            117.0219819,
            23.5803524
          ],
          [
            117.0212435,
            23.5798922
          ],
          [
            117.0201801,
            23.5799463
          ],
          [
            117.0193531,
            23.5792425
          ],
          [
            117.0193826,
            23.5779701
          ],
          [
            117.0197371,
            23.5763999
          ],
          [
            117.0210958,
            23.5751816
          ],
          [
            117.0221592,
            23.5730699
          ],
          [
            117.022425,
            23.5722307
          ],
          [
            117.0218343,
            23.5707146
          ],
          [
            117.022425,
            23.5703084
          ],
          [
            117.0246404,
            23.5706875
          ],
          [
            117.0266194,
            23.5700919
          ],
          [
            117.0283622,
            23.5696857
          ],
          [
            117.0302992,
            23.567621
          ],
          [
            117.0303574,
            23.5664111
          ],
          [
            117.0293868,
            23.56513
          ],
          [
            117.0286297,
            23.5651656
          ],
          [
            117.0284745,
            23.5643649
          ],
          [
            117.029115,
            23.5647919
          ],
          [
            117.0306924,
            23.5636663
          ],
          [
            117.0307973,
            23.564243
          ],
          [
            117.0323353,
            23.5647556
          ],
          [
            117.0332966,
            23.564227
          ],
          [
            117.0338559,
            23.5643391
          ],
          [
            117.0338034,
            23.56506
          ],
          [
            117.0377184,
            23.5709713
          ],
          [
            117.0385961,
            23.5712329
          ],
          [
            117.0386471,
            23.5716187
          ],
          [
            117.0393615,
            23.5718292
          ],
          [
            117.0398463,
            23.5718759
          ],
          [
            117.0398718,
            23.5721215
          ],
          [
            117.0402417,
            23.5722033
          ],
          [
            117.0403714,
            23.5723106
          ],
          [
            117.0402221,
            23.5730265
          ],
          [
            117.0404863,
            23.5738581
          ],
          [
            117.0406875,
            23.5744372
          ],
          [
            117.040322,
            23.5748993
          ],
          [
            117.0392508,
            23.575523
          ],
          [
            117.0392775,
            23.5760834
          ],
          [
            117.0388996,
            23.5764683
          ],
          [
            117.0389136,
            23.5772893
          ],
          [
            117.0395435,
            23.5780719
          ],
          [
            117.0388436,
            23.5784054
          ],
          [
            117.0380038,
            23.5790597
          ],
          [
            117.0375979,
            23.5796626
          ],
          [
            117.0365419,
            23.5800368
          ],
          [
            117.036205,
            23.5804757
          ],
          [
            117.0359905,
            23.5813278
          ],
          [
            117.0352958,
            23.581721
          ],
          [
            117.0346113,
            23.5817023
          ],
          [
            117.0341822,
            23.5819176
          ]
        ]
      ],
      [
        [
          [
            117.0726703,
            23.575312
          ],
          [
            117.0710593,
            23.5746596
          ],
          [
            117.0699728,
            23.5753463
          ],
          [
            117.0689612,
            23.5754837
          ],
          [
            117.0690362,
            23.5745222
          ],
          [
            117.0658516,
            23.5746252
          ],
          [
            117.0641657,
            23.5745222
          ],
          [
            117.0633789,
            23.5742132
          ],
          [
            117.0615431,
            23.5745222
          ],
          [
            117.061131,
            23.5734577
          ],
          [
            117.0613183,
            23.5720842
          ],
          [
            117.0605315,
            23.5715347
          ],
          [
            117.0609811,
            23.5704359
          ],
          [
            117.0610935,
            23.5697147
          ],
          [
            117.0615056,
            23.569543
          ],
          [
            117.0617304,
            23.56762
          ],
          [
            117.0630043,
            23.5671736
          ],
          [
            117.0641282,
            23.5663494
          ],
          [
            117.0640158,
            23.5655252
          ],
          [
            117.0662263,
            23.5643576
          ],
          [
            117.0701601,
            23.5633961
          ],
          [
            117.0731574,
            23.5631213
          ],
          [
            117.0744312,
            23.5627436
          ],
          [
            117.0755551,
            23.5618163
          ],
          [
            117.077316,
            23.5627092
          ],
          [
            117.0771287,
            23.5638082
          ],
          [
            117.0780279,
            23.5645293
          ],
          [
            117.0788146,
            23.5641516
          ],
          [
            117.0796389,
            23.5646667
          ],
          [
            117.0792642,
            23.5657313
          ],
          [
            117.0783651,
            23.5669675
          ],
          [
            117.077878,
            23.5694057
          ],
          [
            117.0785524,
            23.5708136
          ],
          [
            117.0765292,
            23.5728053
          ],
          [
            117.075218,
            23.5737324
          ],
          [
            117.0737193,
            23.5751403
          ],
          [
            117.0726703,
            23.575312
          ]
        ]
      ],
      [
        [
          [
            116.9137663,
            23.6141049
          ],
          [
            116.9104371,
            23.6116538
          ],
          [
            116.9074231,
            23.6013477
          ],
          [
            116.9061734,
            23.5887503
          ],
          [
            116.9060594,
            23.5862609
          ],
          [
            116.909441,
            23.5797258
          ],
          [
            116.9170126,
            23.5712365
          ],
          [
            116.9275983,
            23.5754139
          ],
          [
            116.9393763,
            23.5794764
          ],
          [
            116.9430166,
            23.5826914
          ],
          [
            116.9416929,
            23.5945195
          ],
          [
            116.945995,
            23.6001603
          ],
          [
            116.9429669,
            23.6025831
          ],
          [
            116.9387358,
            23.6115931
          ],
          [
            116.9334916,
            23.6135589
          ],
          [
            116.9137663,
            23.6141049
          ]
        ]
      ]
    ]
  },
  "properties": {
    "adcode": 445122,
    "name": "饶平",
    "parent": "潮州",
    "outer": false
  }
}
