{
  "type": "Feature",
  "geometry": {
    "type": "Polygon",
    "coordinates": [
      [
        [
          116.8175226,
          23.3764518
        ],
        [
          116.8092655,
          23.3839656
        ],
        [
          116.8109082,
          23.3900244
        ],
        [
          116.8061858,
          23.39659
        ],
        [
          116.8030971,
          23.4182498
        ],
        [
          116.8009017,
          23.4252796
        ],
        [
          116.8005485,
          23.4269497
        ],
        [
          116.7914094,
          23.4338912
        ],
        [
          116.7868891,
          23.4364696
        ],
        [
          116.7817283,
          23.4379203
        ],
        [
          116.7742542,
          23.4406959
        ],
        [
          116.7710807,
          23.4419823
        ],
        [
          116.7676639,
          23.4421129
        ],
        [
          116.7615996,
          23.4446041
        ],
        [
          116.7596164,
          23.4462747
        ],
        [
          116.7563162,
          23.4467104
        ],
        [
          116.7550158,
          23.4474731
        ],
        [
          116.7525004,
          23.448314
        ],
        [
          116.7514887,
          23.4483735
        ],
        [
          116.750049,
          23.4489528
        ],
        [
          116.7475163,
          23.4497586
        ],
        [
          116.7464776,
          23.4501167
        ],
        [
          116.7458194,
          23.450696
        ],
        [
          116.7445075,
          23.4510452
        ],
        [
          116.7427633,
          23.4527234
        ],
        [
          116.7377858,
          23.4542454
        ],
        [
          116.7354217,
          23.4562112
        ],
        [
          116.7328499,
          23.4573496
        ],
        [
          116.7313798,
          23.4585843
        ],
        [
          116.7276991,
          23.4603879
        ],
        [
          116.7269475,
          23.4612751
        ],
        [
          116.7261676,
          23.4618475
        ],
        [
          116.7246415,
          23.4635536
        ],
        [
          116.7220313,
          23.4655847
        ],
        [
          116.7212641,
          23.4655476
        ],
        [
          116.7197293,
          23.4660452
        ],
        [
          116.7166902,
          23.4686888
        ],
        [
          116.7143381,
          23.4714684
        ],
        [
          116.7133858,
          23.4713886
        ],
        [
          116.7121984,
          23.4691827
        ],
        [
          116.7113122,
          23.4655201
        ],
        [
          116.7113122,
          23.4642296
        ],
        [
          116.710481,
          23.4626103
        ],
        [
          116.7089952,
          23.4612056
        ],
        [
          116.7064937,
          23.4606761
        ],
        [
          116.704517,
          23.4601626
        ],
        [
          116.7012245,
          23.4599776
        ],
        [
          116.6988102,
          23.4588098
        ],
        [
          116.6968231,
          23.4525504
        ],
        [
          116.6946365,
          23.4496939
        ],
        [
          116.6955585,
          23.4480015
        ],
        [
          116.6970979,
          23.4455782
        ],
        [
          116.6978433,
          23.443219
        ],
        [
          116.6992699,
          23.440169
        ],
        [
          116.6983375,
          23.4374155
        ],
        [
          116.6979145,
          23.4334144
        ],
        [
          116.6969905,
          23.4303511
        ],
        [
          116.6957878,
          23.4269167
        ],
        [
          116.6949423,
          23.4241273
        ],
        [
          116.6966474,
          23.4204288
        ],
        [
          116.6978382,
          23.4180649
        ],
        [
          116.6990977,
          23.4143655
        ],
        [
          116.6993209,
          23.4123596
        ],
        [
          116.6987333,
          23.4095368
        ],
        [
          116.6968156,
          23.4047689
        ],
        [
          116.6972304,
          23.4030085
        ],
        [
          116.6961214,
          23.4007023
        ],
        [
          116.7003391,
          23.3994229
        ],
        [
          116.7014596,
          23.4023934
        ],
        [
          116.7052988,
          23.4063026
        ],
        [
          116.7093742,
          23.4074636
        ],
        [
          116.7110919,
          23.4055438
        ],
        [
          116.7130812,
          23.4036281
        ],
        [
          116.7139237,
          23.4018399
        ],
        [
          116.7153097,
          23.3991
        ],
        [
          116.716746,
          23.3962782
        ],
        [
          116.7190698,
          23.3993698
        ],
        [
          116.7208404,
          23.4012063
        ],
        [
          116.7220158,
          23.3986638
        ],
        [
          116.7188526,
          23.390316
        ],
        [
          116.7184709,
          23.3899656
        ],
        [
          116.7173188,
          23.389634
        ],
        [
          116.7171157,
          23.390401
        ],
        [
          116.7168594,
          23.3906911
        ],
        [
          116.7133142,
          23.3926985
        ],
        [
          116.7127757,
          23.3917779
        ],
        [
          116.7105086,
          23.391275
        ],
        [
          116.7109293,
          23.3897261
        ],
        [
          116.7082892,
          23.3891087
        ],
        [
          116.7106095,
          23.3862502
        ],
        [
          116.7041866,
          23.3847775
        ],
        [
          116.7085687,
          23.3794011
        ],
        [
          116.7091829,
          23.3762197
        ],
        [
          116.7114041,
          23.3691902
        ],
        [
          116.7114693,
          23.3674046
        ],
        [
          116.7115712,
          23.3591678
        ],
        [
          116.7140606,
          23.3592161
        ],
        [
          116.7141482,
          23.3549993
        ],
        [
          116.716146,
          23.3548291
        ],
        [
          116.7209832,
          23.3517477
        ],
        [
          116.7335633,
          23.348002
        ],
        [
          116.7371202,
          23.3491195
        ],
        [
          116.7401575,
          23.3495917
        ],
        [
          116.7429242,
          23.3483028
        ],
        [
          116.7451775,
          23.3441836
        ],
        [
          116.7486433,
          23.3422413
        ],
        [
          116.7531653,
          23.3434802
        ],
        [
          116.7556815,
          23.3429444
        ],
        [
          116.7682995,
          23.3311243
        ],
        [
          116.7752392,
          23.3247519
        ],
        [
          116.7761874,
          23.3246514
        ],
        [
          116.787083,
          23.33445
        ],
        [
          116.801138,
          23.36071
        ],
        [
          116.8175226,
          23.3764518
        ]
      ]
    ]
  },
  "properties": {
    "adcode": 440507,
    "name": "龙湖",
    "parent": "汕头",
    "outer": false
  }
}
