{
  "type": "Feature",
  "properties": {
    "name": "东溪-莲阳河-海"
  },
  "geometry": {
    "type": "LineString",
    "coordinates": [
      [
        116.7396772,
        23.5346891
      ],
      [
        116.7389369,
        23.5235925
      ],
      [
        116.7434332,
        23.5132855
      ],
      [
        116.7605443,
        23.5099641
      ],
      [
        116.7699116,
        23.4884307
      ],
      [
        116.8047209,
        23.4601326
      ],
      [
        116.8249483,
        23.4547763
      ],
      [
        116.8695736,
        23.4568806
      ],
      [
        116.879583,
        23.4511416
      ]
    ]
  }
}