{
  "type": "Feature",
  "properties": {
    "name": "东溪-南溪-义丰溪"
  },
  "geometry": {
    "type": "LineString",
    "coordinates": [
      [
        116.7396772,
        23.5346891
      ],
      [
        116.7471134,
        23.534418
      ],
      [
        116.7501805,
        23.5365441
      ],
      [
        116.7503301,
        23.5405905
      ],
      [
        116.7480859,
        23.5467627
      ],
      [
        116.7556414,
        23.5519745
      ],
      [
        116.7606123,
        23.5535619
      ],
      [
        116.7617241,
        23.5572108
      ],
      [
        116.760175,
        23.5641255
      ],
      [
        116.762168,
        23.56693
      ],
      [
        116.7665896,
        23.5659675
      ],
      [
        116.7759302,
        23.5601921
      ],
      [
        116.7810892,
        23.5590166
      ],
      [
        116.7911618,
        23.5532908
      ],
      [
        116.8044593,
        23.5607344
      ],
      [
        116.8076885,
        23.5603773
      ]
    ]
  }
}