{
  "type": "Feature",
  "properties": {
    "name": "大港-西港-榕江"
  },
  "geometry": {
    "type": "LineString",
    "coordinates": [
      [
        116.66780820979731,
        23.42140248616195
      ],
      [
        116.6674064,
        23.4191903
      ],
      [
        116.66902,
        23.4156343
      ],
      [
        116.6657233,
        23.4106054
      ],
      [
        116.6613656,
        23.4069026
      ],
      [
        116.6624217,
        23.4032609
      ],
      [
        116.6620426,
        23.3966345
      ],
      [
        116.6629081,
        23.3942404
      ],
      [
        116.6658826,
        23.3934338
      ],
      [
        116.6637345,
        23.3814407
      ],
      [
        116.6629971,
        23.374439
      ],
      [
        116.6638363,
        23.3640691
      ],
      [
        116.6626183,
        23.3602459
      ],
      [
        116.6604181,
        23.3591278
      ],
      [
        116.6573431,
        23.3542494
      ],
      [
        116.65879833,
        23.34224731
      ]
    ]
  }
}