{
  "type": "Feature",
  "properties": {
    "name": "梅溪-庵江溪-大港"
  },
  "geometry": {
    "type": "LineString",
    "coordinates": [
      [
        116.69730825602713,
        23.45897196328782
      ],
      [
        116.6941513,
        23.4608642
      ],
      [
        116.6936931,
        23.4609459
      ],
      [
        116.6931204,
        23.4605256
      ],
      [
        116.6919367,
        23.4589377
      ],
      [
        116.69072,
        23.4578403
      ],
      [
        116.6895491,
        23.4560773
      ],
      [
        116.6863784,
        23.4539036
      ],
      [
        116.6854388,
        23.4528651
      ],
      [
        116.6837904,
        23.4493898
      ],
      [
        116.6834335,
        23.4480049
      ],
      [
        116.6821542,
        23.4463744
      ],
      [
        116.6806486,
        23.4473195
      ],
      [
        116.6800213,
        23.4470608
      ],
      [
        116.6751514,
        23.4433476
      ],
      [
        116.6727906,
        23.4426599
      ],
      [
        116.6693295,
        23.4393074
      ],
      [
        116.6680439,
        23.4372919
      ],
      [
        116.6659054,
        23.4353818
      ],
      [
        116.66380175964618,
        23.43197154093518
      ]
    ]
  }
}