{
  "type": "Feature",
  "properties": {
    "name": "汇-义丰溪-海"
  },
  "geometry": {
    "type": "LineString",
    "coordinates": [
      [
        116.8076885,
        23.5603773
      ],
      [
        116.8156593,
        23.5554697
      ],
      [
        116.8210377,
        23.5465937
      ],
      [
        116.8283431,
        23.5410107
      ],
      [
        116.8385958,
        23.5404848
      ],
      [
        116.8533857,
        23.5478287
      ],
      [
        116.8742421,
        23.5558458
      ],
      [
        116.8876871,
        23.553268
      ],
      [
        116.9055369,
        23.5474482
      ]
    ]
  }
}