{
  "type": "Feature",
  "properties": {
    "name": "汇-韩江-分"
  },
  "geometry": {
    "type": "LineString",
    "coordinates": [
      [
        116.5715781,
        24.4037266
      ],
      [
        116.5680949,
        24.3793381
      ],
      [
        116.555209,
        24.3693913
      ],
      [
        116.5362219,
        24.3479841
      ],
      [
        116.5330505,
        24.3343075
      ],
      [
        116.5381544,
        24.3212271
      ],
      [
        116.5475916,
        24.3166104
      ],
      [
        116.5572274,
        24.3151619
      ],
      [
        116.567062,
        24.3067426
      ],
      [
        116.5591425,
        24.2998258
      ],
      [
        116.5520559,
        24.2988716
      ],
      [
        116.5444055,
        24.2910914
      ],
      [
        116.5465798,
        24.2834574
      ],
      [
        116.5694786,
        24.2678872
      ],
      [
        116.5821664,
        24.269333
      ],
      [
        116.5866601,
        24.2634894
      ],
      [
        116.5827649,
        24.2533005
      ],
      [
        116.587504,
        24.2490496
      ],
      [
        116.5953348,
        24.2483885
      ],
      [
        116.6049057,
        24.2402567
      ],
      [
        116.6096372,
        24.2301048
      ],
      [
        116.6104967,
        24.2240952
      ],
      [
        116.6160404,
        24.2198565
      ],
      [
        116.6239731,
        24.2192096
      ],
      [
        116.6270555,
        24.2103264
      ],
      [
        116.627801,
        24.1897604
      ],
      [
        116.6217613,
        24.1830539
      ],
      [
        116.6118962,
        24.1810444
      ],
      [
        116.6064369,
        24.1699474
      ],
      [
        116.5845567,
        24.1609231
      ],
      [
        116.5773232,
        24.1517994
      ],
      [
        116.5635005,
        24.1456569
      ],
      [
        116.548206,
        24.1307149
      ],
      [
        116.5396773,
        24.1286733
      ],
      [
        116.5282126,
        24.11842
      ],
      [
        116.5245312,
        24.1039312
      ],
      [
        116.5065318,
        24.0922324
      ],
      [
        116.5039804,
        24.0853812
      ],
      [
        116.4984378,
        24.0815989
      ],
      [
        116.4938712,
        24.056518
      ],
      [
        116.4970636,
        24.045647
      ],
      [
        116.4924323,
        24.008209
      ],
      [
        116.4936041,
        23.999245
      ],
      [
        116.4739447,
        23.9676866
      ],
      [
        116.482952,
        23.9445006
      ],
      [
        116.4812419,
        23.9322397
      ],
      [
        116.46632793,
        23.91187442
      ],
      [
        116.4641735,
        23.9089325
      ],
      [
        116.4659297,
        23.89106
      ],
      [
        116.4739508,
        23.8854774
      ],
      [
        116.4922676,
        23.8850395
      ],
      [
        116.4945422,
        23.8762821
      ],
      [
        116.4901126,
        23.8687283
      ],
      [
        116.4922988,
        23.86484906
      ],
      [
        116.4942243,
        23.8614324
      ],
      [
        116.5141148,
        23.8460995
      ],
      [
        116.5283223,
        23.8270392
      ],
      [
        116.5307487,
        23.82060674
      ],
      [
        116.5368204,
        23.8045105
      ],
      [
        116.5505948,
        23.8077173
      ],
      [
        116.5600686,
        23.8023219
      ],
      [
        116.5662754,
        23.7891386
      ],
      [
        116.5621687,
        23.7769252
      ],
      [
        116.5681538,
        23.7541879
      ],
      [
        116.5957618,
        23.733725
      ],
      [
        116.6193127,
        23.7010268
      ],
      [
        116.6497732,
        23.6820225
      ],
      [
        116.6498981,
        23.6583439
      ]
    ]
  }
}