{
  "type": "Feature",
  "properties": {
    "name": "源-凤凰溪-韩江"
  },
  "geometry": {
    "type": "LineString",
    "coordinates": [
      [
        116.5997839,
        23.9049682
      ],
      [
        116.5989571,
        23.9030065
      ],
      [
        116.5989768,
        23.9022415
      ],
      [
        116.5982287,
        23.9009727
      ],
      [
        116.5975987,
        23.9007477
      ],
      [
        116.5963826,
        23.8993025
      ],
      [
        116.595459,
        23.8986774
      ],
      [
        116.5952071,
        23.897482
      ],
      [
        116.5956149,
        23.8967801
      ],
      [
        116.595495,
        23.8955299
      ],
      [
        116.5951231,
        23.8953325
      ],
      [
        116.595062,
        23.8945717
      ],
      [
        116.5952539,
        23.8940343
      ],
      [
        116.595038,
        23.8932447
      ],
      [
        116.5952739,
        23.8924002
      ],
      [
        116.5947445,
        23.8920069
      ],
      [
        116.5945459,
        23.8915909
      ],
      [
        116.5939999,
        23.8912051
      ],
      [
        116.594488,
        23.8904639
      ],
      [
        116.5944616,
        23.8884519
      ],
      [
        116.5952028,
        23.8872008
      ],
      [
        116.5957411,
        23.8849267
      ],
      [
        116.5960211,
        23.884966
      ],
      [
        116.5967016,
        23.883901
      ],
      [
        116.5969433,
        23.8829118
      ],
      [
        116.5968742,
        23.8819437
      ],
      [
        116.5976108,
        23.8817964
      ],
      [
        116.597887,
        23.8812807
      ],
      [
        116.597979,
        23.8799443
      ],
      [
        116.5981401,
        23.8794602
      ],
      [
        116.597933,
        23.8787131
      ],
      [
        116.5977374,
        23.8783027
      ],
      [
        116.5980223,
        23.8771047
      ],
      [
        116.5978708,
        23.8761464
      ],
      [
        116.5997151,
        23.8741383
      ],
      [
        116.5976235,
        23.8715138
      ],
      [
        116.5977776,
        23.8712494
      ],
      [
        116.5973542,
        23.8708094
      ],
      [
        116.5976669,
        23.8702566
      ],
      [
        116.5976391,
        23.8693988
      ],
      [
        116.5972847,
        23.8689922
      ],
      [
        116.5965899,
        23.8688524
      ],
      [
        116.5963842,
        23.868562
      ],
      [
        116.5955999,
        23.8620092
      ],
      [
        116.5947652,
        23.8616871
      ],
      [
        116.5944391,
        23.8605063
      ],
      [
        116.594074,
        23.8601723
      ],
      [
        116.5947261,
        23.858896
      ],
      [
        116.5936696,
        23.8577867
      ],
      [
        116.5939174,
        23.8569279
      ],
      [
        116.5935783,
        23.8566893
      ],
      [
        116.5920132,
        23.8566893
      ],
      [
        116.5909698,
        23.857238
      ],
      [
        116.5908524,
        23.8577628
      ],
      [
        116.5902786,
        23.8585978
      ],
      [
        116.5889868,
        23.8586592
      ],
      [
        116.5881219,
        23.859017
      ],
      [
        116.5877856,
        23.8589919
      ],
      [
        116.5875816,
        23.8577601
      ],
      [
        116.5869089,
        23.8571511
      ],
      [
        116.5862325,
        23.8574856
      ],
      [
        116.5854709,
        23.8576414
      ],
      [
        116.5845971,
        23.859368
      ],
      [
        116.5838925,
        23.8599445
      ],
      [
        116.5835122,
        23.8605844
      ],
      [
        116.5833223,
        23.8613968
      ],
      [
        116.5831731,
        23.8615456
      ],
      [
        116.5828476,
        23.8613286
      ],
      [
        116.5824204,
        23.8612728
      ],
      [
        116.5807853,
        23.8599975
      ],
      [
        116.5804389,
        23.8600182
      ],
      [
        116.5789031,
        23.8614752
      ],
      [
        116.5786389,
        23.8627035
      ],
      [
        116.578812,
        23.8634
      ],
      [
        116.5780847,
        23.8642336
      ],
      [
        116.5762528,
        23.8638323
      ],
      [
        116.5753134,
        23.8641311
      ],
      [
        116.5746496,
        23.8635407
      ],
      [
        116.5724123,
        23.8630965
      ],
      [
        116.5701105,
        23.8649512
      ],
      [
        116.5691253,
        23.8652566
      ],
      [
        116.5688973,
        23.8651672
      ],
      [
        116.5686611,
        23.8652938
      ],
      [
        116.5680858,
        23.8666633
      ],
      [
        116.5677353,
        23.8668215
      ],
      [
        116.5672163,
        23.8668798
      ],
      [
        116.5665972,
        23.8666592
      ],
      [
        116.5655918,
        23.8659678
      ],
      [
        116.5651812,
        23.8659932
      ],
      [
        116.5633907,
        23.8643985
      ],
      [
        116.562782,
        23.8635078
      ],
      [
        116.5625385,
        23.8626617
      ],
      [
        116.5622037,
        23.8624223
      ],
      [
        116.5621274,
        23.8622348
      ],
      [
        116.5618831,
        23.8622448
      ],
      [
        116.5616899,
        23.8624882
      ],
      [
        116.5616834,
        23.8644199
      ],
      [
        116.5611907,
        23.8652676
      ],
      [
        116.560605,
        23.8657952
      ],
      [
        116.5580256,
        23.8660054
      ],
      [
        116.5567786,
        23.8666808
      ],
      [
        116.5564714,
        23.8662149
      ],
      [
        116.5562841,
        23.8652898
      ],
      [
        116.5552582,
        23.8648817
      ],
      [
        116.5546507,
        23.8651481
      ],
      [
        116.5543178,
        23.8650263
      ],
      [
        116.5533941,
        23.8649121
      ],
      [
        116.5535688,
        23.8646001
      ],
      [
        116.5535106,
        23.8644023
      ],
      [
        116.5524454,
        23.8642044
      ],
      [
        116.5523345,
        23.8631911
      ],
      [
        116.5525518,
        23.8627672
      ],
      [
        116.5526821,
        23.8615485
      ],
      [
        116.5524359,
        23.8613499
      ],
      [
        116.5525181,
        23.8608856
      ],
      [
        116.550473,
        23.8567139
      ],
      [
        116.5501298,
        23.8568588
      ],
      [
        116.5496546,
        23.8574141
      ],
      [
        116.549021,
        23.8576435
      ],
      [
        116.5483873,
        23.8575832
      ],
      [
        116.5482817,
        23.8572693
      ],
      [
        116.5485033,
        23.8558022
      ],
      [
        116.5482335,
        23.8556083
      ],
      [
        116.5482239,
        23.8553263
      ],
      [
        116.5491411,
        23.8537833
      ],
      [
        116.5505575,
        23.8523117
      ],
      [
        116.5509236,
        23.8523822
      ],
      [
        116.551839,
        23.8520032
      ],
      [
        116.5524474,
        23.8508687
      ],
      [
        116.5523487,
        23.8504695
      ],
      [
        116.551881,
        23.8501701
      ],
      [
        116.5517994,
        23.8497785
      ],
      [
        116.5518882,
        23.8493569
      ],
      [
        116.5514463,
        23.8487172
      ],
      [
        116.5516348,
        23.847335
      ],
      [
        116.5522414,
        23.8464237
      ],
      [
        116.5526918,
        23.8459881
      ],
      [
        116.5530427,
        23.8448055
      ],
      [
        116.5524937,
        23.8441664
      ],
      [
        116.5517339,
        23.8441106
      ],
      [
        116.5510462,
        23.8445062
      ],
      [
        116.5501084,
        23.844185
      ],
      [
        116.5493853,
        23.8434204
      ],
      [
        116.5492775,
        23.8422787
      ],
      [
        116.5460119,
        23.8431691
      ],
      [
        116.5458547,
        23.8430601
      ],
      [
        116.5460917,
        23.8423514
      ],
      [
        116.5470965,
        23.841047
      ],
      [
        116.546891,
        23.84074
      ],
      [
        116.5463589,
        23.8405087
      ],
      [
        116.5460721,
        23.8399012
      ],
      [
        116.5461312,
        23.8382345
      ],
      [
        116.5463347,
        23.8372411
      ],
      [
        116.5460689,
        23.8367598
      ],
      [
        116.5461527,
        23.8360942
      ],
      [
        116.5466007,
        23.8356681
      ],
      [
        116.5481474,
        23.8325552
      ],
      [
        116.5500827,
        23.8309356
      ],
      [
        116.5502337,
        23.8305715
      ],
      [
        116.5495474,
        23.8279473
      ],
      [
        116.549067,
        23.8274175
      ],
      [
        116.5485421,
        23.826132
      ],
      [
        116.5455621,
        23.8273711
      ],
      [
        116.5438048,
        23.8290369
      ],
      [
        116.5426961,
        23.8291214
      ],
      [
        116.5411625,
        23.8287495
      ],
      [
        116.540712,
        23.8283554
      ],
      [
        116.5399265,
        23.8272
      ],
      [
        116.5393798,
        23.8254641
      ],
      [
        116.5385943,
        23.8247711
      ],
      [
        116.5366866,
        23.8240525
      ],
      [
        116.535915,
        23.8226666
      ],
      [
        116.5350679,
        23.8216814
      ],
      [
        116.5307487,
        23.82060674
      ]
    ]
  }
}