{
  "type": "Feature",
  "properties": {
    "name": "源-大港-榕江"
  },
  "geometry": {
    "type": "LineString",
    "coordinates": [
      [
        116.6423462,
        23.4608982
      ],
      [
        116.6447463,
        23.460967
      ],
      [
        116.648234,
        23.4545682
      ],
      [
        116.650259,
        23.4544306
      ],
      [
        116.6507466,
        23.452848
      ],
      [
        116.6524551,
        23.4525635
      ],
      [
        116.657187,
        23.4488782
      ],
      [
        116.6598979,
        23.4477703
      ],
      [
        116.6604495,
        23.4440231
      ],
      [
        116.6607904,
        23.443487
      ],
      [
        116.6605028,
        23.4406076
      ],
      [
        116.66380176,
        23.43197154
      ],
      [
        116.6640856,
        23.4312285
      ],
      [
        116.664341,
        23.4296818
      ],
      [
        116.6662658,
        23.4284557
      ],
      [
        116.6672071,
        23.4280718
      ],
      [
        116.6692989,
        23.4253024
      ],
      [
        116.6682052,
        23.4215716
      ],
      [
        116.66780821,
        23.42140249
      ],
      [
        116.6666723,
        23.4209186
      ],
      [
        116.6622072,
        23.4173187
      ],
      [
        116.6598401,
        23.4162326
      ],
      [
        116.6588933,
        23.4148291
      ],
      [
        116.6586266,
        23.4133072
      ],
      [
        116.6575677,
        23.4118955
      ],
      [
        116.6551442,
        23.4100203
      ],
      [
        116.6533886,
        23.4071343
      ],
      [
        116.6533982,
        23.4062715
      ],
      [
        116.6556412,
        23.4020529
      ],
      [
        116.6518046,
        23.3972115
      ],
      [
        116.6501623,
        23.3943779
      ],
      [
        116.6464451,
        23.3917686
      ],
      [
        116.6456533,
        23.3898679
      ],
      [
        116.6473587,
        23.3866815
      ],
      [
        116.6555811,
        23.379917
      ],
      [
        116.6584438,
        23.3761712
      ],
      [
        116.6598716,
        23.3718808
      ],
      [
        116.6611718,
        23.3640231
      ],
      [
        116.6604344,
        23.3604803
      ],
      [
        116.6595254,
        23.3579581
      ],
      [
        116.6569072,
        23.3538499
      ],
      [
        116.658321,
        23.34218943
      ]
    ]
  }
}