{
  "type": "Feature",
  "properties": {
    "adcode": "",
    "name": "源-蔗溪-韩江"
  },
  "geometry": {
    "type": "LineString",
    "coordinates": [
      [
        116.3958213,
        23.7958679
      ],
      [
        116.3963837,
        23.7952247
      ],
      [
        116.3976595,
        23.7945385
      ],
      [
        116.3989096,
        23.7934888
      ],
      [
        116.4004845,
        23.792701
      ],
      [
        116.4011973,
        23.7929022
      ],
      [
        116.4019062,
        23.7938383
      ],
      [
        116.4019304,
        23.7944501
      ],
      [
        116.4036594,
        23.7953458
      ],
      [
        116.4060253,
        23.7960734
      ],
      [
        116.4070855,
        23.7953727
      ],
      [
        116.4077432,
        23.7940793
      ],
      [
        116.4131521,
        23.7930967
      ],
      [
        116.4164948,
        23.7924394
      ],
      [
        116.4175199,
        23.7927024
      ],
      [
        116.4189249,
        23.7931272
      ],
      [
        116.4205109,
        23.7930062
      ],
      [
        116.4219973,
        23.7925829
      ],
      [
        116.4228618,
        23.7932629
      ],
      [
        116.4211637,
        23.7955231
      ],
      [
        116.4218407,
        23.795924
      ],
      [
        116.4235338,
        23.7953413
      ],
      [
        116.4239732,
        23.7961092
      ],
      [
        116.424177,
        23.7977165
      ],
      [
        116.4244844,
        23.7983589
      ],
      [
        116.4251498,
        23.7981448
      ],
      [
        116.4261972,
        23.7975385
      ],
      [
        116.4272007,
        23.7973632
      ],
      [
        116.427713,
        23.7975635
      ],
      [
        116.4276551,
        23.7980398
      ],
      [
        116.4274279,
        23.7983422
      ],
      [
        116.426077,
        23.7986673
      ],
      [
        116.4260006,
        23.7992037
      ],
      [
        116.4260683,
        23.8003887
      ],
      [
        116.4267706,
        23.802252
      ],
      [
        116.4274252,
        23.8032788
      ],
      [
        116.4273448,
        23.8050209
      ],
      [
        116.4274674,
        23.806076
      ],
      [
        116.4274327,
        23.8064976
      ],
      [
        116.4249451,
        23.8075407
      ],
      [
        116.4253079,
        23.809706
      ],
      [
        116.4271703,
        23.8109186
      ],
      [
        116.4271362,
        23.8116993
      ],
      [
        116.4253244,
        23.8132034
      ],
      [
        116.4255869,
        23.8138585
      ],
      [
        116.4265894,
        23.8142734
      ],
      [
        116.4277828,
        23.8151687
      ],
      [
        116.4283795,
        23.8160858
      ],
      [
        116.4308619,
        23.8159111
      ],
      [
        116.4328907,
        23.8155836
      ],
      [
        116.434349,
        23.8150377
      ],
      [
        116.4372864,
        23.8159238
      ],
      [
        116.4376818,
        23.8177101
      ],
      [
        116.4366637,
        23.8186499
      ],
      [
        116.4364148,
        23.8193362
      ],
      [
        116.4368169,
        23.8202603
      ],
      [
        116.4371983,
        23.8202603
      ],
      [
        116.437858,
        23.8199586
      ],
      [
        116.4383425,
        23.8199963
      ],
      [
        116.4391188,
        23.8194365
      ],
      [
        116.4396528,
        23.8185354
      ],
      [
        116.4400759,
        23.8173543
      ],
      [
        116.4406299,
        23.8172293
      ],
      [
        116.4423995,
        23.8177373
      ],
      [
        116.4428934,
        23.8178767
      ],
      [
        116.4433879,
        23.8177209
      ],
      [
        116.4441351,
        23.8172283
      ],
      [
        116.4445943,
        23.8173261
      ],
      [
        116.4448466,
        23.8175524
      ],
      [
        116.4448763,
        23.8179823
      ],
      [
        116.4448614,
        23.8185027
      ],
      [
        116.4447477,
        23.8186747
      ],
      [
        116.4448031,
        23.8194672
      ],
      [
        116.4447756,
        23.820005
      ],
      [
        116.445325,
        23.8202211
      ],
      [
        116.4459459,
        23.8202814
      ],
      [
        116.4470031,
        23.8202906
      ],
      [
        116.4479467,
        23.8201187
      ],
      [
        116.4482756,
        23.8202798
      ],
      [
        116.4486313,
        23.8210439
      ],
      [
        116.4486391,
        23.8217502
      ],
      [
        116.4489532,
        23.8226929
      ],
      [
        116.4491739,
        23.8229142
      ],
      [
        116.4498392,
        23.8233315
      ],
      [
        116.4497027,
        23.8244208
      ],
      [
        116.4500204,
        23.8256728
      ],
      [
        116.4498249,
        23.8274725
      ],
      [
        116.4508822,
        23.8306062
      ],
      [
        116.4532721,
        23.8316877
      ],
      [
        116.4549827,
        23.8331345
      ],
      [
        116.4560833,
        23.8338666
      ],
      [
        116.45753,
        23.8342165
      ],
      [
        116.4584122,
        23.8353036
      ],
      [
        116.4583653,
        23.8360544
      ],
      [
        116.4588077,
        23.8385042
      ],
      [
        116.4591454,
        23.8391859
      ],
      [
        116.4601003,
        23.8388876
      ],
      [
        116.4624066,
        23.8397274
      ],
      [
        116.4624678,
        23.842083
      ],
      [
        116.4645858,
        23.8413786
      ],
      [
        116.4660387,
        23.8403859
      ],
      [
        116.4702014,
        23.8448142
      ],
      [
        116.4716275,
        23.8453621
      ],
      [
        116.472854,
        23.8469795
      ],
      [
        116.4722617,
        23.8486385
      ],
      [
        116.4709845,
        23.8498387
      ],
      [
        116.4702846,
        23.851519
      ],
      [
        116.4682031,
        23.8524987
      ],
      [
        116.4681228,
        23.8530917
      ],
      [
        116.4698465,
        23.8557204
      ],
      [
        116.4701815,
        23.858361
      ],
      [
        116.4711942,
        23.8596771
      ],
      [
        116.473315,
        23.8605667
      ],
      [
        116.4778044,
        23.8632509
      ],
      [
        116.4783989,
        23.8631474
      ],
      [
        116.4786064,
        23.8624916
      ],
      [
        116.4782196,
        23.8610764
      ],
      [
        116.4791018,
        23.8601579
      ],
      [
        116.4797251,
        23.8603183
      ],
      [
        116.4815479,
        23.8641028
      ],
      [
        116.4821599,
        23.864562
      ],
      [
        116.4835514,
        23.8645485
      ],
      [
        116.4844908,
        23.8640792
      ],
      [
        116.4854078,
        23.8623228
      ],
      [
        116.486517,
        23.8619971
      ],
      [
        116.4877179,
        23.8634024
      ],
      [
        116.4922988,
        23.86484906
      ]
    ]
  }
}