{
  "type": "Feature",
  "properties": {
    "name": "源-丰良河-韩江"
  },
  "geometry": {
    "type": "LineString",
    "coordinates": [
      [
        116.5218573,
        23.9125031
      ],
      [
        116.5215823,
        23.9126467
      ],
      [
        116.5201129,
        23.912345
      ],
      [
        116.5195314,
        23.9117991
      ],
      [
        116.5175894,
        23.9113757
      ],
      [
        116.5163783,
        23.9121216
      ],
      [
        116.5158296,
        23.91303
      ],
      [
        116.5143583,
        23.9136979
      ],
      [
        116.5136571,
        23.9137287
      ],
      [
        116.5131821,
        23.9156235
      ],
      [
        116.5120743,
        23.9151864
      ],
      [
        116.5079085,
        23.9143406
      ],
      [
        116.5071973,
        23.9149328
      ],
      [
        116.5062898,
        23.9145931
      ],
      [
        116.5054515,
        23.9137556
      ],
      [
        116.5046238,
        23.9117621
      ],
      [
        116.5042895,
        23.9115259
      ],
      [
        116.504016,
        23.9115121
      ],
      [
        116.5037881,
        23.9116788
      ],
      [
        116.5034234,
        23.9113384
      ],
      [
        116.5032154,
        23.9109067
      ],
      [
        116.5032683,
        23.9096902
      ],
      [
        116.5034538,
        23.9088968
      ],
      [
        116.5029631,
        23.908058
      ],
      [
        116.502375,
        23.9066049
      ],
      [
        116.5020412,
        23.9064088
      ],
      [
        116.5009286,
        23.9065323
      ],
      [
        116.5000477,
        23.9072207
      ],
      [
        116.5001587,
        23.907559
      ],
      [
        116.4996565,
        23.9077717
      ],
      [
        116.4995243,
        23.9080907
      ],
      [
        116.4994649,
        23.908483
      ],
      [
        116.4996694,
        23.9097317
      ],
      [
        116.4996542,
        23.909968
      ],
      [
        116.4994033,
        23.910385
      ],
      [
        116.499207,
        23.9105185
      ],
      [
        116.4988701,
        23.9106285
      ],
      [
        116.4986184,
        23.910637
      ],
      [
        116.4984463,
        23.9107501
      ],
      [
        116.4981274,
        23.9114587
      ],
      [
        116.4977825,
        23.9116766
      ],
      [
        116.4974148,
        23.9117346
      ],
      [
        116.4970463,
        23.9116743
      ],
      [
        116.4966431,
        23.9114494
      ],
      [
        116.4964474,
        23.9110999
      ],
      [
        116.4963187,
        23.9105094
      ],
      [
        116.4961356,
        23.9092624
      ],
      [
        116.4954829,
        23.9082277
      ],
      [
        116.4952876,
        23.9075742
      ],
      [
        116.4950979,
        23.9071812
      ],
      [
        116.4944883,
        23.9062558
      ],
      [
        116.4940337,
        23.905934
      ],
      [
        116.4933843,
        23.9057371
      ],
      [
        116.4929377,
        23.9054772
      ],
      [
        116.4926691,
        23.9054191
      ],
      [
        116.4923614,
        23.9054701
      ],
      [
        116.4921919,
        23.9057373
      ],
      [
        116.4920047,
        23.9062692
      ],
      [
        116.4918962,
        23.9069585
      ],
      [
        116.4916858,
        23.9074395
      ],
      [
        116.4914424,
        23.907671
      ],
      [
        116.4912377,
        23.9077337
      ],
      [
        116.4909639,
        23.9077301
      ],
      [
        116.4900464,
        23.9076191
      ],
      [
        116.4886662,
        23.9069872
      ],
      [
        116.4881394,
        23.9066845
      ],
      [
        116.4874987,
        23.9060097
      ],
      [
        116.4872271,
        23.9058728
      ],
      [
        116.4867815,
        23.9057677
      ],
      [
        116.4864507,
        23.9057677
      ],
      [
        116.4859037,
        23.9055889
      ],
      [
        116.4838372,
        23.9045492
      ],
      [
        116.4824931,
        23.9051677
      ],
      [
        116.4808736,
        23.9052073
      ],
      [
        116.4758828,
        23.9065136
      ],
      [
        116.4736397,
        23.9087305
      ],
      [
        116.4717838,
        23.9102024
      ],
      [
        116.4708989,
        23.9106181
      ],
      [
        116.46632793,
        23.91187442
      ]
    ]
  }
}