{
  "type": "Feature",
  "properties": {
    "name": "西溪-梅溪-榕江"
  },
  "geometry": {
    "type": "LineString",
    "coordinates": [
      [
        116.7102974,
        23.4743991
      ],
      [
        116.7052646,
        23.4609413
      ],
      [
        116.6974247,
        23.4598087
      ],
      [
        116.69730826,
        23.45897196
      ],
      [
        116.6966839,
        23.4544855
      ],
      [
        116.693906,
        23.4498417
      ],
      [
        116.6960666,
        23.4453676
      ],
      [
        116.6983695,
        23.439703
      ],
      [
        116.6970955,
        23.431651
      ],
      [
        116.6943443,
        23.4244528
      ],
      [
        116.6990092,
        23.4134403
      ],
      [
        116.6961192,
        23.4043221
      ],
      [
        116.6933155,
        23.3976397
      ],
      [
        116.6928773,
        23.3929928
      ],
      [
        116.6866542,
        23.385721
      ],
      [
        116.6865025,
        23.3772979
      ],
      [
        116.6818477,
        23.3676285
      ],
      [
        116.6756182,
        23.3660095
      ],
      [
        116.6738562,
        23.3645221
      ],
      [
        116.6724511,
        23.3644447
      ],
      [
        116.6648637,
        23.3600591
      ],
      [
        116.6607545,
        23.3590756
      ],
      [
        116.6576368,
        23.3545308
      ],
      [
        116.6587653,
        23.3433932
      ],
      [
        116.6589027,
        23.34225996
      ]
    ]
  }
}