{
  "type": "Feature",
  "properties": {
    "name": "西溪-新津河-海"
  },
  "geometry": {
    "type": "LineString",
    "coordinates": [
      [
        116.7102974,
        23.4743991
      ],
      [
        116.7079928,
        23.4608295
      ],
      [
        116.709872,
        23.4531509
      ],
      [
        116.7127701,
        23.4500633
      ],
      [
        116.7212776,
        23.4480478
      ],
      [
        116.7282892,
        23.4429445
      ],
      [
        116.732152,
        23.4394725
      ],
      [
        116.733238,
        23.4301996
      ],
      [
        116.7309797,
        23.4233613
      ],
      [
        116.7350033,
        23.4141777
      ],
      [
        116.7389044,
        23.4128163
      ],
      [
        116.7482452,
        23.4151861
      ],
      [
        116.7522013,
        23.4128667
      ],
      [
        116.7549486,
        23.4053536
      ],
      [
        116.7620036,
        23.3974107
      ],
      [
        116.7639589,
        23.390927
      ],
      [
        116.7631817,
        23.3826557
      ],
      [
        116.7656437,
        23.3717382
      ],
      [
        116.7681508,
        23.358313
      ],
      [
        116.7698152,
        23.3540643
      ],
      [
        116.7919276,
        23.3348925
      ]
    ]
  }
}