{
  "type": "Feature",
  "properties": {
    "name": "西溪-外砂河-海"
  },
  "geometry": {
    "type": "LineString",
    "coordinates": [
      [
        116.7102974,
        23.4743991
      ],
      [
        116.7182692,
        23.4709803
      ],
      [
        116.728322,
        23.4618502
      ],
      [
        116.7946522,
        23.4341306
      ],
      [
        116.8034799,
        23.4260308
      ],
      [
        116.8085105,
        23.4000358
      ],
      [
        116.833366,
        23.3757619
      ]
    ]
  }
}