{
  "type": "Feature",
  "properties": {
    "name": "韩江-北溪-义丰溪"
  },
  "geometry": {
    "type": "LineString",
    "coordinates": [
      [
        116.6498981,
        23.6583439
      ],
      [
        116.6542619,
        23.6506703
      ],
      [
        116.6560944,
        23.6495164
      ],
      [
        116.6570354,
        23.6486078
      ],
      [
        116.659655,
        23.6474313
      ],
      [
        116.6614099,
        23.6458703
      ],
      [
        116.6657544,
        23.6451748
      ],
      [
        116.6696681,
        23.6464339
      ],
      [
        116.6725801,
        23.6492721
      ],
      [
        116.6782548,
        23.6513039
      ],
      [
        116.6793794,
        23.6510229
      ],
      [
        116.6848495,
        23.6494542
      ],
      [
        116.6889987,
        23.6487998
      ],
      [
        116.6914758,
        23.6481624
      ],
      [
        116.6937991,
        23.6469801
      ],
      [
        116.6973026,
        23.6522161
      ],
      [
        116.7007088,
        23.6533975
      ],
      [
        116.7041846,
        23.6511555
      ],
      [
        116.7053972,
        23.6479158
      ],
      [
        116.7060793,
        23.646319
      ],
      [
        116.7082014,
        23.6457636
      ],
      [
        116.7124919,
        23.6491103
      ],
      [
        116.716361,
        23.6484988
      ],
      [
        116.7215489,
        23.6463256
      ],
      [
        116.7213766,
        23.6436178
      ],
      [
        116.7163607,
        23.6415462
      ],
      [
        116.7180126,
        23.6393507
      ],
      [
        116.7201542,
        23.6402073
      ],
      [
        116.7224013,
        23.6394474
      ],
      [
        116.7205721,
        23.6355792
      ],
      [
        116.7236404,
        23.6259238
      ],
      [
        116.7326517,
        23.6232163
      ],
      [
        116.7398036,
        23.6191481
      ],
      [
        116.7433581,
        23.6183538
      ],
      [
        116.747305,
        23.6072916
      ],
      [
        116.7506404,
        23.6056216
      ],
      [
        116.7528411,
        23.6054326
      ],
      [
        116.7539414,
        23.6041092
      ],
      [
        116.7541495,
        23.6012382
      ],
      [
        116.7521267,
        23.5965892
      ],
      [
        116.7526101,
        23.5919928
      ],
      [
        116.7564424,
        23.590414
      ],
      [
        116.7620325,
        23.5918918
      ],
      [
        116.7668158,
        23.5939266
      ],
      [
        116.7711228,
        23.5932855
      ],
      [
        116.7729942,
        23.5912924
      ],
      [
        116.7727747,
        23.5890484
      ],
      [
        116.7687122,
        23.5827477
      ],
      [
        116.7683625,
        23.5801103
      ],
      [
        116.7708483,
        23.5772539
      ],
      [
        116.7749295,
        23.5764378
      ],
      [
        116.7892021,
        23.5771767
      ],
      [
        116.7874778,
        23.572518
      ],
      [
        116.7891974,
        23.5692081
      ],
      [
        116.7977993,
        23.566816
      ],
      [
        116.8017465,
        23.5688364
      ],
      [
        116.8062577,
        23.5659702
      ],
      [
        116.806823,
        23.5650215
      ],
      [
        116.8076885,
        23.5603773
      ]
    ]
  }
}