{
  "type": "Feature",
  "properties": {
    "name": "韩江-东溪-分"
  },
  "geometry": {
    "type": "LineString",
    "coordinates": [
      [
        116.6498981,
        23.6583439
      ],
      [
        116.6501172,
        23.6452873
      ],
      [
        116.6342972,
        23.6348739
      ],
      [
        116.6358757,
        23.6243515
      ],
      [
        116.6519626,
        23.6225383
      ],
      [
        116.6799972,
        23.5975981
      ],
      [
        116.6861621,
        23.593145
      ],
      [
        116.6985552,
        23.5749524
      ],
      [
        116.7128248,
        23.5666524
      ],
      [
        116.7163489,
        23.5519296
      ],
      [
        116.7317929,
        23.5464744
      ],
      [
        116.7396772,
        23.5346891
      ]
    ]
  }
}