{
  "type": "Feature",
  "properties": {
    "name": "韩江-西溪-分"
  },
  "geometry": {
    "type": "LineString",
    "coordinates": [
      [
        116.6498981,
        23.6583439
      ],
      [
        116.6344018,
        23.6473863
      ],
      [
        116.6193392,
        23.625195
      ],
      [
        116.6289405,
        23.6152682
      ],
      [
        116.6443977,
        23.6058389
      ],
      [
        116.6529583,
        23.5577661
      ],
      [
        116.6565382,
        23.5479211
      ],
      [
        116.6653458,
        23.5462209
      ],
      [
        116.6797024,
        23.5561342
      ],
      [
        116.6866942,
        23.5581851
      ],
      [
        116.6941521,
        23.5551942
      ],
      [
        116.7022233,
        23.5444668
      ],
      [
        116.6981957,
        23.5200208
      ],
      [
        116.7048516,
        23.4993563
      ],
      [
        116.7102974,
        23.4743991
      ]
    ]
  }
}