{
  "type": "FeatureCollection",
  "name": "railways",
  "properties": {
    "description": "潮汕境内客运铁路合并版（杭深铁路厦深段/广梅汕铁路/甬广铁路汕广段，两端拖尾出界）；由 merge_railways.py 从 lines/railways/ 各线路生成，源文件未改动。"
  },
  "features": [
    {
      "type": "Feature",
      "properties": {
        "name": "广梅汕铁路（局部）",
        "slice": "建桥-汕头",
        "railtype": "高速铁路",
        "description": "梅州至潮汕段（局部） - 深汕联络线 - 龙湖南至汕头段",
        "stations": [
          "揭阳站",
          "揭阳潮汕国际机场",
          "潮汕站",
          "潮安站",
          "汕头站"
        ]
      },
      "geometry": {
        "type": "LineString",
        "coordinates": [
          [
            116.106389,
            23.928234
          ],
          [
            116.113416,
            23.91788
          ],
          [
            116.179224,
            23.815049
          ],
          [
            116.180408,
            23.812749
          ],
          [
            116.190219,
            23.79266
          ],
          [
            116.194106,
            23.775011
          ],
          [
            116.195116,
            23.763344
          ],
          [
            116.196299,
            23.758893
          ],
          [
            116.21406,
            23.73773
          ],
          [
            116.240093,
            23.715176
          ],
          [
            116.256475,
            23.700276
          ],
          [
            116.258838,
            23.697051
          ],
          [
            116.264234,
            23.679995
          ],
          [
            116.269969,
            23.668007
          ],
          [
            116.294933,
            23.645546
          ],
          [
            116.296113,
            23.643393
          ],
          [
            116.300831,
            23.633089
          ],
          [
            116.303021,
            23.62909
          ],
          [
            116.307067,
            23.624165
          ],
          [
            116.311281,
            23.620316
          ],
          [
            116.320047,
            23.614768
          ],
          [
            116.32715492,
            23.61069673
          ],
          [
            116.335388,
            23.605981
          ],
          [
            116.339939,
            23.603513
          ],
          [
            116.345335,
            23.601354
          ],
          [
            116.358321,
            23.598261
          ],
          [
            116.374688,
            23.596093
          ],
          [
            116.390561,
            23.597778
          ],
          [
            116.406274,
            23.599934
          ],
          [
            116.409824,
            23.59963
          ],
          [
            116.41591,
            23.598559
          ],
          [
            116.430624,
            23.591354
          ],
          [
            116.440436,
            23.582456
          ],
          [
            116.451607,
            23.57218
          ],
          [
            116.455839,
            23.56727
          ],
          [
            116.459393,
            23.562205
          ],
          [
            116.459732,
            23.561591
          ],
          [
            116.473449,
            23.5461
          ],
          [
            116.479884,
            23.537508
          ],
          [
            116.483612,
            23.535058
          ],
          [
            116.487847,
            23.53338
          ],
          [
            116.490728,
            23.532929
          ],
          [
            116.49327,
            23.532936
          ],
          [
            116.497847,
            23.53372
          ],
          [
            116.502593,
            23.536042
          ],
          [
            116.505644,
            23.538205
          ],
          [
            116.509036,
            23.542061
          ],
          [
            116.51336526,
            23.54649241
          ],
          [
            116.523954,
            23.557331
          ],
          [
            116.526834,
            23.557955
          ],
          [
            116.528697,
            23.557652
          ],
          [
            116.537842,
            23.555524
          ],
          [
            116.541059,
            23.553686
          ],
          [
            116.54732,
            23.54755
          ],
          [
            116.548166,
            23.545859
          ],
          [
            116.549856,
            23.539865
          ],
          [
            116.550702,
            23.538176
          ],
          [
            116.551717,
            23.536948
          ],
          [
            116.570495,
            23.536056
          ],
          [
            116.576582,
            23.538369
          ],
          [
            116.580301,
            23.540065
          ],
          [
            116.587062,
            23.54253
          ],
          [
            116.58771894,
            23.54275718
          ],
          [
            116.617289,
            23.552983
          ],
          [
            116.625725,
            23.55559
          ],
          [
            116.627749,
            23.555895
          ],
          [
            116.629435,
            23.555894
          ],
          [
            116.631796,
            23.555121
          ],
          [
            116.63264,
            23.554659
          ],
          [
            116.634831,
            23.552965
          ],
          [
            116.63601,
            23.550965
          ],
          [
            116.644602,
            23.536497
          ],
          [
            116.649657,
            23.529568
          ],
          [
            116.669365,
            23.502464
          ],
          [
            116.683347,
            23.487364
          ],
          [
            116.69058209,
            23.47571028
          ],
          [
            116.693959,
            23.470271
          ],
          [
            116.698677,
            23.461955
          ],
          [
            116.699855,
            23.459184
          ],
          [
            116.711311,
            23.434856
          ],
          [
            116.719738,
            23.41915
          ],
          [
            116.721762,
            23.41607
          ],
          [
            116.724122,
            23.413145
          ],
          [
            116.732893,
            23.403289
          ],
          [
            116.741162,
            23.394821
          ],
          [
            116.748588,
            23.384816
          ],
          [
            116.750951,
            23.381738
          ],
          [
            116.751457,
            23.380506
          ],
          [
            116.75155364,
            23.37464735
          ]
        ]
      }
    },
    {
      "type": "Feature",
      "properties": {
        "name": "杭深铁路厦深段（局部）",
        "slice": "云霄-陆丰",
        "railtype": "快速铁路",
        "description": "厦深段（局部）",
        "stations": [
          "诏安站",
          "饶平站",
          "潮汕站",
          "潮阳站",
          "普宁站",
          "葵潭站"
        ]
      },
      "geometry": {
        "type": "LineString",
        "coordinates": [
          [
            117.35554,
            23.891279
          ],
          [
            117.344253,
            23.878777
          ],
          [
            117.340711,
            23.874794
          ],
          [
            117.324186,
            23.858097
          ],
          [
            117.313393,
            23.843844
          ],
          [
            117.29636,
            23.824227
          ],
          [
            117.286578,
            23.81764
          ],
          [
            117.281348,
            23.814883
          ],
          [
            117.276119,
            23.812893
          ],
          [
            117.26937,
            23.810749
          ],
          [
            117.262451,
            23.809218
          ],
          [
            117.258738,
            23.808759
          ],
          [
            117.251985,
            23.808299
          ],
          [
            117.217182,
            23.808431
          ],
          [
            117.20044,
            23.805797
          ],
          [
            117.17489,
            23.798839
          ],
          [
            117.160167,
            23.794663
          ],
          [
            117.152043,
            23.791423
          ],
          [
            117.151197,
            23.791114
          ],
          [
            117.144429,
            23.788951
          ],
          [
            117.141045,
            23.788177
          ],
          [
            117.138169,
            23.787712
          ],
          [
            117.124131,
            23.786001
          ],
          [
            117.116862,
            23.784455
          ],
          [
            117.09333582,
            23.77345121
          ],
          [
            117.092865,
            23.773231
          ],
          [
            117.074633,
            23.763408
          ],
          [
            117.068053,
            23.760648
          ],
          [
            117.061813,
            23.758506
          ],
          [
            117.026262,
            23.751661
          ],
          [
            116.983166,
            23.739031
          ],
          [
            116.95774,
            23.728038
          ],
          [
            116.937014,
            23.71748
          ],
          [
            116.92906837,
            23.71336875
          ],
          [
            116.915088,
            23.706135
          ],
          [
            116.893815,
            23.696306
          ],
          [
            116.89145,
            23.695383
          ],
          [
            116.807872,
            23.627326
          ],
          [
            116.797041,
            23.619774
          ],
          [
            116.792642,
            23.617614
          ],
          [
            116.779955,
            23.612521
          ],
          [
            116.764062,
            23.6062
          ],
          [
            116.738888,
            23.594044
          ],
          [
            116.720319,
            23.584827
          ],
          [
            116.714414,
            23.582218
          ],
          [
            116.705474,
            23.579767
          ],
          [
            116.698898,
            23.578237
          ],
          [
            116.677992,
            23.573041
          ],
          [
            116.629435,
            23.555894
          ],
          [
            116.627749,
            23.555895
          ],
          [
            116.625725,
            23.55559
          ],
          [
            116.617289,
            23.552983
          ],
          [
            116.58771894,
            23.54275718
          ],
          [
            116.587062,
            23.54253
          ],
          [
            116.580301,
            23.540065
          ],
          [
            116.576582,
            23.538369
          ],
          [
            116.570495,
            23.536056
          ],
          [
            116.562375,
            23.532815
          ],
          [
            116.558144,
            23.530501
          ],
          [
            116.555266,
            23.528649
          ],
          [
            116.551542,
            23.52572
          ],
          [
            116.547985,
            23.522175
          ],
          [
            116.543243,
            23.516472
          ],
          [
            116.528317,
            23.465974
          ],
          [
            116.522549,
            23.448722
          ],
          [
            116.511865,
            23.427144
          ],
          [
            116.509321,
            23.423134
          ],
          [
            116.50576,
            23.418813
          ],
          [
            116.50203,
            23.415261
          ],
          [
            116.496944,
            23.411704
          ],
          [
            116.492198,
            23.409226
          ],
          [
            116.487451,
            23.407364
          ],
          [
            116.48457,
            23.406276
          ],
          [
            116.462369,
            23.398666
          ],
          [
            116.434763,
            23.38921
          ],
          [
            116.423594,
            23.384111
          ],
          [
            116.41833227,
            23.38172817
          ],
          [
            116.39975,
            23.373313
          ],
          [
            116.390288,
            23.369001
          ],
          [
            116.364623,
            23.355466
          ],
          [
            116.349268,
            23.345936
          ],
          [
            116.343532,
            23.343019
          ],
          [
            116.335606,
            23.34026
          ],
          [
            116.313513,
            23.333982
          ],
          [
            116.291248,
            23.327701
          ],
          [
            116.275553,
            23.322943
          ],
          [
            116.236694,
            23.301384
          ],
          [
            116.219779,
            23.290895
          ],
          [
            116.216902,
            23.289042
          ],
          [
            116.211993,
            23.28503
          ],
          [
            116.205899,
            23.278704
          ],
          [
            116.1958268,
            23.26838489
          ],
          [
            116.181341,
            23.253544
          ],
          [
            116.161179,
            23.231
          ],
          [
            116.142373,
            23.206454
          ],
          [
            116.134071,
            23.191795
          ],
          [
            116.120689,
            23.1651
          ],
          [
            116.11307,
            23.15075
          ],
          [
            116.109685,
            23.145349
          ],
          [
            116.083644,
            23.12205
          ],
          [
            116.073846,
            23.117117
          ],
          [
            116.042793,
            23.102966
          ],
          [
            116.033351,
            23.09882
          ],
          [
            116.027619,
            23.095439
          ],
          [
            116.023741,
            23.092517
          ],
          [
            116.019526,
            23.088516
          ],
          [
            116.013963,
            23.082822
          ],
          [
            116.004357,
            23.074979
          ],
          [
            115.99533243,
            23.06780234
          ],
          [
            115.980764,
            23.056217
          ],
          [
            115.961381,
            23.044846
          ],
          [
            115.94806,
            23.040708
          ],
          [
            115.891494,
            23.024543
          ],
          [
            115.851557,
            23.007975
          ],
          [
            115.846138,
            23.00534
          ],
          [
            115.814631,
            22.986439
          ],
          [
            115.809379,
            22.983957
          ],
          [
            115.804468,
            22.981939
          ],
          [
            115.801251,
            22.980698
          ],
          [
            115.781272,
            22.973097
          ],
          [
            115.767058,
            22.967673
          ],
          [
            115.760968,
            22.965351
          ],
          [
            115.754372,
            22.96164
          ],
          [
            115.727091,
            22.948791
          ]
        ]
      }
    },
    {
      "type": "Feature",
      "properties": {
        "name": "甬广铁路汕广段（局部）",
        "slice": "汕头-陆丰南",
        "railtype": "高速铁路",
        "description": "汕汕铁路（局部）",
        "stations": [
          "汕头站",
          "汕头南站",
          "潮南站",
          "惠来站"
        ]
      },
      "geometry": {
        "type": "LineString",
        "coordinates": [
          [
            116.75155364,
            23.37464735
          ],
          [
            116.752631,
            23.359413
          ],
          [
            116.752286,
            23.346631
          ],
          [
            116.74787,
            23.291025
          ],
          [
            116.747024,
            23.286403
          ],
          [
            116.745333,
            23.280703
          ],
          [
            116.742966,
            23.275156
          ],
          [
            116.741614,
            23.272536
          ],
          [
            116.739079,
            23.268375
          ],
          [
            116.737052,
            23.265756
          ],
          [
            116.731647,
            23.259594
          ],
          [
            116.725232,
            23.254203
          ],
          [
            116.715781,
            23.247892
          ],
          [
            116.706334,
            23.242815
          ],
          [
            116.701611,
            23.240817
          ],
          [
            116.67375941,
            23.23006098
          ],
          [
            116.647156,
            23.219787
          ],
          [
            116.64311,
            23.218252
          ],
          [
            116.607682,
            23.208729
          ],
          [
            116.601436,
            23.207189
          ],
          [
            116.598227,
            23.205956
          ],
          [
            116.595018,
            23.204722
          ],
          [
            116.589611,
            23.201946
          ],
          [
            116.58285,
            23.197164
          ],
          [
            116.57727,
            23.191762
          ],
          [
            116.572534,
            23.1859
          ],
          [
            116.554931,
            23.162589
          ],
          [
            116.549343,
            23.155947
          ],
          [
            116.52838829,
            23.13572106
          ],
          [
            116.525794,
            23.133217
          ],
          [
            116.522574,
            23.130122
          ],
          [
            116.504096,
            23.113097
          ],
          [
            116.497993,
            23.108604
          ],
          [
            116.460703,
            23.087044
          ],
          [
            116.459178,
            23.086114
          ],
          [
            116.442239,
            23.07666
          ],
          [
            116.438006,
            23.074183
          ],
          [
            116.433773,
            23.071243
          ],
          [
            116.389464,
            23.038487
          ],
          [
            116.384226,
            23.034011
          ],
          [
            116.364133,
            23.016274
          ],
          [
            116.361264,
            23.013962
          ],
          [
            116.354851,
            23.009801
          ],
          [
            116.351139,
            23.007953
          ],
          [
            116.344054,
            23.004876
          ],
          [
            116.335959,
            23.002418
          ],
          [
            116.331912,
            23.001498
          ],
          [
            116.286204,
            22.995084
          ],
          [
            116.28315489,
            22.99466842
          ],
          [
            116.263924,
            22.99186
          ],
          [
            116.254465,
            22.990164
          ],
          [
            116.251762,
            22.989392
          ],
          [
            116.20593,
            22.974993
          ],
          [
            116.175961,
            22.96567
          ],
          [
            116.168509,
            22.962721
          ],
          [
            116.16241,
            22.959618
          ],
          [
            116.15445,
            22.95466
          ],
          [
            116.123121,
            22.93097
          ],
          [
            116.117368,
            22.92741
          ],
          [
            116.112968,
            22.925087
          ],
          [
            116.107386,
            22.922764
          ],
          [
            116.101298,
            22.920752
          ],
          [
            116.042367,
            22.905497
          ],
          [
            116.035285,
            22.904122
          ],
          [
            116.029892,
            22.903516
          ],
          [
            116.010681,
            22.902792
          ],
          [
            115.993329,
            22.902531
          ],
          [
            115.973955,
            22.901966
          ],
          [
            115.947491,
            22.901254
          ],
          [
            115.94024,
            22.901112
          ],
          [
            115.91695,
            22.900521
          ],
          [
            115.911378,
            22.900833
          ],
          [
            115.905803,
            22.901298
          ],
          [
            115.89989,
            22.902226
          ],
          [
            115.890763,
            22.904231
          ],
          [
            115.876727,
            22.907619
          ],
          [
            115.857099,
            22.911919
          ],
          [
            115.8063,
            22.913207
          ],
          [
            115.796987,
            22.912571
          ],
          [
            115.791399,
            22.911634
          ],
          [
            115.78649,
            22.910389
          ],
          [
            115.774981,
            22.906355
          ],
          [
            115.767029,
            22.90341
          ],
          [
            115.761277,
            22.90155
          ],
          [
            115.756542,
            22.900465
          ],
          [
            115.747243,
            22.89907
          ],
          [
            115.73947,
            22.898606
          ],
          [
            115.724268,
            22.899073
          ],
          [
            115.716334,
            22.898616
          ],
          [
            115.707388,
            22.897697
          ],
          [
            115.702325,
            22.897394
          ],
          [
            115.677866,
            22.897274
          ],
          [
            115.672131,
            22.89682
          ],
          [
            115.667072,
            22.895901
          ],
          [
            115.655608,
            22.893179
          ]
        ]
      }
    }
  ]
}