{
  "type": "Feature",
  "properties": {
    "adcode": 350626,
    "name": "东山",
    "parent": "漳州"
  },
  "geometry": {
    "type": "Polygon",
    "coordinates": [
      [
        [
          117.5353105,
          23.737796
        ],
        [
          117.5172081,
          23.7447501
        ],
        [
          117.5152529,
          23.7480482
        ],
        [
          117.5121444,
          23.747353
        ],
        [
          117.5137308,
          23.7512894
        ],
        [
          117.5026856,
          23.7514437
        ],
        [
          117.50245,
          23.7545357
        ],
        [
          117.4986295,
          23.7506944
        ],
        [
          117.4969585,
          23.7523623
        ],
        [
          117.5000124,
          23.7558661
        ],
        [
          117.4973109,
          23.7580211
        ],
        [
          117.5002734,
          23.7601805
        ],
        [
          117.497466,
          23.7622505
        ],
        [
          117.4941316,
          23.7598701
        ],
        [
          117.4898776,
          23.7631136
        ],
        [
          117.4854028,
          23.7621367
        ],
        [
          117.4851402,
          23.7582272
        ],
        [
          117.4822421,
          23.7603726
        ],
        [
          117.4700437,
          23.7542146
        ],
        [
          117.4671412,
          23.7514181
        ],
        [
          117.469891,
          23.7454055
        ],
        [
          117.467294,
          23.745825
        ],
        [
          117.467294,
          23.7442869
        ],
        [
          117.4637804,
          23.7445666
        ],
        [
          117.4616418,
          23.7423292
        ],
        [
          117.4533925,
          23.745825
        ],
        [
          117.4462127,
          23.7447064
        ],
        [
          117.4430046,
          23.7403715
        ],
        [
          117.4368941,
          23.7416301
        ],
        [
          117.4332278,
          23.750719
        ],
        [
          117.4281866,
          23.7522571
        ],
        [
          117.4254369,
          23.7605064
        ],
        [
          117.400842,
          23.7765841
        ],
        [
          117.3954953,
          23.783434
        ],
        [
          117.3869406,
          23.7838533
        ],
        [
          117.3747195,
          23.7772828
        ],
        [
          117.3661648,
          23.7700132
        ],
        [
          117.3702894,
          23.7655394
        ],
        [
          117.3507357,
          23.752117
        ],
        [
          117.348597,
          23.7483417
        ],
        [
          117.3490553,
          23.7386933
        ],
        [
          117.3524161,
          23.7332395
        ],
        [
          117.347986,
          23.7275057
        ],
        [
          117.3513468,
          23.7241493
        ],
        [
          117.3556241,
          23.7303027
        ],
        [
          117.3617347,
          23.7216319
        ],
        [
          117.359596,
          23.7132402
        ],
        [
          117.3504302,
          23.7020505
        ],
        [
          117.3411116,
          23.695616
        ],
        [
          117.3394312,
          23.6859637
        ],
        [
          117.3484443,
          23.6751913
        ],
        [
          117.3589849,
          23.6721134
        ],
        [
          117.3641789,
          23.6729528
        ],
        [
          117.365401,
          23.6702945
        ],
        [
          117.371206,
          23.671134
        ],
        [
          117.3786914,
          23.6631589
        ],
        [
          117.3812884,
          23.6701546
        ],
        [
          117.3832743,
          23.6680559
        ],
        [
          117.3805245,
          23.6638584
        ],
        [
          117.3820522,
          23.6624593
        ],
        [
          117.3869406,
          23.6666568
        ],
        [
          117.3898431,
          23.6606403
        ],
        [
          117.3925364,
          23.6628764
        ],
        [
          117.3986469,
          23.6553205
        ],
        [
          117.3968138,
          23.6536414
        ],
        [
          117.3946751,
          23.6553205
        ],
        [
          117.3903977,
          23.6500032
        ],
        [
          117.3919253,
          23.6472045
        ],
        [
          117.3888701,
          23.6480441
        ],
        [
          117.3775656,
          23.6430063
        ],
        [
          117.3731355,
          23.643846
        ],
        [
          117.3755797,
          23.6354493
        ],
        [
          117.3732882,
          23.6367089
        ],
        [
          117.361831,
          23.6197742
        ],
        [
          117.3590813,
          23.6207539
        ],
        [
          117.3575536,
          23.611236
        ],
        [
          117.3497627,
          23.6087164
        ],
        [
          117.3462492,
          23.6116559
        ],
        [
          117.3455075,
          23.6084687
        ],
        [
          117.3425353,
          23.6083553
        ],
        [
          117.34204,
          23.6014331
        ],
        [
          117.3377056,
          23.6013196
        ],
        [
          117.3323604,
          23.5936478
        ],
        [
          117.3257818,
          23.5904801
        ],
        [
          117.3258933,
          23.587108
        ],
        [
          117.3196492,
          23.5842468
        ],
        [
          117.3189802,
          23.5788307
        ],
        [
          117.3160812,
          23.5781154
        ],
        [
          117.3163042,
          23.5735166
        ],
        [
          117.3257818,
          23.57321
        ],
        [
          117.3325834,
          23.5772978
        ],
        [
          117.3381584,
          23.5763781
        ],
        [
          117.3506466,
          23.5812833
        ],
        [
          117.3596782,
          23.5821008
        ],
        [
          117.3672603,
          23.5796483
        ],
        [
          117.3696018,
          23.5745386
        ],
        [
          117.3681523,
          23.5676913
        ],
        [
          117.3801944,
          23.5767869
        ],
        [
          117.3850505,
          23.5763976
        ],
        [
          117.3989729,
          23.5813673
        ],
        [
          117.4032962,
          23.5815687
        ],
        [
          117.4049083,
          23.5787481
        ],
        [
          117.4228394,
          23.5888242
        ],
        [
          117.4290821,
          23.5884043
        ],
        [
          117.430113,
          23.5833654
        ],
        [
          117.4323466,
          23.5823157
        ],
        [
          117.4379593,
          23.5834179
        ],
        [
          117.4433612,
          23.592251
        ],
        [
          117.4372679,
          23.5925612
        ],
        [
          117.4339095,
          23.5986192
        ],
        [
          117.4259369,
          23.5926284
        ],
        [
          117.4182335,
          23.59979
        ],
        [
          117.4158106,
          23.6081437
        ],
        [
          117.4152604,
          23.628489
        ],
        [
          117.4181661,
          23.6419375
        ],
        [
          117.4241493,
          23.6534004
        ],
        [
          117.4345428,
          23.6626316
        ],
        [
          117.4440338,
          23.6650331
        ],
        [
          117.4458064,
          23.6640522
        ],
        [
          117.4458803,
          23.6571856
        ],
        [
          117.4483444,
          23.6595463
        ],
        [
          117.4526317,
          23.6604976
        ],
        [
          117.454975,
          23.6585707
        ],
        [
          117.4563597,
          23.6602293
        ],
        [
          117.4587829,
          23.6574243
        ],
        [
          117.4567325,
          23.6563023
        ],
        [
          117.4610868,
          23.65129
        ],
        [
          117.4708318,
          23.6568876
        ],
        [
          117.4797086,
          23.6533649
        ],
        [
          117.4805104,
          23.6553847
        ],
        [
          117.488278,
          23.6568306
        ],
        [
          117.489581,
          23.6623363
        ],
        [
          117.4823983,
          23.6682486
        ],
        [
          117.4751816,
          23.6693658
        ],
        [
          117.471575,
          23.6784292
        ],
        [
          117.4721086,
          23.6911097
        ],
        [
          117.4769754,
          23.7029164
        ],
        [
          117.4823527,
          23.7071912
        ],
        [
          117.4892644,
          23.7058441
        ],
        [
          117.4850256,
          23.7138648
        ],
        [
          117.4855799,
          23.7202308
        ],
        [
          117.4959091,
          23.7266427
        ],
        [
          117.5010969,
          23.7274443
        ],
        [
          117.5004377,
          23.7242062
        ],
        [
          117.5034282,
          23.722116
        ],
        [
          117.5032674,
          23.7194518
        ],
        [
          117.5101372,
          23.7185786
        ],
        [
          117.5078805,
          23.7158237
        ],
        [
          117.5093918,
          23.7145283
        ],
        [
          117.5164542,
          23.7143143
        ],
        [
          117.5176605,
          23.7198021
        ],
        [
          117.5211634,
          23.7225942
        ],
        [
          117.5195789,
          23.7258385
        ],
        [
          117.5208967,
          23.7318026
        ],
        [
          117.5277639,
          23.7367598
        ],
        [
          117.5292402,
          23.7345846
        ],
        [
          117.533508,
          23.7342577
        ],
        [
          117.5353754,
          23.7378492
        ],
        [
          117.5353105,
          23.737796
        ]
      ]
    ]
  }
}
