{
  "type": "Feature",
  "properties": {
    "name": "榕江-濠江-海"
  },
  "geometry": {
    "type": "LineString",
    "coordinates": [
      [
        116.63630315,
        23.33951982
      ],
      [
        116.6385184,
        23.3212493
      ],
      [
        116.6470959,
        23.3148314
      ],
      [
        116.6512463,
        23.3131109
      ],
      [
        116.6532681,
        23.3086995
      ],
      [
        116.6597943,
        23.2994503
      ],
      [
        116.6653728,
        23.2979455
      ],
      [
        116.6691958,
        23.2969064
      ],
      [
        116.6721575,
        23.2931599
      ],
      [
        116.6826243,
        23.2912333
      ],
      [
        116.6928844,
        23.2746889
      ],
      [
        116.700765,
        23.2746652
      ],
      [
        116.715133,
        23.2799789
      ],
      [
        116.7194247,
        23.2792933
      ],
      [
        116.7240896,
        23.2715798
      ],
      [
        116.7268992,
        23.2591437
      ],
      [
        116.744034,
        23.2558521
      ],
      [
        116.7438059,
        23.2308792
      ]
    ]
  }
}