{
  "type": "Feature",
  "properties": {
    "name": "源-贺江-龙江"
  },
  "geometry": {
    "type": "LineString",
    "coordinates": [
      [
        115.794837,
        23.1942651
      ],
      [
        115.7947476,
        23.192538
      ],
      [
        115.8000267,
        23.1870274
      ],
      [
        115.79951,
        23.185458
      ],
      [
        115.7996916,
        23.1829811
      ],
      [
        115.8004788,
        23.1814503
      ],
      [
        115.8004235,
        23.1804706
      ],
      [
        115.800797,
        23.179513
      ],
      [
        115.8015242,
        23.1792781
      ],
      [
        115.8023498,
        23.1794588
      ],
      [
        115.8041975,
        23.1779229
      ],
      [
        115.8037855,
        23.1762833
      ],
      [
        115.8020601,
        23.1742213
      ],
      [
        115.8019547,
        23.1732036
      ],
      [
        115.8028558,
        23.1717592
      ],
      [
        115.8051431,
        23.172099
      ],
      [
        115.8084471,
        23.1736921
      ],
      [
        115.8088399,
        23.1730336
      ],
      [
        115.8151915,
        23.1713844
      ],
      [
        115.8164451,
        23.1697407
      ],
      [
        115.8207189,
        23.1670576
      ],
      [
        115.8230943,
        23.1670762
      ],
      [
        115.8246982,
        23.1664976
      ],
      [
        115.8258352,
        23.1651163
      ],
      [
        115.8264449,
        23.163249
      ],
      [
        115.8304586,
        23.1603466
      ],
      [
        115.8406689,
        23.1562291
      ],
      [
        115.8533103,
        23.1508673
      ],
      [
        115.8615895,
        23.1455231
      ],
      [
        115.8693123,
        23.1396525
      ],
      [
        115.868938,
        23.1372432
      ],
      [
        115.8700609,
        23.1359525
      ],
      [
        115.8730864,
        23.1376161
      ],
      [
        115.8797767,
        23.1326231
      ],
      [
        115.8858888,
        23.124797
      ],
      [
        115.8900706,
        23.1249893
      ],
      [
        115.8973555,
        23.1177544
      ],
      [
        115.8916449,
        23.1068459
      ],
      [
        115.8922196,
        23.10145
      ],
      [
        115.8885276,
        23.0972822
      ],
      [
        115.8908771,
        23.0945807
      ],
      [
        115.8972541,
        23.0960472
      ],
      [
        115.9006105,
        23.0941948
      ],
      [
        115.903647,
        23.093786
      ],
      [
        115.9059763,
        23.0932442
      ],
      [
        115.9056015,
        23.0922591
      ],
      [
        115.9045038,
        23.0911261
      ],
      [
        115.9037541,
        23.0900917
      ],
      [
        115.9031383,
        23.0884908
      ],
      [
        115.9007554,
        23.0878504
      ],
      [
        115.9003089,
        23.0871043
      ],
      [
        115.9005232,
        23.083599
      ],
      [
        115.9024999,
        23.0830513
      ],
      [
        115.9036191,
        23.081373
      ],
      [
        115.9015389,
        23.0793324
      ],
      [
        115.9005829,
        23.0774134
      ],
      [
        115.900676,
        23.0761467
      ],
      [
        115.8986414,
        23.0755708
      ],
      [
        115.8979059,
        23.074894
      ],
      [
        115.8982385,
        23.0734023
      ],
      [
        115.8995607,
        23.0729915
      ],
      [
        115.9008486,
        23.0729125
      ],
      [
        115.9038362,
        23.0706985
      ],
      [
        115.906623,
        23.0653838
      ],
      [
        115.9085866,
        23.0636675
      ],
      [
        115.9127266,
        23.0633814
      ],
      [
        115.9162283,
        23.0638783
      ],
      [
        115.9185535,
        23.0650856
      ],
      [
        115.9196104,
        23.0671037
      ],
      [
        115.9225617,
        23.068333
      ],
      [
        115.9271102,
        23.0677325
      ],
      [
        115.9317019,
        23.068719
      ],
      [
        115.9353912,
        23.0685395
      ],
      [
        115.93925,
        23.0667619
      ],
      [
        115.9441134,
        23.06963
      ],
      [
        115.9478722,
        23.0698006
      ],
      [
        115.9505781,
        23.0706832
      ],
      [
        115.9515128,
        23.0721995
      ],
      [
        115.9490974,
        23.0757705
      ],
      [
        115.9511681,
        23.0776756
      ],
      [
        115.954179,
        23.0779584
      ],
      [
        115.9611186,
        23.0847985
      ],
      [
        115.9644292,
        23.0848101
      ],
      [
        115.9667036,
        23.0864475
      ],
      [
        115.9693736,
        23.0853559
      ],
      [
        115.970758,
        23.0830362
      ],
      [
        115.969868,
        23.0816262
      ],
      [
        115.970758,
        23.0782602
      ],
      [
        115.9779767,
        23.0735295
      ],
      [
        115.98124,
        23.0732111
      ],
      [
        115.9832672,
        23.075531
      ],
      [
        115.9860414,
        23.073395
      ],
      [
        115.9892445,
        23.0733029
      ],
      [
        115.9911463,
        23.0746382
      ],
      [
        115.9917469,
        23.0788282
      ],
      [
        115.9941493,
        23.0832943
      ],
      [
        115.9961512,
        23.0841691
      ],
      [
        115.9986537,
        23.0814987
      ],
      [
        116.0005555,
        23.0801174
      ],
      [
        116.0001051,
        23.0774469
      ],
      [
        116.001006,
        23.0766181
      ],
      [
        116.0035084,
        23.077585
      ],
      [
        116.0044093,
        23.0797491
      ],
      [
        116.0101288,
        23.0829747
      ],
      [
        116.01007473,
        23.08311912
      ]
    ]
  }
}