{
  "type": "Feature",
  "properties": {
    "name": "源-联饶溪-黄冈河"
  },
  "geometry": {
    "type": "LineString",
    "coordinates": [
      [
        117.0470995,
        23.7441446
      ],
      [
        117.0470995,
        23.7444473
      ],
      [
        117.0468647,
        23.7443887
      ],
      [
        117.0464273,
        23.7445157
      ],
      [
        117.0463099,
        23.7448869
      ],
      [
        117.0460325,
        23.7449455
      ],
      [
        117.0454776,
        23.7445938
      ],
      [
        117.0450615,
        23.744838
      ],
      [
        117.0441865,
        23.7450529
      ],
      [
        117.0433223,
        23.7444571
      ],
      [
        117.0426927,
        23.7437539
      ],
      [
        117.0420738,
        23.7438418
      ],
      [
        117.0414336,
        23.7426209
      ],
      [
        117.0406654,
        23.7420251
      ],
      [
        117.0400602,
        23.7423613
      ],
      [
        117.0364015,
        23.7425384
      ],
      [
        117.0323892,
        23.7409052
      ],
      [
        117.0300625,
        23.7409537
      ],
      [
        117.0251925,
        23.7394782
      ],
      [
        117.0170079,
        23.7380423
      ],
      [
        117.0072768,
        23.7360562
      ],
      [
        117.0061699,
        23.7360264
      ],
      [
        117.0001232,
        23.7393287
      ],
      [
        116.999949,
        23.7395479
      ],
      [
        116.9977507,
        23.7405939
      ],
      [
        116.9960036,
        23.7402
      ],
      [
        116.9951168,
        23.7395977
      ],
      [
        116.9940196,
        23.7393344
      ],
      [
        116.9875624,
        23.7364297
      ],
      [
        116.9842262,
        23.7349733
      ],
      [
        116.9831542,
        23.7339153
      ],
      [
        116.9787755,
        23.7243018
      ],
      [
        116.9781566,
        23.7231574
      ],
      [
        116.9707067,
        23.7181428
      ],
      [
        116.9696872,
        23.7165424
      ],
      [
        116.96641611136616,
        23.705419371751812
      ]
    ]
  }
}