{
  "type": "Feature",
  "properties": {
    "name": "源-樟溪-黄冈河"
  },
  "geometry": {
    "type": "LineString",
    "coordinates": [
      [
        116.8071912,
        23.7561263
      ],
      [
        116.8085395,
        23.7552169
      ],
      [
        116.8098524,
        23.7552007
      ],
      [
        116.81152,
        23.7555904
      ],
      [
        116.812141,
        23.7559476
      ],
      [
        116.8127264,
        23.7553306
      ],
      [
        116.8123716,
        23.7543076
      ],
      [
        116.8114136,
        23.7531872
      ],
      [
        116.8118926,
        23.7520667
      ],
      [
        116.8110233,
        23.7518556
      ],
      [
        116.8105975,
        23.7514172
      ],
      [
        116.8101717,
        23.7511087
      ],
      [
        116.8100298,
        23.7507352
      ],
      [
        116.8113424,
        23.7496288
      ],
      [
        116.8112635,
        23.7488054
      ],
      [
        116.812084,
        23.7473177
      ],
      [
        116.8118316,
        23.746841
      ],
      [
        116.8114055,
        23.7465233
      ],
      [
        116.8112003,
        23.7460177
      ],
      [
        116.8122418,
        23.7454833
      ],
      [
        116.8132202,
        23.7454688
      ],
      [
        116.8138199,
        23.7453677
      ],
      [
        116.815461,
        23.7450933
      ],
      [
        116.8162351,
        23.7451276
      ],
      [
        116.8168211,
        23.7447469
      ],
      [
        116.8181538,
        23.7445912
      ],
      [
        116.8197133,
        23.7442451
      ],
      [
        116.8204789,
        23.7443576
      ],
      [
        116.8212101,
        23.7448383
      ],
      [
        116.8225709,
        23.7442377
      ],
      [
        116.8236888,
        23.743539
      ],
      [
        116.8250318,
        23.7428064
      ],
      [
        116.8269158,
        23.7413904
      ],
      [
        116.8272801,
        23.7411013
      ],
      [
        116.8288347,
        23.7404312
      ],
      [
        116.8298474,
        23.7404154
      ],
      [
        116.8306834,
        23.7402313
      ],
      [
        116.8309984,
        23.7400015
      ],
      [
        116.8315234,
        23.7394806
      ],
      [
        116.831567,
        23.7392836
      ],
      [
        116.8314356,
        23.739032
      ],
      [
        116.8314391,
        23.7388462
      ],
      [
        116.8316106,
        23.738138
      ],
      [
        116.8316784,
        23.7379254
      ],
      [
        116.8318916,
        23.7377303
      ],
      [
        116.8339658,
        23.7370641
      ],
      [
        116.8354839,
        23.7373401
      ],
      [
        116.8363178,
        23.7371515
      ],
      [
        116.8370612,
        23.7364709
      ],
      [
        116.8380864,
        23.7359143
      ],
      [
        116.8382192,
        23.7355813
      ],
      [
        116.8379536,
        23.7353381
      ],
      [
        116.838173,
        23.7344819
      ],
      [
        116.8392255,
        23.7345811
      ],
      [
        116.8403861,
        23.7349722
      ],
      [
        116.8408918,
        23.7356339
      ],
      [
        116.8410165,
        23.7366285
      ],
      [
        116.8435296,
        23.7394211
      ],
      [
        116.843859,
        23.740186
      ],
      [
        116.8447352,
        23.7406672
      ],
      [
        116.84548,
        23.7408162
      ],
      [
        116.8459664,
        23.7404734
      ],
      [
        116.8464471,
        23.7398259
      ],
      [
        116.8475183,
        23.7394928
      ],
      [
        116.857698,
        23.7431057
      ],
      [
        116.8589024,
        23.7430201
      ],
      [
        116.8632269,
        23.7419243
      ],
      [
        116.8637269,
        23.741581
      ],
      [
        116.8641681,
        23.7405915
      ],
      [
        116.8650696,
        23.7397367
      ],
      [
        116.8664945,
        23.7394496
      ],
      [
        116.8669784,
        23.7397449
      ],
      [
        116.8676953,
        23.7411722
      ],
      [
        116.8682061,
        23.7414922
      ],
      [
        116.8689499,
        23.7404996
      ],
      [
        116.8688423,
        23.7396301
      ],
      [
        116.8696489,
        23.7387844
      ],
      [
        116.8743949,
        23.7375654
      ],
      [
        116.8758822,
        23.7384406
      ],
      [
        116.8764517,
        23.7396333
      ],
      [
        116.8765143,
        23.7435819
      ],
      [
        116.8770801,
        23.7441491
      ],
      [
        116.8777806,
        23.7441984
      ],
      [
        116.8781174,
        23.7439025
      ],
      [
        116.8782791,
        23.7432119
      ],
      [
        116.8788583,
        23.7430393
      ],
      [
        116.8799709,
        23.7441241
      ],
      [
        116.8800878,
        23.7452832
      ],
      [
        116.8817815,
        23.7471948
      ],
      [
        116.8830196,
        23.7470122
      ],
      [
        116.8873519,
        23.7457141
      ],
      [
        116.8901101,
        23.7461861
      ],
      [
        116.8910667,
        23.7467295
      ],
      [
        116.8921716,
        23.7464653
      ],
      [
        116.892988,
        23.7470993
      ],
      [
        116.8936146,
        23.7469031
      ],
      [
        116.8939933,
        23.746225
      ],
      [
        116.894551,
        23.7436729
      ],
      [
        116.8950542,
        23.7435484
      ],
      [
        116.8965775,
        23.744146
      ],
      [
        116.8969311,
        23.7446439
      ],
      [
        116.8969447,
        23.7453162
      ],
      [
        116.8972167,
        23.7453535
      ],
      [
        116.897856,
        23.7444447
      ],
      [
        116.8980542,
        23.7433382
      ],
      [
        116.8986354,
        23.7429393
      ],
      [
        116.8996589,
        23.7431932
      ],
      [
        116.8998372,
        23.7431267
      ],
      [
        116.8997636,
        23.7420292
      ],
      [
        116.9000962,
        23.7401651
      ],
      [
        116.9011743,
        23.7393785
      ],
      [
        116.9025827,
        23.7391083
      ],
      [
        116.9040416,
        23.7392319
      ],
      [
        116.9056187,
        23.7398417
      ],
      [
        116.9063271,
        23.7406137
      ],
      [
        116.9066167,
        23.7415805
      ],
      [
        116.9072672,
        23.7416565
      ],
      [
        116.9084783,
        23.7420302
      ],
      [
        116.9091477,
        23.7418613
      ],
      [
        116.9090262,
        23.741333
      ],
      [
        116.9077922,
        23.7392357
      ],
      [
        116.9080051,
        23.7385134
      ],
      [
        116.9091145,
        23.7372599
      ],
      [
        116.911707,
        23.7365606
      ],
      [
        116.9126964,
        23.7370192
      ],
      [
        116.9155018,
        23.7375924
      ],
      [
        116.917606,
        23.7369035
      ],
      [
        116.9184558,
        23.7369035
      ],
      [
        116.9193889,
        23.7367434
      ],
      [
        116.9199259,
        23.7363191
      ],
      [
        116.9205174,
        23.7356327
      ],
      [
        116.9216671,
        23.7353048
      ],
      [
        116.9225169,
        23.7356632
      ],
      [
        116.9234708,
        23.7375509
      ],
      [
        116.92754259615586,
        23.737771565829316
      ]
    ]
  }
}