{
  "type": "Feature",
  "properties": {
    "name": "源-龙江-海"
  },
  "geometry": {
    "type": "LineString",
    "coordinates": [
      [
        115.8593491,
        23.2498834
      ],
      [
        115.8599206,
        23.2450694
      ],
      [
        115.8614448,
        23.2444566
      ],
      [
        115.8583012,
        23.2404302
      ],
      [
        115.8621117,
        23.2382419
      ],
      [
        115.8645885,
        23.2345654
      ],
      [
        115.8693516,
        23.2331648
      ],
      [
        115.870209,
        23.2357909
      ],
      [
        115.8747816,
        23.2345654
      ],
      [
        115.8756389,
        23.2317642
      ],
      [
        115.8784968,
        23.2308888
      ],
      [
        115.8792589,
        23.224761
      ],
      [
        115.8892563,
        23.2231871
      ],
      [
        115.8956753,
        23.2156055
      ],
      [
        115.9013034,
        23.2145824
      ],
      [
        115.9017363,
        23.2116836
      ],
      [
        115.9060656,
        23.2076478
      ],
      [
        115.9116936,
        23.2081594
      ],
      [
        115.9132398,
        23.2047488
      ],
      [
        115.9174787,
        23.2023308
      ],
      [
        115.9185301,
        23.203695
      ],
      [
        115.9291677,
        23.1988632
      ],
      [
        115.9306216,
        23.1969419
      ],
      [
        115.933342,
        23.1970648
      ],
      [
        115.9357055,
        23.1944414
      ],
      [
        115.9372664,
        23.1945234
      ],
      [
        115.9390502,
        23.1928428
      ],
      [
        115.9400759,
        23.1926788
      ],
      [
        115.9404773,
        23.191695
      ],
      [
        115.9397637,
        23.1907932
      ],
      [
        115.939407,
        23.1894814
      ],
      [
        115.941284,
        23.1879574
      ],
      [
        115.94055,
        23.186743
      ],
      [
        115.941284,
        23.1854386
      ],
      [
        115.9419201,
        23.1854386
      ],
      [
        115.9422137,
        23.1870128
      ],
      [
        115.9450517,
        23.1858884
      ],
      [
        115.9440241,
        23.1830996
      ],
      [
        115.9438773,
        23.1823799
      ],
      [
        115.9452474,
        23.1813454
      ],
      [
        115.9477918,
        23.1783766
      ],
      [
        115.9496023,
        23.1802209
      ],
      [
        115.9490151,
        23.1813904
      ],
      [
        115.9509234,
        23.1810755
      ],
      [
        115.9586057,
        23.1830097
      ],
      [
        115.9631648,
        23.1796608
      ],
      [
        115.9629714,
        23.1738394
      ],
      [
        115.9688366,
        23.163643
      ],
      [
        115.96937,
        23.1603747
      ],
      [
        115.9661135,
        23.1594941
      ],
      [
        115.9649641,
        23.1565
      ],
      [
        115.9690507,
        23.1552671
      ],
      [
        115.9717326,
        23.1519206
      ],
      [
        115.9766562,
        23.1481604
      ],
      [
        115.983625,
        23.1444024
      ],
      [
        115.9871292,
        23.1390293
      ],
      [
        115.9912597,
        23.13502
      ],
      [
        115.992254,
        23.1332264
      ],
      [
        115.9974272,
        23.1295597
      ],
      [
        115.9998452,
        23.1288301
      ],
      [
        115.9998074,
        23.1273013
      ],
      [
        116.0041524,
        23.1255292
      ],
      [
        116.0047319,
        23.1233055
      ],
      [
        116.0074265,
        23.1205986
      ],
      [
        116.0089004,
        23.113935
      ],
      [
        116.0107659,
        23.1129056
      ],
      [
        116.0113463,
        23.111228
      ],
      [
        116.0098539,
        23.1101985
      ],
      [
        116.0096682,
        23.1093733
      ],
      [
        116.0119294,
        23.1080703
      ],
      [
        116.0116842,
        23.106642
      ],
      [
        116.0097227,
        23.1054893
      ],
      [
        116.0077311,
        23.1022493
      ],
      [
        116.0082435,
        23.1006587
      ],
      [
        116.0084559,
        23.0994714
      ],
      [
        116.0073735,
        23.09824
      ],
      [
        116.008342,
        23.0970609
      ],
      [
        116.008058,
        23.0954896
      ],
      [
        116.0100234,
        23.0928433
      ],
      [
        116.0110203,
        23.0935245
      ],
      [
        116.0113052,
        23.0938127
      ],
      [
        116.01253,
        23.0931315
      ],
      [
        116.0125585,
        23.0917166
      ],
      [
        116.0118092,
        23.090286
      ],
      [
        116.0103909,
        23.0901581
      ],
      [
        116.0100293,
        23.0914117
      ],
      [
        116.0090559,
        23.0908745
      ],
      [
        116.0087222,
        23.0891604
      ],
      [
        116.0096417,
        23.0876781
      ],
      [
        116.0108186,
        23.086987
      ],
      [
        116.0105682,
        23.0861578
      ],
      [
        116.009241,
        23.0864112
      ],
      [
        116.0085399,
        23.0857892
      ],
      [
        116.0086124,
        23.084596
      ],
      [
        116.0090851,
        23.0835726
      ],
      [
        116.0099195,
        23.083061
      ],
      [
        116.01007473,
        23.08311912
      ],
      [
        116.0123112,
        23.0839564
      ],
      [
        116.0143693,
        23.0860032
      ],
      [
        116.0157877,
        23.0860543
      ],
      [
        116.0180126,
        23.0849286
      ],
      [
        116.0184853,
        23.0838541
      ],
      [
        116.0179569,
        23.0826772
      ],
      [
        116.016401,
        23.0815979
      ],
      [
        116.0160906,
        23.0779995
      ],
      [
        116.0178911,
        23.0728588
      ],
      [
        116.0201262,
        23.0707453
      ],
      [
        116.0252794,
        23.0690316
      ],
      [
        116.0248448,
        23.0656043
      ],
      [
        116.0219267,
        23.0645189
      ],
      [
        116.0230443,
        23.0622911
      ],
      [
        116.0248448,
        23.0614342
      ],
      [
        116.0254818,
        23.0583107
      ],
      [
        116.0337394,
        23.0573966
      ],
      [
        116.0370921,
        23.0545403
      ],
      [
        116.036715,
        23.0504282
      ],
      [
        116.0395365,
        23.046421
      ],
      [
        116.0458541,
        23.0443891
      ],
      [
        116.0493305,
        23.0424879
      ],
      [
        116.0519928,
        23.0384591
      ],
      [
        116.0539451,
        23.0378602
      ],
      [
        116.0600981,
        23.0406912
      ],
      [
        116.0627012,
        23.0396568
      ],
      [
        116.0644169,
        23.0369346
      ],
      [
        116.0650677,
        23.0342668
      ],
      [
        116.0681442,
        23.0329601
      ],
      [
        116.0727589,
        23.0346479
      ],
      [
        116.0828624,
        23.0302426
      ],
      [
        116.0884549,
        23.0289821
      ],
      [
        116.0974143,
        23.0291922
      ],
      [
        116.1031765,
        23.0319121
      ],
      [
        116.1139232,
        23.0213092
      ],
      [
        116.1299411,
        23.0244633
      ],
      [
        116.1359418,
        23.0203916
      ],
      [
        116.1480111,
        23.013946
      ],
      [
        116.1481893,
        23.003682
      ],
      [
        116.152977,
        23.0007835
      ],
      [
        116.1604282,
        23.0005955
      ],
      [
        116.1665525,
        22.9934546
      ],
      [
        116.1669608,
        22.9875349
      ],
      [
        116.1726924,
        22.9849846
      ],
      [
        116.1757904,
        22.9811141
      ],
      [
        116.1847522,
        22.9853921
      ],
      [
        116.1990248,
        22.9827438
      ],
      [
        116.2408322,
        22.9387524
      ],
      [
        116.243643,
        22.9267628
      ]
    ]
  }
}