{
  "type": "Feature",
  "properties": {
    "name": "源-黄冈河-海"
  },
  "geometry": {
    "type": "LineString",
    "coordinates": [
      [
        116.863207,
        23.9030844
      ],
      [
        116.8669395,
        23.8990152
      ],
      [
        116.8690248,
        23.8983904
      ],
      [
        116.8711801,
        23.8992075
      ],
      [
        116.8756836,
        23.8973811
      ],
      [
        116.8760525,
        23.8925806
      ],
      [
        116.8777785,
        23.8894533
      ],
      [
        116.8794331,
        23.8873759
      ],
      [
        116.878791,
        23.8846211
      ],
      [
        116.8793493,
        23.8836948
      ],
      [
        116.8793926,
        23.8826257
      ],
      [
        116.8797535,
        23.8822693
      ],
      [
        116.8807784,
        23.8788506
      ],
      [
        116.8784732,
        23.8709647
      ],
      [
        116.8759277,
        23.8679181
      ],
      [
        116.8769432,
        23.8656974
      ],
      [
        116.8766461,
        23.8574775
      ],
      [
        116.8788368,
        23.855474
      ],
      [
        116.8793098,
        23.8538575
      ],
      [
        116.8821322,
        23.8500874
      ],
      [
        116.8821505,
        23.8455057
      ],
      [
        116.8814232,
        23.843037
      ],
      [
        116.8816627,
        23.8423409
      ],
      [
        116.8811079,
        23.8391769
      ],
      [
        116.8817041,
        23.8382289
      ],
      [
        116.8823231,
        23.8344132
      ],
      [
        116.8814243,
        23.8312365
      ],
      [
        116.8823687,
        23.8280195
      ],
      [
        116.8858403,
        23.8260665
      ],
      [
        116.8867744,
        23.8251215
      ],
      [
        116.8871488,
        23.8197744
      ],
      [
        116.8870553,
        23.8158576
      ],
      [
        116.88776,
        23.8135688
      ],
      [
        116.8909312,
        23.8107642
      ],
      [
        116.8906375,
        23.8060488
      ],
      [
        116.8914987,
        23.8045604
      ],
      [
        116.894561,
        23.8042977
      ],
      [
        116.8982293,
        23.8049981
      ],
      [
        116.9008535,
        23.8036284
      ],
      [
        116.9021444,
        23.8014491
      ],
      [
        116.9002828,
        23.7958789
      ],
      [
        116.899931,
        23.7925336
      ],
      [
        116.9017653,
        23.7886579
      ],
      [
        116.907335,
        23.7873151
      ],
      [
        116.9088691,
        23.7861554
      ],
      [
        116.9062167,
        23.7824151
      ],
      [
        116.8958866,
        23.7793011
      ],
      [
        116.893135,
        23.7760779
      ],
      [
        116.8928592,
        23.7747829
      ],
      [
        116.8977098,
        23.7714014
      ],
      [
        116.9021654,
        23.7709361
      ],
      [
        116.9063622,
        23.7716518
      ],
      [
        116.9062319,
        23.7697672
      ],
      [
        116.9049943,
        23.76678
      ],
      [
        116.9093382,
        23.7636194
      ],
      [
        116.91316,
        23.7631592
      ],
      [
        116.919392,
        23.75984
      ],
      [
        116.9234179,
        23.7598123
      ],
      [
        116.9242352,
        23.7564046
      ],
      [
        116.9222529,
        23.754282
      ],
      [
        116.9167551,
        23.753653
      ],
      [
        116.9198212,
        23.7499756
      ],
      [
        116.9226812,
        23.7493381
      ],
      [
        116.9269164,
        23.7410673
      ],
      [
        116.9275426,
        23.73777157
      ],
      [
        116.9276682,
        23.7371105
      ],
      [
        116.9326326,
        23.7336998
      ],
      [
        116.9413449,
        23.7304595
      ],
      [
        116.9514792,
        23.7288627
      ],
      [
        116.9529115,
        23.7266798
      ],
      [
        116.9529249,
        23.7164118
      ],
      [
        116.9557876,
        23.7121937
      ],
      [
        116.96641611,
        23.70541937
      ],
      [
        116.9699432,
        23.7031713
      ],
      [
        116.9798884,
        23.6933169
      ],
      [
        116.9876512,
        23.6902892
      ],
      [
        116.9908232,
        23.6848494
      ],
      [
        116.9899607,
        23.6763359
      ],
      [
        116.9939538,
        23.6704767
      ],
      [
        117.000585,
        23.6673995
      ],
      [
        117.0103548,
        23.6665492
      ],
      [
        117.0225242,
        23.648795
      ],
      [
        117.0267755,
        23.637317
      ],
      [
        117.0310517,
        23.631918
      ],
      [
        117.0340217,
        23.605008
      ]
    ]
  }
}