{
    "type": "Feature",
    "properties": {
        "name": "广梅汕铁路（局部）",
        "slice": "建桥-汕头",
        "railtype": "高速铁路",
        "description": "梅州至潮汕段（局部） - 深汕联络线 - 龙湖南至汕头段",
        "stations": [
            "揭阳站",
            "揭阳潮汕国际机场",
            "潮汕站",
            "潮安站",
            "汕头站"
        ]
    },
    "geometry": {
        "type": "LineString",
        "coordinates": [
            [
                116.106389,
                23.928234
            ],
            [
                116.113416,
                23.91788
            ],
            [
                116.179224,
                23.815049
            ],
            [
                116.180408,
                23.812749
            ],
            [
                116.190219,
                23.79266
            ],
            [
                116.194106,
                23.775011
            ],
            [
                116.195116,
                23.763344
            ],
            [
                116.196299,
                23.758893
            ],
            [
                116.21406,
                23.73773
            ],
            [
                116.240093,
                23.715176
            ],
            [
                116.256475,
                23.700276
            ],
            [
                116.258838,
                23.697051
            ],
            [
                116.264234,
                23.679995
            ],
            [
                116.269969,
                23.668007
            ],
            [
                116.294933,
                23.645546
            ],
            [
                116.296113,
                23.643393
            ],
            [
                116.300831,
                23.633089
            ],
            [
                116.303021,
                23.62909
            ],
            [
                116.307067,
                23.624165
            ],
            [
                116.311281,
                23.620316
            ],
            [
                116.320047,
                23.614768
            ],
            [
                116.32715492,
                23.61069673
            ],
            [
                116.335388,
                23.605981
            ],
            [
                116.339939,
                23.603513
            ],
            [
                116.345335,
                23.601354
            ],
            [
                116.358321,
                23.598261
            ],
            [
                116.374688,
                23.596093
            ],
            [
                116.390561,
                23.597778
            ],
            [
                116.406274,
                23.599934
            ],
            [
                116.409824,
                23.59963
            ],
            [
                116.41591,
                23.598559
            ],
            [
                116.430624,
                23.591354
            ],
            [
                116.440436,
                23.582456
            ],
            [
                116.451607,
                23.57218
            ],
            [
                116.455839,
                23.56727
            ],
            [
                116.459393,
                23.562205
            ],
            [
                116.459732,
                23.561591
            ],
            [
                116.473449,
                23.5461
            ],
            [
                116.479884,
                23.537508
            ],
            [
                116.483612,
                23.535058
            ],
            [
                116.487847,
                23.53338
            ],
            [
                116.490728,
                23.532929
            ],
            [
                116.49327,
                23.532936
            ],
            [
                116.497847,
                23.53372
            ],
            [
                116.502593,
                23.536042
            ],
            [
                116.505644,
                23.538205
            ],
            [
                116.509036,
                23.542061
            ],
            [
                116.51336526,
                23.54649241
            ],
            [
                116.523954,
                23.557331
            ],
            [
                116.526834,
                23.557955
            ],
            [
                116.528697,
                23.557652
            ],
            [
                116.537842,
                23.555524
            ],
            [
                116.541059,
                23.553686
            ],
            [
                116.54732,
                23.54755
            ],
            [
                116.548166,
                23.545859
            ],
            [
                116.549856,
                23.539865
            ],
            [
                116.550702,
                23.538176
            ],
            [
                116.551717,
                23.536948
            ],
            [
                116.570495,
                23.536056
            ],
            [
                116.576582,
                23.538369
            ],
            [
                116.580301,
                23.540065
            ],
            [
                116.587062,
                23.54253
            ],
            [
                116.58771894,
                23.54275718
            ],
            [
                116.617289,
                23.552983
            ],
            [
                116.625725,
                23.55559
            ],
            [
                116.627749,
                23.555895
            ],
            [
                116.629435,
                23.555894
            ],
            [
                116.631796,
                23.555121
            ],
            [
                116.63264,
                23.554659
            ],
            [
                116.634831,
                23.552965
            ],
            [
                116.63601,
                23.550965
            ],
            [
                116.644602,
                23.536497
            ],
            [
                116.649657,
                23.529568
            ],
            [
                116.669365,
                23.502464
            ],
            [
                116.683347,
                23.487364
            ],
            [
                116.69058209,
                23.47571028
            ],
            [
                116.693959,
                23.470271
            ],
            [
                116.698677,
                23.461955
            ],
            [
                116.699855,
                23.459184
            ],
            [
                116.711311,
                23.434856
            ],
            [
                116.719738,
                23.41915
            ],
            [
                116.721762,
                23.41607
            ],
            [
                116.724122,
                23.413145
            ],
            [
                116.732893,
                23.403289
            ],
            [
                116.741162,
                23.394821
            ],
            [
                116.748588,
                23.384816
            ],
            [
                116.750951,
                23.381738
            ],
            [
                116.751457,
                23.380506
            ],
            [
                116.75155364,
                23.37464735
            ]
        ]
    }
}