{
    "type": "Feature",
    "properties": {
        "name": "杭深铁路厦深段（局部）",
        "slice": "云霄-陆丰",
        "railtype": "快速铁路",
        "description": "厦深段（局部）",
        "stations": [
            "诏安站",
            "饶平站",
            "潮汕站",
            "潮阳站",
            "普宁站",
            "葵潭站"
        ]
    },
    "geometry": {
        "type": "LineString",
        "coordinates": [
            [
                117.35554,
                23.891279
            ],
            [
                117.344253,
                23.878777
            ],
            [
                117.340711,
                23.874794
            ],
            [
                117.324186,
                23.858097
            ],
            [
                117.313393,
                23.843844
            ],
            [
                117.29636,
                23.824227
            ],
            [
                117.286578,
                23.81764
            ],
            [
                117.281348,
                23.814883
            ],
            [
                117.276119,
                23.812893
            ],
            [
                117.26937,
                23.810749
            ],
            [
                117.262451,
                23.809218
            ],
            [
                117.258738,
                23.808759
            ],
            [
                117.251985,
                23.808299
            ],
            [
                117.217182,
                23.808431
            ],
            [
                117.20044,
                23.805797
            ],
            [
                117.17489,
                23.798839
            ],
            [
                117.160167,
                23.794663
            ],
            [
                117.152043,
                23.791423
            ],
            [
                117.151197,
                23.791114
            ],
            [
                117.144429,
                23.788951
            ],
            [
                117.141045,
                23.788177
            ],
            [
                117.138169,
                23.787712
            ],
            [
                117.124131,
                23.786001
            ],
            [
                117.116862,
                23.784455
            ],
            [
                117.09333582,
                23.77345121
            ],
            [
                117.092865,
                23.773231
            ],
            [
                117.074633,
                23.763408
            ],
            [
                117.068053,
                23.760648
            ],
            [
                117.061813,
                23.758506
            ],
            [
                117.026262,
                23.751661
            ],
            [
                116.983166,
                23.739031
            ],
            [
                116.95774,
                23.728038
            ],
            [
                116.937014,
                23.71748
            ],
            [
                116.92906837,
                23.71336875
            ],
            [
                116.915088,
                23.706135
            ],
            [
                116.893815,
                23.696306
            ],
            [
                116.89145,
                23.695383
            ],
            [
                116.807872,
                23.627326
            ],
            [
                116.797041,
                23.619774
            ],
            [
                116.792642,
                23.617614
            ],
            [
                116.779955,
                23.612521
            ],
            [
                116.764062,
                23.6062
            ],
            [
                116.738888,
                23.594044
            ],
            [
                116.720319,
                23.584827
            ],
            [
                116.714414,
                23.582218
            ],
            [
                116.705474,
                23.579767
            ],
            [
                116.698898,
                23.578237
            ],
            [
                116.677992,
                23.573041
            ],
            [
                116.629435,
                23.555894
            ],
            [
                116.627749,
                23.555895
            ],
            [
                116.625725,
                23.55559
            ],
            [
                116.617289,
                23.552983
            ],
            [
                116.58771894,
                23.54275718
            ],
            [
                116.587062,
                23.54253
            ],
            [
                116.580301,
                23.540065
            ],
            [
                116.576582,
                23.538369
            ],
            [
                116.570495,
                23.536056
            ],
            [
                116.562375,
                23.532815
            ],
            [
                116.558144,
                23.530501
            ],
            [
                116.555266,
                23.528649
            ],
            [
                116.551542,
                23.52572
            ],
            [
                116.547985,
                23.522175
            ],
            [
                116.543243,
                23.516472
            ],
            [
                116.528317,
                23.465974
            ],
            [
                116.522549,
                23.448722
            ],
            [
                116.511865,
                23.427144
            ],
            [
                116.509321,
                23.423134
            ],
            [
                116.50576,
                23.418813
            ],
            [
                116.50203,
                23.415261
            ],
            [
                116.496944,
                23.411704
            ],
            [
                116.492198,
                23.409226
            ],
            [
                116.487451,
                23.407364
            ],
            [
                116.48457,
                23.406276
            ],
            [
                116.462369,
                23.398666
            ],
            [
                116.434763,
                23.38921
            ],
            [
                116.423594,
                23.384111
            ],
            [
                116.41833227,
                23.38172817
            ],
            [
                116.39975,
                23.373313
            ],
            [
                116.390288,
                23.369001
            ],
            [
                116.364623,
                23.355466
            ],
            [
                116.349268,
                23.345936
            ],
            [
                116.343532,
                23.343019
            ],
            [
                116.335606,
                23.34026
            ],
            [
                116.313513,
                23.333982
            ],
            [
                116.291248,
                23.327701
            ],
            [
                116.275553,
                23.322943
            ],
            [
                116.236694,
                23.301384
            ],
            [
                116.219779,
                23.290895
            ],
            [
                116.216902,
                23.289042
            ],
            [
                116.211993,
                23.28503
            ],
            [
                116.205899,
                23.278704
            ],
            [
                116.1958268,
                23.26838489
            ],
            [
                116.181341,
                23.253544
            ],
            [
                116.161179,
                23.231
            ],
            [
                116.142373,
                23.206454
            ],
            [
                116.134071,
                23.191795
            ],
            [
                116.120689,
                23.1651
            ],
            [
                116.11307,
                23.15075
            ],
            [
                116.109685,
                23.145349
            ],
            [
                116.083644,
                23.12205
            ],
            [
                116.073846,
                23.117117
            ],
            [
                116.042793,
                23.102966
            ],
            [
                116.033351,
                23.09882
            ],
            [
                116.027619,
                23.095439
            ],
            [
                116.023741,
                23.092517
            ],
            [
                116.019526,
                23.088516
            ],
            [
                116.013963,
                23.082822
            ],
            [
                116.004357,
                23.074979
            ],
            [
                115.99533243,
                23.06780234
            ],
            [
                115.980764,
                23.056217
            ],
            [
                115.961381,
                23.044846
            ],
            [
                115.94806,
                23.040708
            ],
            [
                115.891494,
                23.024543
            ],
            [
                115.851557,
                23.007975
            ],
            [
                115.846138,
                23.00534
            ],
            [
                115.814631,
                22.986439
            ],
            [
                115.809379,
                22.983957
            ],
            [
                115.804468,
                22.981939
            ],
            [
                115.801251,
                22.980698
            ],
            [
                115.781272,
                22.973097
            ],
            [
                115.767058,
                22.967673
            ],
            [
                115.760968,
                22.965351
            ],
            [
                115.754372,
                22.96164
            ],
            [
                115.727091,
                22.948791
            ]
        ]
    }
}