{
    "type": "Feature",
    "properties": {
        "name": "甬广铁路汕广段（局部）",
        "slice": "汕头-陆丰南",
        "railtype": "高速铁路",
        "description": "汕汕铁路（局部）",
        "stations": [
            "汕头站",
            "汕头南站",
            "潮南站",
            "惠来站"
        ]
    },
    "geometry": {
        "type": "LineString",
        "coordinates": [
            [
                116.75155364,
                23.37464735
            ],
            [
                116.752631,
                23.359413
            ],
            [
                116.752286,
                23.346631
            ],
            [
                116.74787,
                23.291025
            ],
            [
                116.747024,
                23.286403
            ],
            [
                116.745333,
                23.280703
            ],
            [
                116.742966,
                23.275156
            ],
            [
                116.741614,
                23.272536
            ],
            [
                116.739079,
                23.268375
            ],
            [
                116.737052,
                23.265756
            ],
            [
                116.731647,
                23.259594
            ],
            [
                116.725232,
                23.254203
            ],
            [
                116.715781,
                23.247892
            ],
            [
                116.706334,
                23.242815
            ],
            [
                116.701611,
                23.240817
            ],
            [
                116.67375941,
                23.23006098
            ],
            [
                116.647156,
                23.219787
            ],
            [
                116.64311,
                23.218252
            ],
            [
                116.607682,
                23.208729
            ],
            [
                116.601436,
                23.207189
            ],
            [
                116.598227,
                23.205956
            ],
            [
                116.595018,
                23.204722
            ],
            [
                116.589611,
                23.201946
            ],
            [
                116.58285,
                23.197164
            ],
            [
                116.57727,
                23.191762
            ],
            [
                116.572534,
                23.1859
            ],
            [
                116.554931,
                23.162589
            ],
            [
                116.549343,
                23.155947
            ],
            [
                116.52838829,
                23.13572106
            ],
            [
                116.525794,
                23.133217
            ],
            [
                116.522574,
                23.130122
            ],
            [
                116.504096,
                23.113097
            ],
            [
                116.497993,
                23.108604
            ],
            [
                116.460703,
                23.087044
            ],
            [
                116.459178,
                23.086114
            ],
            [
                116.442239,
                23.07666
            ],
            [
                116.438006,
                23.074183
            ],
            [
                116.433773,
                23.071243
            ],
            [
                116.389464,
                23.038487
            ],
            [
                116.384226,
                23.034011
            ],
            [
                116.364133,
                23.016274
            ],
            [
                116.361264,
                23.013962
            ],
            [
                116.354851,
                23.009801
            ],
            [
                116.351139,
                23.007953
            ],
            [
                116.344054,
                23.004876
            ],
            [
                116.335959,
                23.002418
            ],
            [
                116.331912,
                23.001498
            ],
            [
                116.286204,
                22.995084
            ],
            [
                116.28315489,
                22.99466842
            ],
            [
                116.263924,
                22.99186
            ],
            [
                116.254465,
                22.990164
            ],
            [
                116.251762,
                22.989392
            ],
            [
                116.20593,
                22.974993
            ],
            [
                116.175961,
                22.96567
            ],
            [
                116.168509,
                22.962721
            ],
            [
                116.16241,
                22.959618
            ],
            [
                116.15445,
                22.95466
            ],
            [
                116.123121,
                22.93097
            ],
            [
                116.117368,
                22.92741
            ],
            [
                116.112968,
                22.925087
            ],
            [
                116.107386,
                22.922764
            ],
            [
                116.101298,
                22.920752
            ],
            [
                116.042367,
                22.905497
            ],
            [
                116.035285,
                22.904122
            ],
            [
                116.029892,
                22.903516
            ],
            [
                116.010681,
                22.902792
            ],
            [
                115.993329,
                22.902531
            ],
            [
                115.973955,
                22.901966
            ],
            [
                115.947491,
                22.901254
            ],
            [
                115.94024,
                22.901112
            ],
            [
                115.91695,
                22.900521
            ],
            [
                115.911378,
                22.900833
            ],
            [
                115.905803,
                22.901298
            ],
            [
                115.89989,
                22.902226
            ],
            [
                115.890763,
                22.904231
            ],
            [
                115.876727,
                22.907619
            ],
            [
                115.857099,
                22.911919
            ],
            [
                115.8063,
                22.913207
            ],
            [
                115.796987,
                22.912571
            ],
            [
                115.791399,
                22.911634
            ],
            [
                115.78649,
                22.910389
            ],
            [
                115.774981,
                22.906355
            ],
            [
                115.767029,
                22.90341
            ],
            [
                115.761277,
                22.90155
            ],
            [
                115.756542,
                22.900465
            ],
            [
                115.747243,
                22.89907
            ],
            [
                115.73947,
                22.898606
            ],
            [
                115.724268,
                22.899073
            ],
            [
                115.716334,
                22.898616
            ],
            [
                115.707388,
                22.897697
            ],
            [
                115.702325,
                22.897394
            ],
            [
                115.677866,
                22.897274
            ],
            [
                115.672131,
                22.89682
            ],
            [
                115.667072,
                22.895901
            ],
            [
                115.655608,
                22.893179
            ]
        ]
    }
}