{
  "type": "Feature",
  "properties": {
    "name": "源-汤坑溪-练江"
  },
  "geometry": {
    "type": "LineString",
    "coordinates": [
      [
        116.2389091,
        23.2211876
      ],
      [
        116.2401782,
        23.2283967
      ],
      [
        116.2403081,
        23.23005
      ],
      [
        116.240112,
        23.2310481
      ],
      [
        116.241168,
        23.2319907
      ],
      [
        116.2426463,
        23.2318937
      ],
      [
        116.2441247,
        23.2307847
      ],
      [
        116.2454371,
        23.2308956
      ],
      [
        116.2465232,
        23.2318521
      ],
      [
        116.2468792,
        23.2334098
      ],
      [
        116.2473169,
        23.2340998
      ],
      [
        116.2483017,
        23.2343987
      ],
      [
        116.2498953,
        23.2327988
      ],
      [
        116.2511651,
        23.2330352
      ],
      [
        116.252319,
        23.2344374
      ],
      [
        116.2514633,
        23.2367485
      ],
      [
        116.2521578,
        23.2392791
      ],
      [
        116.251729,
        23.2424122
      ],
      [
        116.25113,
        23.2467467
      ],
      [
        116.2507831,
        23.2509378
      ],
      [
        116.2524051,
        23.2529604
      ],
      [
        116.2535946,
        23.2552556
      ],
      [
        116.2581738,
        23.2572911
      ],
      [
        116.2604901,
        23.2587435
      ],
      [
        116.261911,
        23.2576082
      ],
      [
        116.2628946,
        23.257704
      ],
      [
        116.2636845,
        23.2584981
      ],
      [
        116.2639613,
        23.2604663
      ],
      [
        116.2685665,
        23.2617428
      ],
      [
        116.2726352,
        23.262693
      ],
      [
        116.2747587,
        23.2621852
      ],
      [
        116.2814792,
        23.2646727
      ],
      [
        116.2894791,
        23.2763622
      ],
      [
        116.2905655,
        23.2793243
      ],
      [
        116.2915063,
        23.2822884
      ],
      [
        116.2946867,
        23.2864171
      ],
      [
        116.296524,
        23.2925052
      ],
      [
        116.2984064,
        23.2945981
      ],
      [
        116.3008584,
        23.2963725
      ],
      [
        116.30092119,
        23.29621288
      ]
    ]
  }
}