{
  "type": "Feature",
  "properties": {
    "name": "源-练江-海",
    "description": "已包含流沙河"
  },
  "geometry": {
    "type": "LineString",
    "coordinates": [
      [
        116.1129462,
        23.2799454
      ],
      [
        116.1144338,
        23.2804837
      ],
      [
        116.1156116,
        23.2817268
      ],
      [
        116.1172928,
        23.2829596
      ],
      [
        116.1179661,
        23.2832629
      ],
      [
        116.1189192,
        23.2833913
      ],
      [
        116.119764,
        23.283617
      ],
      [
        116.1209931,
        23.2844847
      ],
      [
        116.1213654,
        23.285195
      ],
      [
        116.1216316,
        23.2864968
      ],
      [
        116.1232979,
        23.2879251
      ],
      [
        116.1246362,
        23.2894872
      ],
      [
        116.1258758,
        23.2915406
      ],
      [
        116.1268918,
        23.2926696
      ],
      [
        116.1268738,
        23.2947557
      ],
      [
        116.1276784,
        23.2955804
      ],
      [
        116.1285327,
        23.2960596
      ],
      [
        116.1302754,
        23.2960946
      ],
      [
        116.1341465,
        23.297943
      ],
      [
        116.138476,
        23.2974365
      ],
      [
        116.1391336,
        23.2972855
      ],
      [
        116.1404479,
        23.2977434
      ],
      [
        116.1414096,
        23.297119
      ],
      [
        116.143018,
        23.2969522
      ],
      [
        116.1434158,
        23.2966477
      ],
      [
        116.1437389,
        23.2954023
      ],
      [
        116.1445517,
        23.2952412
      ],
      [
        116.1465409,
        23.2961332
      ],
      [
        116.1478598,
        23.2957969
      ],
      [
        116.148773,
        23.2966272
      ],
      [
        116.1500212,
        23.2969892
      ],
      [
        116.1526244,
        23.295866
      ],
      [
        116.1530887,
        23.2952728
      ],
      [
        116.1536885,
        23.2951834
      ],
      [
        116.1542722,
        23.2953919
      ],
      [
        116.1548071,
        23.2951909
      ],
      [
        116.1561222,
        23.295694
      ],
      [
        116.1572327,
        23.2958266
      ],
      [
        116.1577795,
        23.2966398
      ],
      [
        116.1582225,
        23.2965842
      ],
      [
        116.159111,
        23.296115
      ],
      [
        116.1600327,
        23.2962272
      ],
      [
        116.1604547,
        23.2965434
      ],
      [
        116.1609656,
        23.2971554
      ],
      [
        116.1621957,
        23.2971711
      ],
      [
        116.1649909,
        23.2979936
      ],
      [
        116.1697384,
        23.3042313
      ],
      [
        116.1714981,
        23.3086411
      ],
      [
        116.1712507,
        23.3123973
      ],
      [
        116.1744981,
        23.3183715
      ],
      [
        116.1758891,
        23.3206727
      ],
      [
        116.1774316,
        23.3214694
      ],
      [
        116.1847464,
        23.3223973
      ],
      [
        116.1860505,
        23.322311
      ],
      [
        116.1889631,
        23.3231013
      ],
      [
        116.1927862,
        23.3231248
      ],
      [
        116.1933133,
        23.3230224
      ],
      [
        116.1974395,
        23.3242974
      ],
      [
        116.1977629,
        23.3249878
      ],
      [
        116.20668048,
        23.32815806
      ],
      [
        116.2069374,
        23.3282494
      ],
      [
        116.2149538,
        23.3300174
      ],
      [
        116.2265481,
        23.3253438
      ],
      [
        116.2335493,
        23.3241375
      ],
      [
        116.2352454,
        23.3235637
      ],
      [
        116.2395541,
        23.3191809
      ],
      [
        116.2418628,
        23.3172535
      ],
      [
        116.2453609,
        23.3170608
      ],
      [
        116.248543,
        23.3145305
      ],
      [
        116.2514452,
        23.3142156
      ],
      [
        116.2557795,
        23.3119068
      ],
      [
        116.2578344,
        23.3112424
      ],
      [
        116.2614567,
        23.3105716
      ],
      [
        116.2645602,
        23.3084789
      ],
      [
        116.2687327,
        23.3078005
      ],
      [
        116.2731892,
        23.3081845
      ],
      [
        116.2809613,
        23.306497
      ],
      [
        116.2833866,
        23.3057018
      ],
      [
        116.2910281,
        23.3024358
      ],
      [
        116.2934382,
        23.2986467
      ],
      [
        116.2977106,
        23.2961131
      ],
      [
        116.3005999,
        23.2960865
      ],
      [
        116.30092119,
        23.29621288
      ],
      [
        116.3033443,
        23.297166
      ],
      [
        116.3066656,
        23.3000691
      ],
      [
        116.3151554,
        23.3033017
      ],
      [
        116.3173522,
        23.3049308
      ],
      [
        116.319672,
        23.305076
      ],
      [
        116.3214232,
        23.303981
      ],
      [
        116.3240245,
        23.3017673
      ],
      [
        116.3303491,
        23.3014576
      ],
      [
        116.3419078,
        23.2971651
      ],
      [
        116.3437349,
        23.2957891
      ],
      [
        116.3456326,
        23.2954797
      ],
      [
        116.3503881,
        23.2950976
      ],
      [
        116.3516736,
        23.2946096
      ],
      [
        116.3516828,
        23.29459586
      ],
      [
        116.3534768,
        23.291916
      ],
      [
        116.3548396,
        23.2918039
      ],
      [
        116.356589,
        23.2927754
      ],
      [
        116.358379,
        23.2927754
      ],
      [
        116.3657831,
        23.2915049
      ],
      [
        116.3692614,
        23.2916544
      ],
      [
        116.3701447,
        23.2910283
      ],
      [
        116.370165,
        23.2898325
      ],
      [
        116.3698192,
        23.2882631
      ],
      [
        116.3719102,
        23.2872579
      ],
      [
        116.3744634,
        23.2872948
      ],
      [
        116.378839,
        23.285047
      ],
      [
        116.3793712,
        23.2849527
      ],
      [
        116.38013507,
        23.28506497
      ],
      [
        116.3801727,
        23.2850705
      ],
      [
        116.3818602,
        23.286479
      ],
      [
        116.3854181,
        23.2864688
      ],
      [
        116.3892384,
        23.2879156
      ],
      [
        116.3915306,
        23.2875659
      ],
      [
        116.3934481,
        23.286356
      ],
      [
        116.3946295,
        23.282325
      ],
      [
        116.3966915,
        23.2809163
      ],
      [
        116.4024624,
        23.2819503
      ],
      [
        116.4035025,
        23.2855333
      ],
      [
        116.4068031,
        23.2858824
      ],
      [
        116.4084805,
        23.2835356
      ],
      [
        116.4223661,
        23.2804747
      ],
      [
        116.4254198,
        23.2775235
      ],
      [
        116.4293289,
        23.2774682
      ],
      [
        116.4306078,
        23.2783941
      ],
      [
        116.4324218,
        23.2806075
      ],
      [
        116.4353187,
        23.2776232
      ],
      [
        116.4405981,
        23.2833183
      ],
      [
        116.4394974,
        23.2860426
      ],
      [
        116.4389611,
        23.2881026
      ],
      [
        116.4401311,
        23.2884608
      ],
      [
        116.4439084,
        23.2868935
      ],
      [
        116.4500126,
        23.2856535
      ],
      [
        116.4531233,
        23.2815022
      ],
      [
        116.4549134,
        23.2780458
      ],
      [
        116.458075,
        23.2748121
      ],
      [
        116.4572602,
        23.2714586
      ],
      [
        116.4549853,
        23.2672387
      ],
      [
        116.455924,
        23.2653858
      ],
      [
        116.4600223,
        23.261783
      ],
      [
        116.4682227,
        23.2629708
      ],
      [
        116.4760463,
        23.2613239
      ],
      [
        116.4816035,
        23.262693
      ],
      [
        116.4906066,
        23.256903
      ],
      [
        116.4930878,
        23.247374
      ],
      [
        116.5133615,
        23.248388
      ],
      [
        116.5337528,
        23.2274296
      ],
      [
        116.579292,
        23.2310399
      ],
      [
        116.5912826,
        23.2319905
      ],
      [
        116.6142544,
        23.2177929
      ],
      [
        116.6149342,
        23.2032677
      ],
      [
        116.6058979,
        23.1986916
      ],
      [
        116.6028109,
        23.1749713
      ]
    ]
  }
}