{
  "type": "Feature",
  "properties": {
    "name": "源-中港河-练江"
  },
  "geometry": {
    "type": "LineString",
    "coordinates": [
      [
        116.3443949,
        23.1898604
      ],
      [
        116.341509,
        23.1944495
      ],
      [
        116.3420023,
        23.196047
      ],
      [
        116.3414898,
        23.1970048
      ],
      [
        116.3428223,
        23.1977272
      ],
      [
        116.3474415,
        23.2076484
      ],
      [
        116.34968,
        23.2112742
      ],
      [
        116.3519423,
        23.2124272
      ],
      [
        116.3556393,
        23.2137171
      ],
      [
        116.3587166,
        23.2144207
      ],
      [
        116.3600827,
        23.2140896
      ],
      [
        116.3615838,
        23.2143655
      ],
      [
        116.3621557,
        23.2152402
      ],
      [
        116.3622105,
        23.2158645
      ],
      [
        116.3616681,
        23.2172449
      ],
      [
        116.3615866,
        23.2178607
      ],
      [
        116.3618652,
        23.2182712
      ],
      [
        116.3631843,
        23.2183002
      ],
      [
        116.3652182,
        23.2178006
      ],
      [
        116.3704336,
        23.2197781
      ],
      [
        116.37343,
        23.2231178
      ],
      [
        116.3884565,
        23.2240143
      ],
      [
        116.3980499,
        23.2295715
      ],
      [
        116.4000335,
        23.2299163
      ],
      [
        116.4273603,
        23.2258469
      ],
      [
        116.4378635,
        23.225866
      ],
      [
        116.4468675,
        23.2233558
      ],
      [
        116.448241,
        23.2233893
      ],
      [
        116.4517676,
        23.2225301
      ],
      [
        116.4551138,
        23.2222437
      ],
      [
        116.4566652,
        23.2224575
      ],
      [
        116.4588801,
        23.2218744
      ],
      [
        116.4599217,
        23.2210933
      ],
      [
        116.4614073,
        23.220991
      ],
      [
        116.4642302,
        23.2202215
      ],
      [
        116.4661899,
        23.2201183
      ],
      [
        116.4671357,
        23.2206628
      ],
      [
        116.4671864,
        23.2199823
      ],
      [
        116.4669328,
        23.2193019
      ],
      [
        116.467085,
        23.2187892
      ],
      [
        116.4706249,
        23.2189197
      ],
      [
        116.4721768,
        23.2179968
      ],
      [
        116.4729338,
        23.2177982
      ],
      [
        116.4769968,
        23.2182355
      ],
      [
        116.4792044,
        23.218205
      ],
      [
        116.4802717,
        23.2185295
      ],
      [
        116.4805285,
        23.2182713
      ],
      [
        116.4809217,
        23.218264
      ],
      [
        116.4811705,
        23.2183967
      ],
      [
        116.4812829,
        23.2182935
      ],
      [
        116.4807291,
        23.2176887
      ],
      [
        116.4808977,
        23.2172978
      ],
      [
        116.4814434,
        23.2168848
      ],
      [
        116.482417,
        23.2165364
      ],
      [
        116.4838758,
        23.2164053
      ],
      [
        116.4848588,
        23.2167842
      ],
      [
        116.485612,
        23.2174399
      ],
      [
        116.4857547,
        23.2178625
      ],
      [
        116.4858736,
        23.218591
      ],
      [
        116.486183,
        23.2188978
      ],
      [
        116.4866264,
        23.2189155
      ],
      [
        116.4871213,
        23.2188092
      ],
      [
        116.4874169,
        23.2185907
      ],
      [
        116.4875197,
        23.2181832
      ],
      [
        116.4875004,
        23.2178229
      ],
      [
        116.4873076,
        23.217439
      ],
      [
        116.4873012,
        23.2167184
      ],
      [
        116.4875263,
        23.2163961
      ],
      [
        116.4880055,
        23.2162458
      ],
      [
        116.4886821,
        23.2162828
      ],
      [
        116.4904307,
        23.2166133
      ],
      [
        116.4909854,
        23.2165387
      ],
      [
        116.4913172,
        23.2163286
      ],
      [
        116.4914216,
        23.2159025
      ],
      [
        116.4914762,
        23.2148377
      ],
      [
        116.4914572,
        23.2145526
      ],
      [
        116.4916745,
        23.21434
      ],
      [
        116.4919198,
        23.2143336
      ],
      [
        116.4923333,
        23.2146492
      ],
      [
        116.4930262,
        23.2158065
      ],
      [
        116.4938191,
        23.2164835
      ],
      [
        116.4942181,
        23.2164271
      ],
      [
        116.4944023,
        23.2161779
      ],
      [
        116.4944023,
        23.2148099
      ],
      [
        116.4948207,
        23.2137875
      ],
      [
        116.4953775,
        23.2135108
      ],
      [
        116.495832,
        23.213704
      ],
      [
        116.4965138,
        23.2144506
      ],
      [
        116.4970289,
        23.2146713
      ],
      [
        116.4974586,
        23.214676
      ],
      [
        116.4976734,
        23.2144879
      ],
      [
        116.4976683,
        23.2140601
      ],
      [
        116.4970135,
        23.2132702
      ],
      [
        116.4970222,
        23.2124439
      ],
      [
        116.4973178,
        23.2121949
      ],
      [
        116.4982108,
        23.2122289
      ],
      [
        116.5000215,
        23.2129944
      ],
      [
        116.5004095,
        23.2128642
      ],
      [
        116.5007913,
        23.2122869
      ],
      [
        116.5006485,
        23.211089
      ],
      [
        116.5009479,
        23.2104039
      ],
      [
        116.5007695,
        23.2100936
      ],
      [
        116.4997374,
        23.2094729
      ],
      [
        116.4995627,
        23.2089976
      ],
      [
        116.5001476,
        23.2086743
      ],
      [
        116.5011054,
        23.2087989
      ],
      [
        116.5029533,
        23.2081571
      ],
      [
        116.5083057,
        23.2073694
      ],
      [
        116.5110513,
        23.2087648
      ],
      [
        116.5200947,
        23.2062826
      ],
      [
        116.5263754,
        23.209966
      ],
      [
        116.5577725,
        23.2168869
      ],
      [
        116.5660258,
        23.2231021
      ],
      [
        116.5758839,
        23.2256303
      ],
      [
        116.579292,
        23.2310399
      ]
    ]
  }
}