{
  "type": "Feature",
  "properties": {
    "name": "源-北港河-练江"
  },
  "geometry": {
    "type": "LineString",
    "coordinates": [
      [
        116.1825232,
        23.3452739
      ],
      [
        116.1860809,
        23.3428821
      ],
      [
        116.1908246,
        23.3411149
      ],
      [
        116.1912189,
        23.3374944
      ],
      [
        116.1935703,
        23.3359108
      ],
      [
        116.1981945,
        23.3310514
      ],
      [
        116.20668048,
        23.32815806
      ]
    ]
  }
}