{
  "type": "Feature",
  "properties": {
    "name": "源-贵屿水-练江"
  },
  "geometry": {
    "type": "LineString",
    "coordinates": [
      [
        116.3495633,
        23.3368617
      ],
      [
        116.349017,
        23.3333502
      ],
      [
        116.346671,
        23.3314616
      ],
      [
        116.3459961,
        23.3283041
      ],
      [
        116.3458354,
        23.3273008
      ],
      [
        116.3441,
        23.3262385
      ],
      [
        116.3430716,
        23.3247924
      ],
      [
        116.3431655,
        23.3242524
      ],
      [
        116.3428423,
        23.3234492
      ],
      [
        116.3423098,
        23.3226983
      ],
      [
        116.3420436,
        23.3218951
      ],
      [
        116.3410358,
        23.3200791
      ],
      [
        116.3407541,
        23.3188415
      ],
      [
        116.3406446,
        23.3177694
      ],
      [
        116.3399078,
        23.3167722
      ],
      [
        116.3384575,
        23.3162864
      ],
      [
        116.3373539,
        23.3157168
      ],
      [
        116.3372305,
        23.3152176
      ],
      [
        116.3376325,
        23.3135227
      ],
      [
        116.3387986,
        23.311599
      ],
      [
        116.3401938,
        23.3108544
      ],
      [
        116.3416817,
        23.3107186
      ],
      [
        116.3440262,
        23.3100431
      ],
      [
        116.3457672,
        23.3097184
      ],
      [
        116.3464765,
        23.3100945
      ],
      [
        116.3462724,
        23.3108291
      ],
      [
        116.3454462,
        23.3114552
      ],
      [
        116.3453768,
        23.3124712
      ],
      [
        116.3464051,
        23.3130114
      ],
      [
        116.3481582,
        23.3127583
      ],
      [
        116.3511133,
        23.3127054
      ],
      [
        116.3525236,
        23.3121161
      ],
      [
        116.3536704,
        23.3113277
      ],
      [
        116.3551691,
        23.3084375
      ],
      [
        116.355671,
        23.3064762
      ],
      [
        116.3547802,
        23.3045121
      ],
      [
        116.3534701,
        23.3029817
      ],
      [
        116.3521,
        23.3020844
      ],
      [
        116.3518296,
        23.3007568
      ],
      [
        116.35384,
        23.3002293
      ],
      [
        116.3542929,
        23.2998032
      ],
      [
        116.353586,
        23.297906
      ],
      [
        116.3526189,
        23.296908
      ],
      [
        116.3520767,
        23.295852
      ],
      [
        116.3516948,
        23.2946039
      ],
      [
        116.35168279556537,
        23.294595863767253
      ]
    ]
  }
}