{
  "type": "Feature",
  "properties": {
    "name": "源-两英河-练江"
  },
  "geometry": {
    "type": "LineString",
    "coordinates": [
      [
        116.3701483,
        23.2441934
      ],
      [
        116.3701664,
        23.2452565
      ],
      [
        116.3649961,
        23.2491101
      ],
      [
        116.3660178,
        23.2597056
      ],
      [
        116.3664269,
        23.2618322
      ],
      [
        116.3687319,
        23.2669354
      ],
      [
        116.3700599,
        23.26993
      ],
      [
        116.3710327,
        23.2707378
      ],
      [
        116.3763153,
        23.2784487
      ],
      [
        116.379132,
        23.2776623
      ],
      [
        116.3805404,
        23.2778399
      ],
      [
        116.3817002,
        23.2787784
      ],
      [
        116.3823353,
        23.2800214
      ],
      [
        116.3826667,
        23.281797
      ],
      [
        116.3822524,
        23.2829892
      ],
      [
        116.380927,
        23.2838263
      ],
      [
        116.38013507,
        23.28506497
      ]
    ]
  }
}