{
  "type": "Feature",
  "properties": {
    "name": "仙桥河-东北段-南河"
  },
  "geometry": {
    "type": "LineString",
    "coordinates": [
      [
        116.3608502,
        23.4876288
      ],
      [
        116.3636055,
        23.4920834
      ],
      [
        116.3671729,
        23.4942794
      ],
      [
        116.3673245,
        23.497164
      ],
      [
        116.3665181,
        23.498867
      ],
      [
        116.3694991,
        23.4988221
      ],
      [
        116.3727976,
        23.4975001
      ],
      [
        116.373775,
        23.4992479
      ],
      [
        116.3717782,
        23.5029662
      ],
      [
        116.377251,
        23.503202
      ],
      [
        116.38523535,
        23.50358155
      ]
    ]
  }
}