{
  "type": "Feature",
  "properties": {
    "name": "仙桥河-西北段-南河"
  },
  "geometry": {
    "type": "LineString",
    "coordinates": [
      [
        116.3608502,
        23.4876288
      ],
      [
        116.3583951,
        23.4901284
      ],
      [
        116.3566601,
        23.4942948
      ],
      [
        116.3500694,
        23.4963892
      ],
      [
        116.3441839,
        23.4960829
      ],
      [
        116.3413109,
        23.5012166
      ],
      [
        116.3369294,
        23.5048334
      ],
      [
        116.3398586,
        23.5180457
      ],
      [
        116.3414018,
        23.5193909
      ],
      [
        116.3413592,
        23.5230378
      ],
      [
        116.33923,
        23.5248288
      ],
      [
        116.3327823,
        23.5247427
      ],
      [
        116.3284459,
        23.5274709
      ],
      [
        116.3278908,
        23.5301889
      ],
      [
        116.32993655,
        23.53454628
      ]
    ]
  }
}