{
  "type": "Feature",
  "properties": {
    "name": "汇-榕江-海"
  },
  "geometry": {
    "type": "LineString",
    "coordinates": [
      [
        116.4564831,
        23.4991842
      ],
      [
        116.4765333,
        23.5029464
      ],
      [
        116.4856923,
        23.4991842
      ],
      [
        116.485155,
        23.4783703
      ],
      [
        116.4598238,
        23.4466159
      ],
      [
        116.4640925,
        23.4393507
      ],
      [
        116.5144457,
        23.4410564
      ],
      [
        116.5399959,
        23.4289633
      ],
      [
        116.5561825,
        23.3939965
      ],
      [
        116.61799,
        23.3372994
      ],
      [
        116.63630315,
        23.33951982
      ],
      [
        116.658321,
        23.34218943
      ],
      [
        116.65879833,
        23.34224731
      ],
      [
        116.6589027,
        23.34225996
      ],
      [
        116.6977269,
        23.3469673
      ],
      [
        116.7473798,
        23.336387
      ],
      [
        116.7915447,
        23.3070687
      ]
    ]
  }
}