{
  "type": "Feature",
  "properties": {
    "name": "源-灰寨水-五经富河"
  },
  "geometry": {
    "type": "LineString",
    "coordinates": [
      [
        115.9455226,
        23.5174805
      ],
      [
        115.9456969,
        23.5172657
      ],
      [
        115.9459224,
        23.5167116
      ],
      [
        115.9462619,
        23.5158244
      ],
      [
        115.9467779,
        23.5150026
      ],
      [
        115.947718,
        23.5144129
      ],
      [
        115.9480054,
        23.5136518
      ],
      [
        115.948097,
        23.5127322
      ],
      [
        115.9478796,
        23.5112916
      ],
      [
        115.9474989,
        23.5106688
      ],
      [
        115.9473882,
        23.5098443
      ],
      [
        115.94736,
        23.5093439
      ],
      [
        115.9472418,
        23.5089734
      ],
      [
        115.9467261,
        23.5084001
      ],
      [
        115.9464925,
        23.5076862
      ],
      [
        115.9468835,
        23.5065194
      ],
      [
        115.9480218,
        23.5052963
      ],
      [
        115.9488962,
        23.5055483
      ],
      [
        115.9512529,
        23.5052456
      ],
      [
        115.9543171,
        23.505287
      ],
      [
        115.9549749,
        23.5054477
      ],
      [
        115.9563647,
        23.505359
      ],
      [
        115.9578082,
        23.5063426
      ],
      [
        115.9584157,
        23.506919
      ],
      [
        115.95933,
        23.507192
      ],
      [
        115.9600261,
        23.5072095
      ],
      [
        115.9605542,
        23.5069389
      ],
      [
        115.961285,
        23.5069339
      ],
      [
        115.9627113,
        23.5064988
      ],
      [
        115.9633109,
        23.5062609
      ],
      [
        115.9650877,
        23.5051464
      ],
      [
        115.965846,
        23.5051267
      ],
      [
        115.9672744,
        23.5058117
      ],
      [
        115.968205,
        23.5068547
      ],
      [
        115.9694975,
        23.5069258
      ],
      [
        115.971126,
        23.5064754
      ],
      [
        115.9724184,
        23.5055272
      ],
      [
        115.9729096,
        23.5040101
      ],
      [
        115.9736333,
        23.5034886
      ],
      [
        115.9765801,
        23.5031568
      ],
      [
        115.9778468,
        23.503702
      ],
      [
        115.978312,
        23.5049109
      ],
      [
        115.9797337,
        23.5053376
      ],
      [
        115.9829352,
        23.5082732
      ],
      [
        115.9869545,
        23.5070095
      ],
      [
        115.987012,
        23.5055352
      ],
      [
        115.9864378,
        23.5037186
      ],
      [
        115.9872703,
        23.5018493
      ],
      [
        115.9905737,
        23.5002491
      ],
      [
        115.9933027,
        23.496848
      ],
      [
        115.9945046,
        23.4934895
      ],
      [
        115.9983923,
        23.4920943
      ],
      [
        116.0010968,
        23.4885288
      ],
      [
        116.0053789,
        23.4879603
      ],
      [
        116.0072633,
        23.486498
      ],
      [
        116.0098375,
        23.4856307
      ],
      [
        116.0107831,
        23.4789813
      ],
      [
        116.0124117,
        23.4772948
      ],
      [
        116.0137776,
        23.4687656
      ],
      [
        116.0172436,
        23.4603433
      ],
      [
        116.0252203,
        23.4574163
      ],
      [
        116.03107,
        23.4570261
      ],
      [
        116.0335388,
        23.4535476
      ],
      [
        116.0331134,
        23.4506692
      ],
      [
        116.035111,
        23.4491717
      ],
      [
        116.0362997,
        23.4476942
      ],
      [
        116.0362997,
        23.4460759
      ],
      [
        116.0385621,
        23.4449854
      ],
      [
        116.0396031,
        23.444472
      ],
      [
        116.0406064,
        23.4434392
      ],
      [
        116.0414017,
        23.4435964
      ],
      [
        116.0446563,
        23.4430015
      ],
      [
        116.0458299,
        23.4412444
      ],
      [
        116.0486679,
        23.4415414
      ],
      [
        116.0495143,
        23.4420438
      ],
      [
        116.0510329,
        23.4444648
      ],
      [
        116.0529996,
        23.4455155
      ],
      [
        116.0544594,
        23.4457742
      ],
      [
        116.056409,
        23.4446267
      ],
      [
        116.0583035,
        23.4437661
      ],
      [
        116.0602339,
        23.4435202
      ],
      [
        116.0610493,
        23.4432101
      ],
      [
        116.0617501,
        23.4432101
      ],
      [
        116.0636735,
        23.4444549
      ],
      [
        116.0655821,
        23.4450158
      ],
      [
        116.066924,
        23.4449064
      ],
      [
        116.0677292,
        23.4454809
      ],
      [
        116.0699379,
        23.4455212
      ],
      [
        116.0726704,
        23.4452477
      ],
      [
        116.0749557,
        23.445901
      ],
      [
        116.076115,
        23.446296
      ],
      [
        116.0759297,
        23.4504594
      ],
      [
        116.0745467,
        23.452997
      ],
      [
        116.0719465,
        23.4551286
      ],
      [
        116.0706741,
        23.4583513
      ],
      [
        116.0705911,
        23.4596708
      ],
      [
        116.0739796,
        23.4634375
      ],
      [
        116.0745455,
        23.4653785
      ],
      [
        116.0759971,
        23.4657621
      ],
      [
        116.0758327,
        23.4670448
      ],
      [
        116.0775303,
        23.4683318
      ],
      [
        116.080042,
        23.4688085
      ],
      [
        116.0807869,
        23.4679346
      ],
      [
        116.0814278,
        23.4679663
      ],
      [
        116.0824498,
        23.4695235
      ],
      [
        116.0854239,
        23.4705349
      ],
      [
        116.0871866,
        23.4701895
      ],
      [
        116.0888294,
        23.4694518
      ],
      [
        116.0947233,
        23.4699408
      ],
      [
        116.09992,
        23.470624
      ],
      [
        116.103322,
        23.4709736
      ],
      [
        116.1056605,
        23.4703857
      ],
      [
        116.1071502,
        23.4703221
      ],
      [
        116.1090809,
        23.4714902
      ],
      [
        116.11248098,
        23.47403907
      ]
    ]
  }
}