{
  "type": "Feature",
  "properties": {
    "name": "源-潮水溪-南河"
  },
  "geometry": {
    "type": "LineString",
    "coordinates": [
      [
        116.3496923,
        23.4710333
      ],
      [
        116.3499274,
        23.470267
      ],
      [
        116.351491,
        23.469941
      ],
      [
        116.3520725,
        23.47035
      ],
      [
        116.3535389,
        23.4694848
      ],
      [
        116.3542623,
        23.4688498
      ],
      [
        116.3543262,
        23.4678423
      ],
      [
        116.3551945,
        23.4669965
      ],
      [
        116.3558586,
        23.466229
      ],
      [
        116.3564951,
        23.4660132
      ],
      [
        116.3573807,
        23.4661021
      ],
      [
        116.3617865,
        23.4659395
      ],
      [
        116.3625476,
        23.4661641
      ],
      [
        116.3631536,
        23.4661719
      ],
      [
        116.3638108,
        23.4659527
      ],
      [
        116.3650483,
        23.4650524
      ],
      [
        116.3655323,
        23.4649426
      ],
      [
        116.3666243,
        23.4650316
      ],
      [
        116.3671148,
        23.4648355
      ],
      [
        116.3672826,
        23.4644104
      ],
      [
        116.3673148,
        23.4633525
      ],
      [
        116.3674345,
        23.4630632
      ],
      [
        116.3676982,
        23.4628176
      ],
      [
        116.3685932,
        23.4625977
      ],
      [
        116.3694273,
        23.4629022
      ],
      [
        116.3702406,
        23.4629658
      ],
      [
        116.3716,
        23.4629356
      ],
      [
        116.3725575,
        23.4631905
      ],
      [
        116.3732908,
        23.4633559
      ],
      [
        116.3737823,
        23.4632039
      ],
      [
        116.374012,
        23.4628707
      ],
      [
        116.3742524,
        23.4617337
      ],
      [
        116.3749199,
        23.4609836
      ],
      [
        116.3761576,
        23.4595279
      ],
      [
        116.3772705,
        23.458507
      ],
      [
        116.3778672,
        23.457415
      ],
      [
        116.3784939,
        23.4571094
      ],
      [
        116.380763,
        23.4564907
      ],
      [
        116.3820534,
        23.4560494
      ],
      [
        116.3834403,
        23.456123
      ],
      [
        116.3853515,
        23.4557606
      ],
      [
        116.3861639,
        23.4557902
      ],
      [
        116.3873195,
        23.4556428
      ],
      [
        116.3884115,
        23.4555058
      ],
      [
        116.3892344,
        23.4556309
      ],
      [
        116.3897025,
        23.4558997
      ],
      [
        116.3905519,
        23.4566834
      ],
      [
        116.3923555,
        23.45763
      ],
      [
        116.3937679,
        23.4581946
      ],
      [
        116.3961488,
        23.4580684
      ],
      [
        116.3982448,
        23.4581139
      ],
      [
        116.3989639,
        23.4582356
      ],
      [
        116.4001578,
        23.4587196
      ],
      [
        116.402068,
        23.4592645
      ],
      [
        116.4033172,
        23.4599342
      ],
      [
        116.4044365,
        23.4616158
      ],
      [
        116.404958,
        23.4636608
      ],
      [
        116.4047697,
        23.4654766
      ],
      [
        116.4050698,
        23.4664255
      ],
      [
        116.4052417,
        23.4671602
      ],
      [
        116.4053001,
        23.4679507
      ],
      [
        116.405563,
        23.468768
      ],
      [
        116.4062349,
        23.4694379
      ],
      [
        116.4071017,
        23.4705004
      ],
      [
        116.4099061,
        23.4703932
      ],
      [
        116.4119073,
        23.4703262
      ],
      [
        116.414069,
        23.4710095
      ],
      [
        116.41646213,
        23.47257264
      ]
    ]
  }
}