{
  "type": "Feature",
  "properties": {
    "name": "源-粗坑河-五经富河"
  },
  "geometry": {
    "type": "LineString",
    "coordinates": [
      [
        115.9944007,
        23.5646786
      ],
      [
        115.9948521,
        23.5632222
      ],
      [
        115.9975243,
        23.5616665
      ],
      [
        115.9976688,
        23.562643
      ],
      [
        115.9987702,
        23.5639173
      ],
      [
        116.000323,
        23.5640663
      ],
      [
        116.0009007,
        23.5632222
      ],
      [
        115.999673,
        23.5614017
      ],
      [
        116.0002507,
        23.5613024
      ],
      [
        116.002616,
        23.5621299
      ],
      [
        116.003898,
        23.5619975
      ],
      [
        116.0044216,
        23.5613355
      ],
      [
        116.0053732,
        23.5607836
      ],
      [
        116.0060055,
        23.5589518
      ],
      [
        116.0063365,
        23.5587784
      ],
      [
        116.0078595,
        23.560131
      ],
      [
        116.0095433,
        23.5609981
      ],
      [
        116.0107068,
        23.5591512
      ],
      [
        116.0132369,
        23.5580152
      ],
      [
        116.0130856,
        23.5557867
      ],
      [
        116.0150936,
        23.5544529
      ],
      [
        116.0157923,
        23.5529018
      ],
      [
        116.0164733,
        23.5515109
      ],
      [
        116.0226753,
        23.5426109
      ],
      [
        116.0229019,
        23.5415028
      ],
      [
        116.0264524,
        23.5413297
      ],
      [
        116.027359,
        23.5403947
      ],
      [
        116.0276989,
        23.5356505
      ],
      [
        116.0291248,
        23.5335355
      ],
      [
        116.0313314,
        23.5321867
      ],
      [
        116.0345328,
        23.5317858
      ],
      [
        116.0394828,
        23.5333714
      ],
      [
        116.0405364,
        23.5332621
      ],
      [
        116.0409737,
        23.5316946
      ],
      [
        116.0397611,
        23.5310385
      ],
      [
        116.0396531,
        23.5300472
      ],
      [
        116.0396766,
        23.5289903
      ],
      [
        116.0389003,
        23.5278363
      ],
      [
        116.0390162,
        23.5272704
      ],
      [
        116.037846,
        23.5261746
      ],
      [
        116.037734,
        23.5257181
      ],
      [
        116.0390909,
        23.5242456
      ],
      [
        116.0414438,
        23.5242
      ],
      [
        116.0425766,
        23.5244853
      ],
      [
        116.0432613,
        23.5244054
      ],
      [
        116.0452905,
        23.5236064
      ],
      [
        116.0465781,
        23.5235393
      ],
      [
        116.047887,
        23.5220793
      ],
      [
        116.0501405,
        23.521671
      ],
      [
        116.0510041,
        23.5216339
      ],
      [
        116.0529686,
        23.5212476
      ],
      [
        116.0550584,
        23.5210973
      ],
      [
        116.0581044,
        23.5222997
      ],
      [
        116.058633,
        23.5233164
      ],
      [
        116.0596301,
        23.5237923
      ],
      [
        116.06115365,
        23.52356954
      ]
    ]
  }
}