{
  "type": "Feature",
  "properties": {
    "name": "源-仙桥河-分"
  },
  "geometry": {
    "type": "LineString",
    "coordinates": [
      [
        116.3261876,
        23.4581759
      ],
      [
        116.3257845,
        23.4594532
      ],
      [
        116.3250883,
        23.4609322
      ],
      [
        116.3264258,
        23.4620246
      ],
      [
        116.3348823,
        23.4656303
      ],
      [
        116.3406881,
        23.4682594
      ],
      [
        116.3476005,
        23.4693544
      ],
      [
        116.3496923,
        23.4710333
      ],
      [
        116.3501763,
        23.4718789
      ],
      [
        116.3511465,
        23.4726229
      ],
      [
        116.3511147,
        23.4736149
      ],
      [
        116.3504467,
        23.4746798
      ],
      [
        116.3509458,
        23.476912
      ],
      [
        116.3517214,
        23.4774293
      ],
      [
        116.3530139,
        23.4770305
      ],
      [
        116.3544592,
        23.4758557
      ],
      [
        116.3552398,
        23.4755531
      ],
      [
        116.3559683,
        23.4755423
      ],
      [
        116.3592938,
        23.477741
      ],
      [
        116.3593614,
        23.478904
      ],
      [
        116.3588265,
        23.4803027
      ],
      [
        116.3590631,
        23.4822897
      ],
      [
        116.3607107,
        23.4849596
      ],
      [
        116.3608502,
        23.4876288
      ]
    ]
  }
}