{
  "type": "Feature",
  "properties": {
    "name": "源-西门溪-南河"
  },
  "geometry": {
    "type": "LineString",
    "coordinates": [
      [
        115.9384457,
        23.3357147
      ],
      [
        115.9391363,
        23.3357761
      ],
      [
        115.9393591,
        23.3363489
      ],
      [
        115.9402503,
        23.3364307
      ],
      [
        115.9425227,
        23.3382717
      ],
      [
        115.9456195,
        23.3384354
      ],
      [
        115.9480256,
        23.341156
      ],
      [
        115.9494069,
        23.3409924
      ],
      [
        115.9507659,
        23.3400514
      ],
      [
        115.9529492,
        23.3404605
      ],
      [
        115.9555727,
        23.3395322
      ],
      [
        115.9583353,
        23.3412505
      ],
      [
        115.9602958,
        23.3421301
      ],
      [
        115.9625266,
        23.3411347
      ],
      [
        115.9648031,
        23.3411574
      ],
      [
        115.9655702,
        23.3414528
      ],
      [
        115.9662135,
        23.3439064
      ],
      [
        115.9672442,
        23.3446811
      ],
      [
        115.9688483,
        23.3449675
      ],
      [
        115.9703034,
        23.3446996
      ],
      [
        115.9715625,
        23.3441485
      ],
      [
        115.9728656,
        23.3441082
      ],
      [
        115.973491,
        23.3437704
      ],
      [
        115.9747988,
        23.3425154
      ],
      [
        115.9753495,
        23.3424342
      ],
      [
        115.9779077,
        23.3430486
      ],
      [
        115.9794926,
        23.3429607
      ],
      [
        115.9815043,
        23.3430892
      ],
      [
        115.9836616,
        23.3439513
      ],
      [
        115.9851689,
        23.344288
      ],
      [
        115.9862714,
        23.3442229
      ],
      [
        115.9887412,
        23.3453651
      ],
      [
        115.9892453,
        23.3456832
      ],
      [
        115.9916795,
        23.3462085
      ],
      [
        115.9970398,
        23.3471287
      ],
      [
        116.0004628,
        23.35044
      ],
      [
        116.0012312,
        23.3511097
      ],
      [
        116.0022456,
        23.3516041
      ],
      [
        116.0059604,
        23.3552979
      ],
      [
        116.0067711,
        23.3553736
      ],
      [
        116.0091491,
        23.3550497
      ],
      [
        116.0114534,
        23.3564215
      ],
      [
        116.0120063,
        23.3567873
      ],
      [
        116.0122502,
        23.3573173
      ],
      [
        116.0136848,
        23.3588132
      ],
      [
        116.0171132,
        23.3608831
      ],
      [
        116.0189034,
        23.3628553
      ],
      [
        116.0201124,
        23.3654431
      ],
      [
        116.0218481,
        23.3698482
      ],
      [
        116.0234495,
        23.3716593
      ],
      [
        116.02613276,
        23.37359429
      ]
    ]
  }
}