{
  "type": "Feature",
  "properties": {
    "name": "源-龙潭河-南河"
  },
  "geometry": {
    "type": "LineString",
    "coordinates": [
      [
        115.8978159,
        23.5723397
      ],
      [
        115.8952979,
        23.5723744
      ],
      [
        115.8954917,
        23.571592
      ],
      [
        115.8947496,
        23.5713766
      ],
      [
        115.8945023,
        23.5704766
      ],
      [
        115.893658,
        23.5691618
      ],
      [
        115.8937209,
        23.5685887
      ],
      [
        115.8935459,
        23.5681436
      ],
      [
        115.8944051,
        23.5667734
      ],
      [
        115.8937943,
        23.5666576
      ],
      [
        115.8928474,
        23.5655826
      ],
      [
        115.8936534,
        23.5649881
      ],
      [
        115.8932616,
        23.56461
      ],
      [
        115.8939951,
        23.563806
      ],
      [
        115.89432,
        23.563826
      ],
      [
        115.8944459,
        23.5636473
      ],
      [
        115.8940579,
        23.5620455
      ],
      [
        115.8948664,
        23.5614177
      ],
      [
        115.8958098,
        23.5614051
      ],
      [
        115.8963865,
        23.5611569
      ],
      [
        115.8963809,
        23.560804
      ],
      [
        115.8955216,
        23.5603655
      ],
      [
        115.8949846,
        23.560424
      ],
      [
        115.8940918,
        23.5576641
      ],
      [
        115.8947592,
        23.5564474
      ],
      [
        115.8958956,
        23.5563551
      ],
      [
        115.8961515,
        23.5559024
      ],
      [
        115.894753,
        23.5544108
      ],
      [
        115.8939404,
        23.5525336
      ],
      [
        115.8929083,
        23.5522673
      ],
      [
        115.8923647,
        23.5524636
      ],
      [
        115.8916945,
        23.5509318
      ],
      [
        115.8924556,
        23.5500718
      ],
      [
        115.8905612,
        23.549245
      ],
      [
        115.8905199,
        23.5474885
      ],
      [
        115.8891718,
        23.5452727
      ],
      [
        115.8885788,
        23.5452123
      ],
      [
        115.8876283,
        23.5440122
      ],
      [
        115.8873493,
        23.5429532
      ],
      [
        115.8870844,
        23.5429614
      ],
      [
        115.8868821,
        23.5425587
      ],
      [
        115.8862882,
        23.5419429
      ],
      [
        115.88559,
        23.5416139
      ],
      [
        115.8848921,
        23.5417036
      ],
      [
        115.8848055,
        23.5404348
      ],
      [
        115.8840066,
        23.5401462
      ],
      [
        115.883229,
        23.5395045
      ],
      [
        115.8825047,
        23.5378435
      ],
      [
        115.881593,
        23.5366533
      ],
      [
        115.8815417,
        23.5363784
      ],
      [
        115.8822526,
        23.5355675
      ],
      [
        115.882344,
        23.5352392
      ],
      [
        115.8821375,
        23.5344329
      ],
      [
        115.8817775,
        23.534138
      ],
      [
        115.8814439,
        23.5341734
      ],
      [
        115.8809618,
        23.5348305
      ],
      [
        115.8806712,
        23.5348536
      ],
      [
        115.8803968,
        23.5345065
      ],
      [
        115.8805106,
        23.5338739
      ],
      [
        115.8808489,
        23.5330139
      ],
      [
        115.8813099,
        23.5327083
      ],
      [
        115.8820356,
        23.5326266
      ],
      [
        115.8829784,
        23.5326615
      ],
      [
        115.8840004,
        23.5325919
      ],
      [
        115.8845179,
        23.5323924
      ],
      [
        115.8844969,
        23.5319554
      ],
      [
        115.884598,
        23.5316877
      ],
      [
        115.8845299,
        23.5312617
      ],
      [
        115.8851511,
        23.5310194
      ],
      [
        115.8852881,
        23.5308001
      ],
      [
        115.8852132,
        23.5305532
      ],
      [
        115.8846208,
        23.5303088
      ],
      [
        115.8839554,
        23.5296182
      ],
      [
        115.8839207,
        23.5292577
      ],
      [
        115.8849185,
        23.5285956
      ],
      [
        115.8848403,
        23.5282953
      ],
      [
        115.8837933,
        23.5280166
      ],
      [
        115.8837506,
        23.5275716
      ],
      [
        115.884896,
        23.5270699
      ],
      [
        115.8850871,
        23.526516
      ],
      [
        115.8847723,
        23.5262131
      ],
      [
        115.8848271,
        23.525868
      ],
      [
        115.8859775,
        23.5256823
      ],
      [
        115.8860922,
        23.5243153
      ],
      [
        115.8866139,
        23.523904
      ],
      [
        115.8869943,
        23.5240025
      ],
      [
        115.8873042,
        23.5244592
      ],
      [
        115.8876246,
        23.5244448
      ],
      [
        115.8880668,
        23.5237503
      ],
      [
        115.8880148,
        23.5233475
      ],
      [
        115.8873461,
        23.5228981
      ],
      [
        115.8874644,
        23.5224599
      ],
      [
        115.8884232,
        23.5219536
      ],
      [
        115.8906004,
        23.5218461
      ],
      [
        115.8912907,
        23.5216843
      ],
      [
        115.8913639,
        23.5208965
      ],
      [
        115.8903137,
        23.518841
      ],
      [
        115.8904663,
        23.5182314
      ],
      [
        115.8917566,
        23.5176583
      ],
      [
        115.8931082,
        23.5168546
      ],
      [
        115.8949547,
        23.5154645
      ],
      [
        115.8958855,
        23.5154229
      ],
      [
        115.8965264,
        23.5142663
      ],
      [
        115.896629,
        23.512936
      ],
      [
        115.8973346,
        23.5130105
      ],
      [
        115.8975288,
        23.513251
      ],
      [
        115.8978868,
        23.513339
      ],
      [
        115.8984008,
        23.5125145
      ],
      [
        115.8978426,
        23.510659
      ],
      [
        115.8997408,
        23.5098661
      ],
      [
        115.9015154,
        23.5091629
      ],
      [
        115.9016739,
        23.507058
      ],
      [
        115.9024732,
        23.5062077
      ],
      [
        115.9027044,
        23.5042832
      ],
      [
        115.9033512,
        23.504099
      ],
      [
        115.9038753,
        23.502628
      ],
      [
        115.9059662,
        23.5024811
      ],
      [
        115.907012,
        23.5019571
      ],
      [
        115.9072845,
        23.5002628
      ],
      [
        115.9041518,
        23.4997969
      ],
      [
        115.9026359,
        23.4965238
      ],
      [
        115.8998751,
        23.4976814
      ],
      [
        115.8937408,
        23.493576
      ],
      [
        115.8932925,
        23.4904278
      ],
      [
        115.8915117,
        23.4894088
      ],
      [
        115.8893348,
        23.491428
      ],
      [
        115.8877753,
        23.4919562
      ],
      [
        115.8871948,
        23.4912263
      ],
      [
        115.888154,
        23.4864383
      ],
      [
        115.8851952,
        23.4858587
      ],
      [
        115.8813915,
        23.4830292
      ],
      [
        115.880255,
        23.4814236
      ],
      [
        115.8783503,
        23.4802897
      ],
      [
        115.8760397,
        23.4808177
      ],
      [
        115.8753289,
        23.4797331
      ],
      [
        115.877089,
        23.4785418
      ],
      [
        115.8774861,
        23.4753529
      ],
      [
        115.8762221,
        23.4679875
      ],
      [
        115.8771376,
        23.4637814
      ],
      [
        115.8760931,
        23.4583632
      ],
      [
        115.8774256,
        23.4553871
      ],
      [
        115.8789496,
        23.4546561
      ],
      [
        115.877035,
        23.4453512
      ],
      [
        115.8789912,
        23.4416827
      ],
      [
        115.8777363,
        23.4385342
      ],
      [
        115.8779825,
        23.4327517
      ],
      [
        115.8765433,
        23.4296721
      ],
      [
        115.8730577,
        23.4290405
      ],
      [
        115.873225,
        23.4262699
      ],
      [
        115.8779859,
        23.4233512
      ],
      [
        115.8806294,
        23.4219618
      ],
      [
        115.88282486,
        23.41875274
      ]
    ]
  }
}