{
  "type": "Feature",
  "properties": {
    "name": "源-枫江-北河"
  },
  "geometry": {
    "type": "LineString",
    "coordinates": [
      [
        116.4144958,
        23.7574802
      ],
      [
        116.4149249,
        23.7579267
      ],
      [
        116.4153901,
        23.7581995
      ],
      [
        116.4155467,
        23.7585543
      ],
      [
        116.4164974,
        23.7596662
      ],
      [
        116.417096,
        23.7599972
      ],
      [
        116.4174965,
        23.7607364
      ],
      [
        116.4183985,
        23.760855
      ],
      [
        116.4188852,
        23.7612381
      ],
      [
        116.4189586,
        23.761557
      ],
      [
        116.4191189,
        23.7617825
      ],
      [
        116.4199199,
        23.7621028
      ],
      [
        116.4203385,
        23.7624433
      ],
      [
        116.4208412,
        23.7626865
      ],
      [
        116.4211772,
        23.7629754
      ],
      [
        116.4222954,
        23.763374
      ],
      [
        116.4227242,
        23.7634005
      ],
      [
        116.4230458,
        23.7639945
      ],
      [
        116.4232991,
        23.7640684
      ],
      [
        116.4236355,
        23.7639198
      ],
      [
        116.4239719,
        23.7634866
      ],
      [
        116.4242343,
        23.7628358
      ],
      [
        116.4247028,
        23.7626095
      ],
      [
        116.4253167,
        23.7626745
      ],
      [
        116.4263566,
        23.7626473
      ],
      [
        116.4269937,
        23.7624668
      ],
      [
        116.4273637,
        23.76175
      ],
      [
        116.4275207,
        23.7608997
      ],
      [
        116.4277182,
        23.7607051
      ],
      [
        116.4285805,
        23.7604874
      ],
      [
        116.4292669,
        23.7593943
      ],
      [
        116.429977,
        23.758854
      ],
      [
        116.4302408,
        23.7583262
      ],
      [
        116.4305659,
        23.7579891
      ],
      [
        116.4309149,
        23.7572873
      ],
      [
        116.4310334,
        23.7569166
      ],
      [
        116.4310065,
        23.7557389
      ],
      [
        116.4313394,
        23.7553884
      ],
      [
        116.4321576,
        23.7548879
      ],
      [
        116.4326699,
        23.7547663
      ],
      [
        116.432946,
        23.7546511
      ],
      [
        116.4332108,
        23.7544207
      ],
      [
        116.4339419,
        23.7539165
      ],
      [
        116.4341729,
        23.7536114
      ],
      [
        116.4346462,
        23.7524191
      ],
      [
        116.4350918,
        23.7517959
      ],
      [
        116.4352115,
        23.7507396
      ],
      [
        116.4357379,
        23.7502184
      ],
      [
        116.4360347,
        23.7495694
      ],
      [
        116.4360313,
        23.7493442
      ],
      [
        116.4357658,
        23.7484426
      ],
      [
        116.4357661,
        23.7479481
      ],
      [
        116.4358767,
        23.7474129
      ],
      [
        116.4360611,
        23.7471911
      ],
      [
        116.4366116,
        23.7467306
      ],
      [
        116.4379694,
        23.7460379
      ],
      [
        116.4382472,
        23.74576
      ],
      [
        116.4392709,
        23.7451036
      ],
      [
        116.4398085,
        23.744498
      ],
      [
        116.4402996,
        23.7442756
      ],
      [
        116.4405895,
        23.7438765
      ],
      [
        116.4414056,
        23.7433867
      ],
      [
        116.4416326,
        23.7430899
      ],
      [
        116.4421082,
        23.7428524
      ],
      [
        116.4424049,
        23.7425514
      ],
      [
        116.4426707,
        23.7424274
      ],
      [
        116.4434313,
        23.7415605
      ],
      [
        116.4432332,
        23.7414507
      ],
      [
        116.4432228,
        23.7412933
      ],
      [
        116.4434313,
        23.7408876
      ],
      [
        116.4439308,
        23.7405571
      ],
      [
        116.444058,
        23.7405629
      ],
      [
        116.4444205,
        23.7408772
      ],
      [
        116.4453265,
        23.7411804
      ],
      [
        116.4460035,
        23.7413296
      ],
      [
        116.4463837,
        23.7412301
      ],
      [
        116.4467984,
        23.7404605
      ],
      [
        116.4472901,
        23.7401792
      ],
      [
        116.4475248,
        23.7397905
      ],
      [
        116.4479439,
        23.7386583
      ],
      [
        116.4489273,
        23.7378399
      ],
      [
        116.4490782,
        23.7378553
      ],
      [
        116.4495308,
        23.7380803
      ],
      [
        116.450416,
        23.7394256
      ],
      [
        116.4511857,
        23.7397942
      ],
      [
        116.4516601,
        23.7402858
      ],
      [
        116.4522551,
        23.7405658
      ],
      [
        116.4545289,
        23.7409425
      ],
      [
        116.4560534,
        23.7415237
      ],
      [
        116.4568133,
        23.7414963
      ],
      [
        116.4574655,
        23.741458
      ],
      [
        116.4579556,
        23.7408865
      ],
      [
        116.4576234,
        23.7398798
      ],
      [
        116.4566358,
        23.73827
      ],
      [
        116.4564992,
        23.73727
      ],
      [
        116.4582862,
        23.7347571
      ],
      [
        116.4593191,
        23.7338116
      ],
      [
        116.4615122,
        23.7323997
      ],
      [
        116.4621207,
        23.7322572
      ],
      [
        116.4631536,
        23.7325681
      ],
      [
        116.4637479,
        23.7328142
      ],
      [
        116.4642572,
        23.7326847
      ],
      [
        116.4645818,
        23.7319487
      ],
      [
        116.4655257,
        23.7307966
      ],
      [
        116.4670072,
        23.7299228
      ],
      [
        116.4685351,
        23.7294233
      ],
      [
        116.4694923,
        23.7285078
      ],
      [
        116.4705842,
        23.7279945
      ],
      [
        116.4718543,
        23.726913
      ],
      [
        116.4731562,
        23.7262725
      ],
      [
        116.4740372,
        23.7254687
      ],
      [
        116.4744366,
        23.724731
      ],
      [
        116.4754807,
        23.7241408
      ],
      [
        116.4756699,
        23.7239098
      ],
      [
        116.4752446,
        23.7230165
      ],
      [
        116.4746818,
        23.7225425
      ],
      [
        116.4725133,
        23.7217318
      ],
      [
        116.4720544,
        23.7213262
      ],
      [
        116.4714082,
        23.7189649
      ],
      [
        116.4711487,
        23.718422
      ],
      [
        116.4691263,
        23.7166972
      ],
      [
        116.4689491,
        23.7163303
      ],
      [
        116.4690846,
        23.7152316
      ],
      [
        116.469762,
        23.7145759
      ],
      [
        116.4707588,
        23.7142304
      ],
      [
        116.4719105,
        23.714319
      ],
      [
        116.4730839,
        23.7144712
      ],
      [
        116.4750434,
        23.7143858
      ],
      [
        116.4755411,
        23.7138447
      ],
      [
        116.476215,
        23.7137023
      ],
      [
        116.4765986,
        23.7139016
      ],
      [
        116.4786618,
        23.7140535
      ],
      [
        116.4793793,
        23.7136458
      ],
      [
        116.4798095,
        23.7128112
      ],
      [
        116.4806596,
        23.7124549
      ],
      [
        116.4825954,
        23.7117234
      ],
      [
        116.484966,
        23.711306
      ],
      [
        116.4855529,
        23.7113152
      ],
      [
        116.4866659,
        23.7109076
      ],
      [
        116.4868158,
        23.7105385
      ],
      [
        116.4893037,
        23.7082846
      ],
      [
        116.4896298,
        23.7082054
      ],
      [
        116.4897896,
        23.7078641
      ],
      [
        116.4906377,
        23.7070273
      ],
      [
        116.4913889,
        23.7066792
      ],
      [
        116.4922134,
        23.7065156
      ],
      [
        116.4930802,
        23.7065353
      ],
      [
        116.4936079,
        23.7063006
      ],
      [
        116.4943576,
        23.7051285
      ],
      [
        116.4942363,
        23.7044283
      ],
      [
        116.4935192,
        23.7033923
      ],
      [
        116.4934782,
        23.7021834
      ],
      [
        116.4934448,
        23.700513
      ],
      [
        116.4936535,
        23.7001188
      ],
      [
        116.4941232,
        23.6999754
      ],
      [
        116.4952452,
        23.7000232
      ],
      [
        116.4955844,
        23.7001426
      ],
      [
        116.4962367,
        23.700059
      ],
      [
        116.4977851,
        23.7004505
      ],
      [
        116.4987114,
        23.7007611
      ],
      [
        116.4997688,
        23.7008674
      ],
      [
        116.50034,
        23.7007968
      ],
      [
        116.5020362,
        23.6990954
      ],
      [
        116.50347,
        23.6986136
      ],
      [
        116.5040852,
        23.699223
      ],
      [
        116.5051699,
        23.6998386
      ],
      [
        116.5066005,
        23.6997606
      ],
      [
        116.507644,
        23.699346
      ],
      [
        116.5081362,
        23.6987511
      ],
      [
        116.5087269,
        23.6987511
      ],
      [
        116.5096129,
        23.6990395
      ],
      [
        116.5103217,
        23.6995263
      ],
      [
        116.5114046,
        23.6997606
      ],
      [
        116.5119165,
        23.699977
      ],
      [
        116.5132792,
        23.7000222
      ],
      [
        116.5158691,
        23.6992138
      ],
      [
        116.5172853,
        23.6993369
      ],
      [
        116.5181296,
        23.6995031
      ],
      [
        116.5190851,
        23.6987344
      ],
      [
        116.520246,
        23.6971939
      ],
      [
        116.5208285,
        23.6969806
      ],
      [
        116.5216317,
        23.6969469
      ],
      [
        116.5227441,
        23.6961404
      ],
      [
        116.5246245,
        23.6941555
      ],
      [
        116.5276118,
        23.6932955
      ],
      [
        116.5297432,
        23.6920761
      ],
      [
        116.5342996,
        23.6885365
      ],
      [
        116.5361615,
        23.687425
      ],
      [
        116.5391958,
        23.6866672
      ],
      [
        116.540771,
        23.6858471
      ],
      [
        116.5427343,
        23.6821526
      ],
      [
        116.5461198,
        23.6803503
      ],
      [
        116.5579038,
        23.673111
      ],
      [
        116.560717,
        23.6708208
      ],
      [
        116.560717,
        23.6695325
      ],
      [
        116.5616026,
        23.6684828
      ],
      [
        116.5605086,
        23.6667651
      ],
      [
        116.5604565,
        23.6650951
      ],
      [
        116.5588415,
        23.6621844
      ],
      [
        116.5579375,
        23.6541035
      ],
      [
        116.554758,
        23.6409134
      ],
      [
        116.5503962,
        23.6360906
      ],
      [
        116.5471199,
        23.6340324
      ],
      [
        116.5430845,
        23.628643
      ],
      [
        116.5287119,
        23.6210506
      ],
      [
        116.5292309,
        23.6188908
      ],
      [
        116.5278065,
        23.6171049
      ],
      [
        116.5295455,
        23.6098276
      ],
      [
        116.5284457,
        23.6082638
      ],
      [
        116.5229463,
        23.6060396
      ],
      [
        116.5221878,
        23.6042325
      ],
      [
        116.5238186,
        23.6025643
      ],
      [
        116.5224253,
        23.5988775
      ],
      [
        116.5215329,
        23.5946107
      ],
      [
        116.5222313,
        23.5926906
      ],
      [
        116.5242101,
        23.5925129
      ],
      [
        116.5286334,
        23.5936507
      ],
      [
        116.5295554,
        23.5923222
      ],
      [
        116.5286491,
        23.5871505
      ],
      [
        116.5293342,
        23.5843354
      ],
      [
        116.5267951,
        23.5811194
      ],
      [
        116.5221971,
        23.581599
      ],
      [
        116.5164873,
        23.579154
      ],
      [
        116.5102394,
        23.5795615
      ],
      [
        116.5100756,
        23.5748217
      ],
      [
        116.5051989,
        23.5687999
      ],
      [
        116.4989911,
        23.5672472
      ],
      [
        116.4927472,
        23.5687599
      ],
      [
        116.4900791,
        23.5670455
      ],
      [
        116.4904001,
        23.5604275
      ],
      [
        116.4922893,
        23.5554957
      ],
      [
        116.4887236,
        23.5532973
      ],
      [
        116.48739,
        23.5540755
      ],
      [
        116.4843117,
        23.5603148
      ],
      [
        116.4817926,
        23.5617903
      ],
      [
        116.4736633,
        23.5625612
      ],
      [
        116.4691858,
        23.5670493
      ],
      [
        116.4666087,
        23.5660454
      ],
      [
        116.463323,
        23.5599924
      ],
      [
        116.46311829,
        23.55945473
      ],
      [
        116.4612824,
        23.5546328
      ],
      [
        116.453648,
        23.5554596
      ],
      [
        116.4526816,
        23.5518571
      ],
      [
        116.4526982,
        23.5432621
      ],
      [
        116.4506062,
        23.5394342
      ],
      [
        116.4477359,
        23.5393027
      ],
      [
        116.4425693,
        23.5471968
      ],
      [
        116.4386101,
        23.5474809
      ]
    ]
  }
}