{
  "type": "Feature",
  "properties": {
    "name": "源-五云河-南河"
  },
  "geometry": {
    "type": "LineString",
    "coordinates": [
      [
        115.7544246,
        23.4907944
      ],
      [
        115.7545919,
        23.4904875
      ],
      [
        115.7541736,
        23.4900612
      ],
      [
        115.7537087,
        23.4887908
      ],
      [
        115.7539133,
        23.4884071
      ],
      [
        115.7541922,
        23.4883815
      ],
      [
        115.7547314,
        23.488697
      ],
      [
        115.7554658,
        23.4886202
      ],
      [
        115.7559887,
        23.4883569
      ],
      [
        115.7564162,
        23.4880022
      ],
      [
        115.7567419,
        23.4874047
      ],
      [
        115.7574612,
        23.4869815
      ],
      [
        115.7576966,
        23.4866738
      ],
      [
        115.7576905,
        23.4863545
      ],
      [
        115.7570673,
        23.4859174
      ],
      [
        115.7561494,
        23.4857599
      ],
      [
        115.7557628,
        23.4853493
      ],
      [
        115.7560816,
        23.4850321
      ],
      [
        115.7560341,
        23.4847957
      ],
      [
        115.7555526,
        23.4845344
      ],
      [
        115.7553762,
        23.4842047
      ],
      [
        115.7554847,
        23.4837879
      ],
      [
        115.7559165,
        23.4830802
      ],
      [
        115.7563623,
        23.4822625
      ],
      [
        115.7564539,
        23.4816687
      ],
      [
        115.7565831,
        23.4813469
      ],
      [
        115.7565039,
        23.4808656
      ],
      [
        115.7562464,
        23.4802389
      ],
      [
        115.7561425,
        23.4799211
      ],
      [
        115.7561667,
        23.4796326
      ],
      [
        115.7565387,
        23.479235
      ],
      [
        115.756609,
        23.4790926
      ],
      [
        115.7565288,
        23.4788446
      ],
      [
        115.7563824,
        23.4786512
      ],
      [
        115.7559811,
        23.4785276
      ],
      [
        115.7558639,
        23.4783548
      ],
      [
        115.7556762,
        23.4779052
      ],
      [
        115.7555073,
        23.4777481
      ],
      [
        115.7554603,
        23.4775975
      ],
      [
        115.7557475,
        23.4771324
      ],
      [
        115.7557292,
        23.4769603
      ],
      [
        115.7556091,
        23.4768195
      ],
      [
        115.7551307,
        23.4766001
      ],
      [
        115.7549114,
        23.4764685
      ],
      [
        115.7547201,
        23.4762703
      ],
      [
        115.7546643,
        23.4758529
      ],
      [
        115.7546969,
        23.4750455
      ],
      [
        115.7547824,
        23.4748798
      ],
      [
        115.7551767,
        23.4748436
      ],
      [
        115.7558802,
        23.4741488
      ],
      [
        115.7565014,
        23.4738793
      ],
      [
        115.7568217,
        23.473673
      ],
      [
        115.7568712,
        23.4734072
      ],
      [
        115.7568448,
        23.4729893
      ],
      [
        115.7565326,
        23.4726483
      ],
      [
        115.7564087,
        23.4721809
      ],
      [
        115.7564248,
        23.471939
      ],
      [
        115.7568055,
        23.4710977
      ],
      [
        115.7567656,
        23.4707651
      ],
      [
        115.7565823,
        23.4706043
      ],
      [
        115.7560935,
        23.4703682
      ],
      [
        115.7557593,
        23.4701697
      ],
      [
        115.7555999,
        23.4698389
      ],
      [
        115.7556404,
        23.4693825
      ],
      [
        115.7557923,
        23.4689891
      ],
      [
        115.7560625,
        23.4688218
      ],
      [
        115.7564171,
        23.4687103
      ],
      [
        115.7569719,
        23.4682511
      ],
      [
        115.7571261,
        23.4678175
      ],
      [
        115.7574011,
        23.467458
      ],
      [
        115.7579308,
        23.4670343
      ],
      [
        115.7582568,
        23.4665235
      ],
      [
        115.7582763,
        23.4659603
      ],
      [
        115.7577723,
        23.4650906
      ],
      [
        115.7571981,
        23.4646989
      ],
      [
        115.7563957,
        23.4641722
      ],
      [
        115.7564687,
        23.4630279
      ],
      [
        115.7569487,
        23.4626877
      ],
      [
        115.7574141,
        23.4625743
      ],
      [
        115.758185,
        23.4620139
      ],
      [
        115.7582984,
        23.4616917
      ],
      [
        115.7580611,
        23.4609793
      ],
      [
        115.7565327,
        23.459786
      ],
      [
        115.7554763,
        23.4594482
      ],
      [
        115.7546766,
        23.4593947
      ],
      [
        115.7540199,
        23.4596862
      ],
      [
        115.7536651,
        23.459589
      ],
      [
        115.7533256,
        23.4592955
      ],
      [
        115.7530731,
        23.4588523
      ],
      [
        115.7530127,
        23.4580515
      ],
      [
        115.7530416,
        23.457548
      ],
      [
        115.7534616,
        23.4571403
      ],
      [
        115.7546768,
        23.4567617
      ],
      [
        115.7548636,
        23.4565147
      ],
      [
        115.7550047,
        23.4553655
      ],
      [
        115.7550447,
        23.4539286
      ],
      [
        115.7554465,
        23.4506668
      ],
      [
        115.7569642,
        23.4498813
      ],
      [
        115.7575674,
        23.4491137
      ],
      [
        115.7576133,
        23.4475764
      ],
      [
        115.7569594,
        23.4469099
      ],
      [
        115.7569594,
        23.4460434
      ],
      [
        115.7563332,
        23.444438
      ],
      [
        115.7563229,
        23.4433634
      ],
      [
        115.7581797,
        23.440918
      ],
      [
        115.7605379,
        23.4407322
      ],
      [
        115.7613758,
        23.440176
      ],
      [
        115.761636,
        23.4393204
      ],
      [
        115.7613649,
        23.4384151
      ],
      [
        115.7615818,
        23.4378879
      ],
      [
        115.76064,
        23.4368778
      ],
      [
        115.7609017,
        23.4363866
      ],
      [
        115.7619725,
        23.4366376
      ],
      [
        115.762258,
        23.4365176
      ],
      [
        115.7624008,
        23.4359609
      ],
      [
        115.7621067,
        23.4349056
      ],
      [
        115.7617257,
        23.4341579
      ],
      [
        115.7619562,
        23.4316069
      ],
      [
        115.7630671,
        23.4297515
      ],
      [
        115.7636018,
        23.4292547
      ],
      [
        115.7647086,
        23.4276831
      ],
      [
        115.7658793,
        23.4267349
      ],
      [
        115.7660526,
        23.4257114
      ],
      [
        115.7663428,
        23.424221
      ],
      [
        115.7660422,
        23.4238675
      ],
      [
        115.7630677,
        23.4222832
      ],
      [
        115.762483,
        23.4205148
      ],
      [
        115.7624064,
        23.4197843
      ],
      [
        115.7638441,
        23.4178461
      ],
      [
        115.7656871,
        23.4162056
      ],
      [
        115.768728,
        23.4146667
      ],
      [
        115.7695616,
        23.4137655
      ],
      [
        115.7700533,
        23.412573
      ],
      [
        115.7708963,
        23.412025
      ],
      [
        115.7736057,
        23.4064046
      ],
      [
        115.77553063,
        23.40160938
      ]
    ]
  }
}