{
  "type": "Feature",
  "properties": {
    "name": "源-上砂河-南河"
  },
  "geometry": {
    "type": "LineString",
    "coordinates": [
      [
        115.6643911,
        23.4964707
      ],
      [
        115.6645239,
        23.4958289
      ],
      [
        115.6659357,
        23.4949215
      ],
      [
        115.6662735,
        23.4944788
      ],
      [
        115.6664666,
        23.4934829
      ],
      [
        115.6671182,
        23.4931287
      ],
      [
        115.6680111,
        23.4931287
      ],
      [
        115.6685179,
        23.492177
      ],
      [
        115.6694712,
        23.4917233
      ],
      [
        115.6702314,
        23.4917897
      ],
      [
        115.6709795,
        23.4922213
      ],
      [
        115.671788,
        23.4922324
      ],
      [
        115.6727485,
        23.4914753
      ],
      [
        115.6741151,
        23.4912135
      ],
      [
        115.6767897,
        23.491238
      ],
      [
        115.677283,
        23.4910269
      ],
      [
        115.6779644,
        23.4896329
      ],
      [
        115.6785414,
        23.4888243
      ],
      [
        115.6801773,
        23.487247
      ],
      [
        115.6812618,
        23.4854516
      ],
      [
        115.6819088,
        23.4840654
      ],
      [
        115.6830665,
        23.4827029
      ],
      [
        115.6839741,
        23.4821521
      ],
      [
        115.6843345,
        23.4821899
      ],
      [
        115.6845095,
        23.4825251
      ],
      [
        115.6845713,
        23.483002
      ],
      [
        115.6854002,
        23.4833042
      ],
      [
        115.6857678,
        23.4832743
      ],
      [
        115.6865504,
        23.4826415
      ],
      [
        115.6873716,
        23.4823007
      ],
      [
        115.6885464,
        23.4821794
      ],
      [
        115.6899146,
        23.4816849
      ],
      [
        115.690525,
        23.4812492
      ],
      [
        115.6909548,
        23.4810846
      ],
      [
        115.6932099,
        23.4810432
      ],
      [
        115.6947915,
        23.4796039
      ],
      [
        115.6966249,
        23.4779652
      ],
      [
        115.6975872,
        23.4751177
      ],
      [
        115.6979675,
        23.4736317
      ],
      [
        115.6980012,
        23.4686514
      ],
      [
        115.6974123,
        23.4677538
      ],
      [
        115.6967603,
        23.4674499
      ],
      [
        115.6965252,
        23.4665577
      ],
      [
        115.6952746,
        23.4652243
      ],
      [
        115.6952532,
        23.4646752
      ],
      [
        115.6964444,
        23.4634986
      ],
      [
        115.6974096,
        23.463113
      ],
      [
        115.6981025,
        23.462548
      ],
      [
        115.6985259,
        23.4618682
      ],
      [
        115.6984104,
        23.4611973
      ],
      [
        115.697833,
        23.4608618
      ],
      [
        115.697015,
        23.4610207
      ],
      [
        115.6962162,
        23.4611885
      ],
      [
        115.6958313,
        23.4614621
      ],
      [
        115.6948304,
        23.4618329
      ],
      [
        115.694253,
        23.4617005
      ],
      [
        115.6927483,
        23.4621496
      ],
      [
        115.6921447,
        23.4620891
      ],
      [
        115.691834,
        23.4619276
      ],
      [
        115.6914082,
        23.4618094
      ],
      [
        115.6906926,
        23.4616656
      ],
      [
        115.6903176,
        23.4614397
      ],
      [
        115.6903232,
        23.461224
      ],
      [
        115.6904531,
        23.4610196
      ],
      [
        115.6908546,
        23.4607515
      ],
      [
        115.6910392,
        23.4605278
      ],
      [
        115.6911402,
        23.4601836
      ],
      [
        115.69115,
        23.4599711
      ],
      [
        115.6906714,
        23.4591877
      ],
      [
        115.6904976,
        23.4588255
      ],
      [
        115.6903747,
        23.4584361
      ],
      [
        115.6903858,
        23.4582208
      ],
      [
        115.6905015,
        23.4580103
      ],
      [
        115.6907268,
        23.4578715
      ],
      [
        115.6912312,
        23.4577512
      ],
      [
        115.6916683,
        23.4575908
      ],
      [
        115.6920214,
        23.4572268
      ],
      [
        115.6921382,
        23.456935
      ],
      [
        115.6921634,
        23.4556192
      ],
      [
        115.6918535,
        23.4539541
      ],
      [
        115.6921058,
        23.453122
      ],
      [
        115.6919739,
        23.4527255
      ],
      [
        115.6910638,
        23.4518243
      ],
      [
        115.6908413,
        23.4507196
      ],
      [
        115.6910412,
        23.4503294
      ],
      [
        115.6916214,
        23.450124
      ],
      [
        115.6920985,
        23.4495182
      ],
      [
        115.6923032,
        23.4485385
      ],
      [
        115.6932313,
        23.4481603
      ],
      [
        115.694527,
        23.4464534
      ],
      [
        115.6981569,
        23.4434172
      ],
      [
        115.7000684,
        23.4436821
      ],
      [
        115.7028897,
        23.440692
      ],
      [
        115.7041149,
        23.4373096
      ],
      [
        115.7073149,
        23.4367732
      ],
      [
        115.7071648,
        23.4313305
      ],
      [
        115.708953,
        23.4288615
      ],
      [
        115.7088035,
        23.4271389
      ],
      [
        115.7118534,
        23.4260412
      ],
      [
        115.7110442,
        23.4238937
      ],
      [
        115.7111917,
        23.4202632
      ],
      [
        115.7110418,
        23.4187376
      ],
      [
        115.7100025,
        23.4171916
      ],
      [
        115.7097396,
        23.4136531
      ],
      [
        115.7117235,
        23.408854
      ],
      [
        115.7136686,
        23.4081231
      ],
      [
        115.712217,
        23.4042883
      ],
      [
        115.713899,
        23.3996201
      ],
      [
        115.7209585,
        23.3973442
      ],
      [
        115.7204936,
        23.3955208
      ],
      [
        115.7191266,
        23.3945596
      ],
      [
        115.7205247,
        23.39201
      ],
      [
        115.7206152,
        23.3904103
      ],
      [
        115.7251274,
        23.3899776
      ],
      [
        115.7277972,
        23.3887824
      ],
      [
        115.7308961,
        23.3896014
      ],
      [
        115.7321503,
        23.3914189
      ],
      [
        115.7336685,
        23.3917693
      ],
      [
        115.7342668,
        23.3948866
      ],
      [
        115.7371381,
        23.3925041
      ],
      [
        115.7400552,
        23.3940911
      ],
      [
        115.7405313,
        23.3962468
      ],
      [
        115.7463382,
        23.392222
      ],
      [
        115.7482111,
        23.394676
      ],
      [
        115.7498745,
        23.3968968
      ],
      [
        115.7512813,
        23.3911013
      ],
      [
        115.75342269,
        23.39010135
      ]
    ]
  }
}