{
  "type": "Feature",
  "properties": {
    "name": "源-车田水-枫江"
  },
  "geometry": {
    "type": "LineString",
    "coordinates": [
      [
        116.3656645,
        23.6331475
      ],
      [
        116.3660145,
        23.632249
      ],
      [
        116.3661571,
        23.6320068
      ],
      [
        116.3662741,
        23.6315465
      ],
      [
        116.3663328,
        23.6313126
      ],
      [
        116.3664414,
        23.6311889
      ],
      [
        116.3665611,
        23.6309387
      ],
      [
        116.3668482,
        23.6304782
      ],
      [
        116.3668863,
        23.6301447
      ],
      [
        116.3670877,
        23.6295031
      ],
      [
        116.3670461,
        23.6293736
      ],
      [
        116.3671248,
        23.6288361
      ],
      [
        116.3676093,
        23.6282901
      ],
      [
        116.367644,
        23.628126
      ],
      [
        116.3678036,
        23.6281171
      ],
      [
        116.3681907,
        23.6276333
      ],
      [
        116.3684162,
        23.6274635
      ],
      [
        116.3686913,
        23.6269665
      ],
      [
        116.3689682,
        23.6265431
      ],
      [
        116.3689915,
        23.6264338
      ],
      [
        116.3693074,
        23.6261741
      ],
      [
        116.3695844,
        23.6259844
      ],
      [
        116.3698562,
        23.6259204
      ],
      [
        116.3704007,
        23.6254551
      ],
      [
        116.3711332,
        23.6251636
      ],
      [
        116.3723962,
        23.6246624
      ],
      [
        116.3727173,
        23.624603
      ],
      [
        116.3730804,
        23.6243842
      ],
      [
        116.3733436,
        23.6243663
      ],
      [
        116.3738282,
        23.6241715
      ],
      [
        116.3740566,
        23.6240643
      ],
      [
        116.3743162,
        23.6240535
      ],
      [
        116.3753563,
        23.623709
      ],
      [
        116.3763491,
        23.6234351
      ],
      [
        116.3772645,
        23.6231719
      ],
      [
        116.3776002,
        23.6229195
      ],
      [
        116.3780405,
        23.6224903
      ],
      [
        116.3790865,
        23.6219123
      ],
      [
        116.3799918,
        23.6204785
      ],
      [
        116.3803051,
        23.6186955
      ],
      [
        116.3805519,
        23.6159209
      ],
      [
        116.3806993,
        23.6143053
      ],
      [
        116.3813304,
        23.6129938
      ],
      [
        116.3823958,
        23.6122449
      ],
      [
        116.3830961,
        23.6119628
      ],
      [
        116.3837271,
        23.6118923
      ],
      [
        116.3842756,
        23.6114158
      ],
      [
        116.3845797,
        23.6104475
      ],
      [
        116.3851726,
        23.6097879
      ],
      [
        116.3862748,
        23.6094038
      ],
      [
        116.3884781,
        23.6084562
      ],
      [
        116.3906428,
        23.6077398
      ],
      [
        116.392702,
        23.6070237
      ],
      [
        116.3940641,
        23.6066617
      ],
      [
        116.3948433,
        23.6066247
      ],
      [
        116.3955901,
        23.6068183
      ],
      [
        116.3964596,
        23.6071496
      ],
      [
        116.3969013,
        23.6074476
      ],
      [
        116.3981828,
        23.6070264
      ],
      [
        116.3988833,
        23.6067411
      ],
      [
        116.3993362,
        23.6068102
      ],
      [
        116.399741,
        23.6070343
      ],
      [
        116.4003393,
        23.6076469
      ],
      [
        116.4019571,
        23.60813
      ],
      [
        116.4053895,
        23.6104564
      ],
      [
        116.4066107,
        23.611248
      ],
      [
        116.4074041,
        23.6114227
      ],
      [
        116.4085255,
        23.6121217
      ],
      [
        116.4100379,
        23.6128742
      ],
      [
        116.4111565,
        23.6130352
      ],
      [
        116.4126032,
        23.6128991
      ],
      [
        116.4141495,
        23.612484
      ],
      [
        116.4152354,
        23.6121629
      ],
      [
        116.4164442,
        23.6119548
      ],
      [
        116.4172999,
        23.6118066
      ],
      [
        116.4195688,
        23.6086343
      ],
      [
        116.4211178,
        23.6080321
      ],
      [
        116.4226816,
        23.6077229
      ],
      [
        116.4248668,
        23.6055076
      ],
      [
        116.4271914,
        23.6048046
      ],
      [
        116.4282805,
        23.6032346
      ],
      [
        116.4284319,
        23.6027182
      ],
      [
        116.4296009,
        23.6016162
      ],
      [
        116.4296934,
        23.6009842
      ],
      [
        116.4288104,
        23.6000517
      ],
      [
        116.4288539,
        23.5993885
      ],
      [
        116.4293068,
        23.598782
      ],
      [
        116.4293665,
        23.5984172
      ],
      [
        116.4307418,
        23.5971553
      ],
      [
        116.4309779,
        23.5968557
      ],
      [
        116.4311254,
        23.5965382
      ],
      [
        116.431391,
        23.5957744
      ],
      [
        116.4305287,
        23.5941388
      ],
      [
        116.4302311,
        23.593888
      ],
      [
        116.4300923,
        23.5926681
      ],
      [
        116.4305189,
        23.5919701
      ],
      [
        116.4309468,
        23.5913576
      ],
      [
        116.431518,
        23.5908375
      ],
      [
        116.431935,
        23.590557
      ],
      [
        116.432608,
        23.58975
      ],
      [
        116.4334415,
        23.5891418
      ],
      [
        116.4336911,
        23.588772
      ],
      [
        116.434227,
        23.5881962
      ],
      [
        116.4343084,
        23.587873
      ],
      [
        116.4347993,
        23.5872181
      ],
      [
        116.435571,
        23.5868435
      ],
      [
        116.4359922,
        23.5864989
      ],
      [
        116.4363313,
        23.585959
      ],
      [
        116.4367443,
        23.5851908
      ],
      [
        116.4373826,
        23.5840124
      ],
      [
        116.4382563,
        23.5836856
      ],
      [
        116.4388149,
        23.5836693
      ],
      [
        116.4400273,
        23.5842139
      ],
      [
        116.440872,
        23.5840188
      ],
      [
        116.4412437,
        23.5836841
      ],
      [
        116.4419675,
        23.583469
      ],
      [
        116.4421436,
        23.5829072
      ],
      [
        116.4425784,
        23.5822106
      ],
      [
        116.4426044,
        23.5808304
      ],
      [
        116.4443446,
        23.5796235
      ],
      [
        116.4447312,
        23.5787838
      ],
      [
        116.4440569,
        23.5774616
      ],
      [
        116.4440502,
        23.5769752
      ],
      [
        116.44584,
        23.5763469
      ],
      [
        116.4465093,
        23.5762803
      ],
      [
        116.4480318,
        23.57666
      ],
      [
        116.4482632,
        23.5765417
      ],
      [
        116.4486839,
        23.5754152
      ],
      [
        116.4488347,
        23.5747721
      ],
      [
        116.4497749,
        23.5744663
      ],
      [
        116.4505541,
        23.57442
      ],
      [
        116.4508107,
        23.5741088
      ],
      [
        116.4506796,
        23.5733514
      ],
      [
        116.4502351,
        23.5725365
      ],
      [
        116.4501718,
        23.5719548
      ],
      [
        116.4504833,
        23.5714297
      ],
      [
        116.4510062,
        23.5713074
      ],
      [
        116.4519295,
        23.5718121
      ],
      [
        116.4524741,
        23.5715206
      ],
      [
        116.4527159,
        23.5711076
      ],
      [
        116.4541584,
        23.5708213
      ],
      [
        116.4560944,
        23.5698033
      ],
      [
        116.4564932,
        23.5693288
      ],
      [
        116.4555882,
        23.5679463
      ],
      [
        116.4555317,
        23.567255
      ],
      [
        116.4560785,
        23.5665292
      ],
      [
        116.4575753,
        23.5657747
      ],
      [
        116.4581057,
        23.5647967
      ],
      [
        116.4583174,
        23.5643563
      ],
      [
        116.4590903,
        23.5640768
      ],
      [
        116.4592793,
        23.5638843
      ],
      [
        116.4585232,
        23.5611504
      ],
      [
        116.4585779,
        23.5600791
      ],
      [
        116.459112,
        23.5598343
      ],
      [
        116.4604769,
        23.560061
      ],
      [
        116.46311829,
        23.55945473
      ]
    ]
  }
}