{
  "type": "Feature",
  "properties": {
    "name": "源-德桥河-南河"
  },
  "geometry": {
    "type": "LineString",
    "coordinates": [
      [
        116.2572172,
        23.6092468
      ],
      [
        116.2563828,
        23.6087881
      ],
      [
        116.2566212,
        23.6077177
      ],
      [
        116.2561921,
        23.6068876
      ],
      [
        116.2560729,
        23.6060137
      ],
      [
        116.2544279,
        23.6045064
      ],
      [
        116.2551431,
        23.6035452
      ],
      [
        116.2549524,
        23.6028898
      ],
      [
        116.2567881,
        23.6017975
      ],
      [
        116.2579086,
        23.6021471
      ],
      [
        116.2588145,
        23.6012732
      ],
      [
        116.2588359,
        23.6007753
      ],
      [
        116.2584057,
        23.5997001
      ],
      [
        116.2585622,
        23.5993059
      ],
      [
        116.2593639,
        23.5987683
      ],
      [
        116.2593052,
        23.5984995
      ],
      [
        116.2627273,
        23.5965463
      ],
      [
        116.2659455,
        23.5920102
      ],
      [
        116.2661368,
        23.5910379
      ],
      [
        116.2654585,
        23.5895395
      ],
      [
        116.2651004,
        23.5876425
      ],
      [
        116.2624222,
        23.5846718
      ],
      [
        116.2609886,
        23.58276
      ],
      [
        116.2584534,
        23.5817643
      ],
      [
        116.2566058,
        23.5796238
      ],
      [
        116.2550945,
        23.5769926
      ],
      [
        116.2512498,
        23.575649
      ],
      [
        116.2506689,
        23.5750913
      ],
      [
        116.2498668,
        23.5737477
      ],
      [
        116.2480966,
        23.5737984
      ],
      [
        116.2475157,
        23.5723026
      ],
      [
        116.2480689,
        23.5709843
      ],
      [
        116.250262,
        23.5675657
      ],
      [
        116.2522038,
        23.5675959
      ],
      [
        116.255462,
        23.568893
      ],
      [
        116.2577658,
        23.5679579
      ],
      [
        116.2592173,
        23.566552
      ],
      [
        116.2604052,
        23.5648019
      ],
      [
        116.2602077,
        23.5632332
      ],
      [
        116.2610634,
        23.5621472
      ],
      [
        116.2593521,
        23.5604578
      ],
      [
        116.2588021,
        23.5589057
      ],
      [
        116.2574147,
        23.5573405
      ],
      [
        116.2574147,
        23.5544791
      ],
      [
        116.2571153,
        23.5529161
      ],
      [
        116.2579358,
        23.5518696
      ],
      [
        116.2567943,
        23.5499402
      ],
      [
        116.2571546,
        23.5471896
      ],
      [
        116.2551631,
        23.5440978
      ],
      [
        116.2553013,
        23.5423683
      ],
      [
        116.2539071,
        23.539386
      ],
      [
        116.2554252,
        23.5382782
      ],
      [
        116.2624643,
        23.5366425
      ],
      [
        116.2661479,
        23.5340474
      ],
      [
        116.27286328,
        23.53112103
      ]
    ]
  }
}