{
  "type": "Feature",
  "properties": {
    "name": "源-万里桥水-枫江"
  },
  "geometry": {
    "type": "LineString",
    "coordinates": [
      [
        116.6048602,
        23.5562639
      ],
      [
        116.5998881,
        23.5533943
      ],
      [
        116.5987057,
        23.5531468
      ],
      [
        116.5955918,
        23.5524393
      ],
      [
        116.5848719,
        23.5500521
      ],
      [
        116.5823169,
        23.5503464
      ],
      [
        116.5813769,
        23.5499424
      ],
      [
        116.5801284,
        23.5488114
      ],
      [
        116.5795058,
        23.5488483
      ],
      [
        116.5791008,
        23.5486088
      ],
      [
        116.5789702,
        23.5482375
      ],
      [
        116.57833,
        23.5480698
      ],
      [
        116.5769059,
        23.5486208
      ],
      [
        116.5754865,
        23.5483489
      ],
      [
        116.5747548,
        23.5485046
      ],
      [
        116.5715698,
        23.5483707
      ],
      [
        116.5704733,
        23.5487798
      ],
      [
        116.5697592,
        23.5488382
      ],
      [
        116.5694787,
        23.5495162
      ],
      [
        116.5676681,
        23.5514448
      ],
      [
        116.5673387,
        23.5515742
      ],
      [
        116.5669049,
        23.55145
      ],
      [
        116.5667422,
        23.5510979
      ],
      [
        116.5663626,
        23.5510026
      ],
      [
        116.5661168,
        23.5513991
      ],
      [
        116.5654479,
        23.5518932
      ],
      [
        116.5650508,
        23.5523071
      ],
      [
        116.5642837,
        23.5528507
      ],
      [
        116.5635964,
        23.5538788
      ],
      [
        116.5626291,
        23.5560798
      ],
      [
        116.5624615,
        23.5565736
      ],
      [
        116.5614911,
        23.5579108
      ],
      [
        116.5608275,
        23.5592512
      ],
      [
        116.5607982,
        23.5603553
      ],
      [
        116.561496,
        23.5610743
      ],
      [
        116.5621674,
        23.5650593
      ],
      [
        116.5626876,
        23.568041
      ],
      [
        116.5624552,
        23.5689405
      ],
      [
        116.5632041,
        23.5700293
      ],
      [
        116.5632041,
        23.5712128
      ],
      [
        116.5627393,
        23.5721122
      ],
      [
        116.5620162,
        23.5721359
      ],
      [
        116.5612415,
        23.5716388
      ],
      [
        116.5605184,
        23.5715678
      ],
      [
        116.5600019,
        23.572775
      ],
      [
        116.558659,
        23.5727986
      ],
      [
        116.5575073,
        23.5740603
      ],
      [
        116.5568099,
        23.5743885
      ],
      [
        116.5559994,
        23.5742503
      ],
      [
        116.5552643,
        23.5744749
      ],
      [
        116.5549779,
        23.5754734
      ],
      [
        116.5543972,
        23.5761036
      ],
      [
        116.5523649,
        23.5765237
      ],
      [
        116.551397,
        23.5780451
      ],
      [
        116.5506331,
        23.5798172
      ],
      [
        116.5501073,
        23.5800896
      ],
      [
        116.5489689,
        23.5799081
      ],
      [
        116.5482067,
        23.5800533
      ],
      [
        116.5482093,
        23.5815965
      ],
      [
        116.5478062,
        23.5820529
      ],
      [
        116.5471243,
        23.5822376
      ],
      [
        116.544428,
        23.5793703
      ],
      [
        116.5441285,
        23.5783078
      ],
      [
        116.5455015,
        23.5761963
      ],
      [
        116.5450337,
        23.5755754
      ],
      [
        116.5396625,
        23.5755606
      ],
      [
        116.535927,
        23.578476
      ],
      [
        116.5346011,
        23.5811494
      ],
      [
        116.5338939,
        23.5823444
      ],
      [
        116.5293342,
        23.5843354
      ]
    ]
  }
}