{
  "type": "Feature",
  "properties": {
    "name": "源-石肚河-南河"
  },
  "geometry": {
    "type": "LineString",
    "coordinates": [
      [
        115.8178334,
        23.2873602
      ],
      [
        115.8191256,
        23.2872491
      ],
      [
        115.8202233,
        23.2864143
      ],
      [
        115.8215514,
        23.2874262
      ],
      [
        115.8231455,
        23.2866835
      ],
      [
        115.8250502,
        23.2870121
      ],
      [
        115.8267244,
        23.2856888
      ],
      [
        115.8272854,
        23.2841316
      ],
      [
        115.8287989,
        23.2832994
      ],
      [
        115.829716,
        23.2838825
      ],
      [
        115.8312736,
        23.2847055
      ],
      [
        115.833634,
        23.2843916
      ],
      [
        115.8346608,
        23.2842545
      ],
      [
        115.8361419,
        23.2854465
      ],
      [
        115.8387835,
        23.2853407
      ],
      [
        115.8408879,
        23.285579
      ],
      [
        115.842079,
        23.2863643
      ],
      [
        115.8428407,
        23.284965
      ],
      [
        115.8437857,
        23.284343
      ],
      [
        115.844761,
        23.2843289
      ],
      [
        115.8455932,
        23.2838106
      ],
      [
        115.8458597,
        23.2831531
      ],
      [
        115.8462417,
        23.2821433
      ],
      [
        115.846781,
        23.2814378
      ],
      [
        115.8472465,
        23.2808936
      ],
      [
        115.8479517,
        23.2808547
      ],
      [
        115.8475427,
        23.2816451
      ],
      [
        115.8475427,
        23.2821763
      ],
      [
        115.8477402,
        23.2829278
      ],
      [
        115.8474446,
        23.2838722
      ],
      [
        115.8467046,
        23.2848321
      ],
      [
        115.8462456,
        23.2865406
      ],
      [
        115.847628,
        23.2872402
      ],
      [
        115.8482137,
        23.2887456
      ],
      [
        115.848299,
        23.2895501
      ],
      [
        115.8487927,
        23.2900165
      ],
      [
        115.8488848,
        23.2911874
      ],
      [
        115.8489412,
        23.2935083
      ],
      [
        115.8480684,
        23.2954773
      ],
      [
        115.8472603,
        23.2962468
      ],
      [
        115.8470205,
        23.2975294
      ],
      [
        115.8459725,
        23.2990296
      ],
      [
        115.8462745,
        23.2999599
      ],
      [
        115.8455032,
        23.3009287
      ],
      [
        115.844403,
        23.3011619
      ],
      [
        115.8439234,
        23.3017449
      ],
      [
        115.8427704,
        23.3019599
      ],
      [
        115.8407251,
        23.3031259
      ],
      [
        115.8401728,
        23.3041304
      ],
      [
        115.8386568,
        23.3044282
      ],
      [
        115.8375988,
        23.3058661
      ],
      [
        115.836766,
        23.3063657
      ],
      [
        115.8367228,
        23.3078869
      ],
      [
        115.8384296,
        23.3088715
      ],
      [
        115.8377173,
        23.31021
      ],
      [
        115.8352686,
        23.3118833
      ],
      [
        115.8350006,
        23.3132175
      ],
      [
        115.8330627,
        23.3151683
      ],
      [
        115.8339561,
        23.3174
      ],
      [
        115.8328499,
        23.3202506
      ],
      [
        115.8315686,
        23.3219856
      ],
      [
        115.8317807,
        23.3231902
      ],
      [
        115.8311071,
        23.3245373
      ],
      [
        115.8310823,
        23.3261671
      ],
      [
        115.8340701,
        23.3305791
      ],
      [
        115.8381325,
        23.3329882
      ],
      [
        115.8398231,
        23.3328832
      ],
      [
        115.8425678,
        23.33453
      ],
      [
        115.845371,
        23.3359963
      ],
      [
        115.844694,
        23.3377707
      ],
      [
        115.8451492,
        23.3389574
      ],
      [
        115.8458544,
        23.3403173
      ],
      [
        115.8474095,
        23.3411624
      ],
      [
        115.8478327,
        23.3426907
      ],
      [
        115.8489048,
        23.3436879
      ],
      [
        115.8514156,
        23.3430792
      ],
      [
        115.8540251,
        23.3440764
      ],
      [
        115.8577491,
        23.3501901
      ],
      [
        115.8641052,
        23.3545699
      ],
      [
        115.8661427,
        23.3556764
      ],
      [
        115.8682162,
        23.3563498
      ],
      [
        115.8691893,
        23.3575553
      ],
      [
        115.8698264,
        23.3597502
      ],
      [
        115.8712752,
        23.3632265
      ],
      [
        115.8741153,
        23.3632036
      ],
      [
        115.8763017,
        23.3630093
      ],
      [
        115.8760901,
        23.3639676
      ],
      [
        115.8753425,
        23.364861
      ],
      [
        115.8751163,
        23.3669801
      ],
      [
        115.8767949,
        23.3691567
      ],
      [
        115.8754971,
        23.3710989
      ],
      [
        115.8752714,
        23.372351
      ],
      [
        115.8759485,
        23.3727654
      ],
      [
        115.8760745,
        23.373712
      ],
      [
        115.8750307,
        23.3746442
      ],
      [
        115.8756949,
        23.3756103
      ],
      [
        115.8764001,
        23.3773583
      ],
      [
        115.8773337,
        23.3782577
      ],
      [
        115.8776723,
        23.3788533
      ],
      [
        115.8776975,
        23.3794954
      ],
      [
        115.8787585,
        23.3816827
      ],
      [
        115.8782116,
        23.3825148
      ],
      [
        115.8794247,
        23.3837707
      ],
      [
        115.8811314,
        23.3885229
      ],
      [
        115.8815828,
        23.390439
      ],
      [
        115.8838705,
        23.3915678
      ],
      [
        115.8842113,
        23.3925658
      ],
      [
        115.8852975,
        23.3932261
      ],
      [
        115.8872292,
        23.3953513
      ],
      [
        115.89103,
        23.3981261
      ],
      [
        115.8939815,
        23.4002321
      ],
      [
        115.8969782,
        23.4023695
      ],
      [
        115.8996165,
        23.4046728
      ],
      [
        115.9027405,
        23.4066573
      ],
      [
        115.9033592,
        23.4081101
      ],
      [
        115.9039251,
        23.4095383
      ],
      [
        115.90666271,
        23.41269314
      ]
    ]
  }
}