{
  "type": "Feature",
  "properties": {
    "name": "源-火烧溪-南河"
  },
  "geometry": {
    "type": "LineString",
    "coordinates": [
      [
        116.0134358,
        23.3345993
      ],
      [
        116.0141479,
        23.3353736
      ],
      [
        116.0161906,
        23.3378342
      ],
      [
        116.0166992,
        23.3384824
      ],
      [
        116.0199124,
        23.3412628
      ],
      [
        116.0227163,
        23.3432918
      ],
      [
        116.0242368,
        23.3437167
      ],
      [
        116.0256251,
        23.3434739
      ],
      [
        116.0281481,
        23.343529
      ],
      [
        116.0295474,
        23.3433075
      ],
      [
        116.0314041,
        23.3433889
      ],
      [
        116.0330673,
        23.3438617
      ],
      [
        116.0337524,
        23.3443823
      ],
      [
        116.0352327,
        23.3451794
      ],
      [
        116.0369811,
        23.3459189
      ],
      [
        116.0384752,
        23.347418
      ],
      [
        116.0395686,
        23.3486909
      ],
      [
        116.0414314,
        23.3509924
      ],
      [
        116.0436117,
        23.3537778
      ],
      [
        116.0436602,
        23.3541213
      ],
      [
        116.0435218,
        23.3552013
      ],
      [
        116.0436135,
        23.3564261
      ],
      [
        116.0439872,
        23.3575145
      ],
      [
        116.0440559,
        23.3579001
      ],
      [
        116.044305,
        23.358499
      ],
      [
        116.0452361,
        23.3595878
      ],
      [
        116.0457527,
        23.3606093
      ],
      [
        116.0458451,
        23.3614482
      ],
      [
        116.0459491,
        23.3632612
      ],
      [
        116.046118,
        23.3636957
      ],
      [
        116.0473357,
        23.3653743
      ],
      [
        116.0494151,
        23.3686198
      ],
      [
        116.05023021,
        23.37066906
      ]
    ]
  }
}