{
  "type": "Feature",
  "properties": {
    "name": "源-五经富河-南河"
  },
  "geometry": {
    "type": "LineString",
    "coordinates": [
      [
        116.0725754,
        23.6455196
      ],
      [
        116.0650905,
        23.6413461
      ],
      [
        116.0658228,
        23.6341911
      ],
      [
        116.06086,
        23.6304643
      ],
      [
        116.062243,
        23.6261412
      ],
      [
        116.0602091,
        23.6245759
      ],
      [
        116.0585006,
        23.6201781
      ],
      [
        116.0525615,
        23.6161528
      ],
      [
        116.0542333,
        23.6138246
      ],
      [
        116.0511567,
        23.6075825
      ],
      [
        116.0592144,
        23.604025
      ],
      [
        116.0604245,
        23.5970028
      ],
      [
        116.0675475,
        23.5941017
      ],
      [
        116.0692623,
        23.5915028
      ],
      [
        116.0715047,
        23.5865465
      ],
      [
        116.0730203,
        23.5836188
      ],
      [
        116.0714974,
        23.577238
      ],
      [
        116.0706271,
        23.5720534
      ],
      [
        116.0638825,
        23.5698598
      ],
      [
        116.0632298,
        23.5671677
      ],
      [
        116.0674724,
        23.5580937
      ],
      [
        116.0614893,
        23.5554013
      ],
      [
        116.0604014,
        23.5526092
      ],
      [
        116.0595296,
        23.5497509
      ],
      [
        116.0591861,
        23.5433476
      ],
      [
        116.0593578,
        23.5413006
      ],
      [
        116.0566669,
        23.5366291
      ],
      [
        116.0543195,
        23.5316949
      ],
      [
        116.0556364,
        23.530855
      ],
      [
        116.0605696,
        23.5309566
      ],
      [
        116.0624465,
        23.5281134
      ],
      [
        116.06115365,
        23.52356954
      ],
      [
        116.0609776,
        23.5229508
      ],
      [
        116.0584479,
        23.519696
      ],
      [
        116.0601882,
        23.5122597
      ],
      [
        116.0607332,
        23.5071373
      ],
      [
        116.070522,
        23.499626
      ],
      [
        116.0768051,
        23.4898563
      ],
      [
        116.0776335,
        23.4847914
      ],
      [
        116.0796768,
        23.4840823
      ],
      [
        116.081941,
        23.4855005
      ],
      [
        116.0833216,
        23.4875264
      ],
      [
        116.0862485,
        23.4877797
      ],
      [
        116.0889545,
        23.4848927
      ],
      [
        116.0913292,
        23.4867161
      ],
      [
        116.0906665,
        23.4905654
      ],
      [
        116.0932621,
        23.4924393
      ],
      [
        116.0985084,
        23.4887927
      ],
      [
        116.1074025,
        23.476709
      ],
      [
        116.11248098,
        23.47403907
      ],
      [
        116.1148344,
        23.4728018
      ],
      [
        116.1185051,
        23.4742982
      ],
      [
        116.1208163,
        23.4766674
      ],
      [
        116.12566939,
        23.47719557
      ]
    ]
  }
}