{
  "type": "Feature",
  "properties": {
    "name": "源-洪阳河-南河"
  },
  "geometry": {
    "type": "LineString",
    "coordinates": [
      [
        116.2321163,
        23.3817935
      ],
      [
        116.2261509,
        23.3824955
      ],
      [
        116.2170499,
        23.3871987
      ],
      [
        116.1945649,
        23.395271
      ],
      [
        116.1963773,
        23.4103215
      ],
      [
        116.1965909,
        23.4111207
      ],
      [
        116.1975112,
        23.411362
      ],
      [
        116.1975769,
        23.4125231
      ],
      [
        116.1970839,
        23.4136843
      ],
      [
        116.1984149,
        23.4148756
      ],
      [
        116.1983778,
        23.4155528
      ],
      [
        116.1988246,
        23.4164798
      ],
      [
        116.2000678,
        23.4176207
      ],
      [
        116.2000678,
        23.4188863
      ],
      [
        116.2002427,
        23.419225
      ],
      [
        116.1999319,
        23.4195815
      ],
      [
        116.2000484,
        23.4204015
      ],
      [
        116.1998542,
        23.4207046
      ],
      [
        116.2000873,
        23.4211858
      ],
      [
        116.1998671,
        23.4228044
      ],
      [
        116.2000792,
        23.4239526
      ],
      [
        116.2004398,
        23.4242932
      ],
      [
        116.2010018,
        23.4242153
      ],
      [
        116.2017123,
        23.4238456
      ],
      [
        116.2021576,
        23.4237969
      ],
      [
        116.2023803,
        23.4240888
      ],
      [
        116.2023284,
        23.4244729
      ],
      [
        116.2022596,
        23.4248709
      ],
      [
        116.2023422,
        23.4253637
      ],
      [
        116.2029756,
        23.4264502
      ],
      [
        116.2029489,
        23.4267587
      ],
      [
        116.202725,
        23.4276128
      ],
      [
        116.2027352,
        23.4278135
      ],
      [
        116.2033716,
        23.4287989
      ],
      [
        116.2036174,
        23.4289975
      ],
      [
        116.2037897,
        23.4290917
      ],
      [
        116.2041749,
        23.4291556
      ],
      [
        116.2045233,
        23.4290547
      ],
      [
        116.2049194,
        23.4290513
      ],
      [
        116.2050278,
        23.4291665
      ],
      [
        116.205076,
        23.4293545
      ],
      [
        116.2051348,
        23.4301295
      ],
      [
        116.2050873,
        23.4302686
      ],
      [
        116.2049148,
        23.4303996
      ],
      [
        116.2042584,
        23.4306816
      ],
      [
        116.2039735,
        23.4308191
      ],
      [
        116.2038763,
        23.4309916
      ],
      [
        116.2038358,
        23.4311067
      ],
      [
        116.2037785,
        23.4316342
      ],
      [
        116.2037326,
        23.431832
      ],
      [
        116.2035806,
        23.4320329
      ],
      [
        116.2035151,
        23.4321684
      ],
      [
        116.2035111,
        23.4322965
      ],
      [
        116.2035914,
        23.4324219
      ],
      [
        116.2038401,
        23.4325301
      ],
      [
        116.2039694,
        23.4326087
      ],
      [
        116.2041252,
        23.4328717
      ],
      [
        116.2042197,
        23.4332619
      ],
      [
        116.2046218,
        23.4342492
      ],
      [
        116.2046541,
        23.4349553
      ],
      [
        116.2045702,
        23.435139
      ],
      [
        116.2039103,
        23.435405
      ],
      [
        116.2035348,
        23.4358152
      ],
      [
        116.2033645,
        23.436172
      ],
      [
        116.2032751,
        23.4364625
      ],
      [
        116.2031406,
        23.4373318
      ],
      [
        116.2031351,
        23.4395849
      ],
      [
        116.2033263,
        23.4404546
      ],
      [
        116.2040089,
        23.4414632
      ],
      [
        116.2043595,
        23.441624
      ],
      [
        116.2049527,
        23.4416364
      ],
      [
        116.2053302,
        23.4415312
      ],
      [
        116.2055392,
        23.4415745
      ],
      [
        116.2058425,
        23.4420384
      ],
      [
        116.207606,
        23.4437543
      ],
      [
        116.2085402,
        23.4444684
      ],
      [
        116.2096807,
        23.4443413
      ],
      [
        116.2108195,
        23.4446692
      ],
      [
        116.2122796,
        23.4461971
      ],
      [
        116.214103,
        23.4494798
      ],
      [
        116.21531,
        23.4516995
      ],
      [
        116.2179182,
        23.452821
      ],
      [
        116.2238061,
        23.457878
      ],
      [
        116.2271765,
        23.4589951
      ],
      [
        116.2299966,
        23.4615243
      ],
      [
        116.2363134,
        23.4629043
      ],
      [
        116.2381254,
        23.4652574
      ],
      [
        116.2401722,
        23.4656181
      ],
      [
        116.2422896,
        23.4668133
      ],
      [
        116.2486109,
        23.4733613
      ],
      [
        116.2502862,
        23.4740747
      ],
      [
        116.2513683,
        23.4755393
      ],
      [
        116.253987,
        23.4776413
      ],
      [
        116.2571321,
        23.4786261
      ],
      [
        116.2575402,
        23.4808664
      ],
      [
        116.2606082,
        23.4839045
      ],
      [
        116.2611402,
        23.4865319
      ],
      [
        116.2598294,
        23.4890821
      ],
      [
        116.2573953,
        23.4905762
      ],
      [
        116.2564946,
        23.4946014
      ],
      [
        116.2595614,
        23.5003286
      ],
      [
        116.2696728,
        23.511972
      ],
      [
        116.270614,
        23.5130075
      ],
      [
        116.2713464,
        23.5169647
      ],
      [
        116.2738563,
        23.5209138
      ],
      [
        116.284053,
        23.5262567
      ],
      [
        116.2897055,
        23.5285586
      ],
      [
        116.2951817,
        23.5298857
      ],
      [
        116.2982697,
        23.5295319
      ],
      [
        116.3009125,
        23.5307124
      ],
      [
        116.30350195,
        23.53333999
      ]
    ]
  }
}