{
  "type": "Feature",
  "geometry": {
    "type": "LineString",
    "coordinates": [
      [
        116.0903614,
        23.8826868
      ],
      [
        116.0904019,
        23.8820584
      ],
      [
        116.092099,
        23.8763333
      ],
      [
        116.0933935,
        23.8753249
      ],
      [
        116.0926743,
        23.8737466
      ],
      [
        116.0945922,
        23.8722997
      ],
      [
        116.0935853,
        23.8700636
      ],
      [
        116.0929141,
        23.8680906
      ],
      [
        116.0924346,
        23.8644075
      ],
      [
        116.0957429,
        23.863399
      ],
      [
        116.0970854,
        23.8605928
      ],
      [
        116.095647,
        23.8580934
      ],
      [
        116.0940648,
        23.8562079
      ],
      [
        116.0943525,
        23.8544977
      ],
      [
        116.0971316,
        23.8553591
      ],
      [
        116.099481,
        23.85799
      ],
      [
        116.1010153,
        23.8580777
      ],
      [
        116.1025975,
        23.8573323
      ],
      [
        116.1042276,
        23.857727
      ],
      [
        116.1061075,
        23.8554468
      ],
      [
        116.1093136,
        23.8545735
      ],
      [
        116.1118523,
        23.8493144
      ],
      [
        116.1126297,
        23.848884
      ],
      [
        116.1140821,
        23.8489776
      ],
      [
        116.1147367,
        23.8488466
      ],
      [
        116.1146958,
        23.8482853
      ],
      [
        116.1131615,
        23.8471066
      ],
      [
        116.1129365,
        23.8457033
      ],
      [
        116.1137196,
        23.8424871
      ],
      [
        116.1142439,
        23.8416929
      ],
      [
        116.1141456,
        23.8411384
      ],
      [
        116.1122984,
        23.8403642
      ],
      [
        116.1118622,
        23.8394587
      ],
      [
        116.1129528,
        23.8384458
      ],
      [
        116.1154562,
        23.8381284
      ],
      [
        116.1168753,
        23.8374881
      ],
      [
        116.1197808,
        23.835428
      ],
      [
        116.1199637,
        23.835025
      ],
      [
        116.1196987,
        23.8344831
      ],
      [
        116.1183576,
        23.83379
      ],
      [
        116.1184038,
        23.8330953
      ],
      [
        116.1189228,
        23.8320888
      ],
      [
        116.1195872,
        23.8317279
      ],
      [
        116.1198363,
        23.8311202
      ],
      [
        116.119691,
        23.8305125
      ],
      [
        116.1189317,
        23.8293774
      ],
      [
        116.1183919,
        23.8286652
      ],
      [
        116.1184396,
        23.8273877
      ],
      [
        116.1187055,
        23.827017
      ],
      [
        116.1196805,
        23.827295
      ],
      [
        116.1202502,
        23.82799
      ],
      [
        116.1214278,
        23.8283722
      ],
      [
        116.1221761,
        23.8282201
      ],
      [
        116.1232397,
        23.8276989
      ],
      [
        116.1233916,
        23.826448
      ],
      [
        116.1250102,
        23.8245534
      ],
      [
        116.1266495,
        23.824312
      ],
      [
        116.1269135,
        23.823308
      ],
      [
        116.1269968,
        23.822914
      ],
      [
        116.1265762,
        23.821238
      ],
      [
        116.1253872,
        23.8195786
      ],
      [
        116.1254731,
        23.8184437
      ],
      [
        116.1250331,
        23.8175797
      ],
      [
        116.1241853,
        23.8168728
      ],
      [
        116.1242819,
        23.8162543
      ],
      [
        116.1250544,
        23.8148393
      ],
      [
        116.1261618,
        23.8116246
      ],
      [
        116.128844,
        23.8089908
      ],
      [
        116.1300219,
        23.8072254
      ],
      [
        116.1309491,
        23.806721
      ],
      [
        116.1309491,
        23.806081
      ],
      [
        116.1286538,
        23.8024476
      ],
      [
        116.1288149,
        23.8014404
      ],
      [
        116.1334025,
        23.7981049
      ],
      [
        116.1374617,
        23.7937644
      ],
      [
        116.1406522,
        23.7883125
      ],
      [
        116.1411163,
        23.7835348
      ],
      [
        116.1403106,
        23.7813227
      ],
      [
        116.140766,
        23.7799762
      ],
      [
        116.1421674,
        23.7789502
      ],
      [
        116.146932,
        23.778822
      ],
      [
        116.1497482,
        23.7755815
      ],
      [
        116.1501762,
        23.7694923
      ],
      [
        116.1518553,
        23.7662257
      ],
      [
        116.1557874,
        23.7635971
      ],
      [
        116.1582466,
        23.7599004
      ],
      [
        116.160476,
        23.7582619
      ],
      [
        116.1643605,
        23.7575199
      ],
      [
        116.1699677,
        23.7545519
      ],
      [
        116.1790712,
        23.7499398
      ],
      [
        116.1875109,
        23.7414868
      ],
      [
        116.1968068,
        23.7400313
      ],
      [
        116.1973457,
        23.735566
      ],
      [
        116.202386,
        23.7310126
      ],
      [
        116.2022534,
        23.7290698
      ],
      [
        116.2067865,
        23.7207492
      ],
      [
        116.2067334,
        23.7173939
      ],
      [
        116.20514,
        23.7157406
      ],
      [
        116.20514,
        23.7138927
      ],
      [
        116.2072645,
        23.7119476
      ],
      [
        116.2076894,
        23.7086894
      ],
      [
        116.2078535,
        23.7069439
      ],
      [
        116.2088039,
        23.706212
      ],
      [
        116.2128546,
        23.7033236
      ],
      [
        116.2154462,
        23.7029255
      ],
      [
        116.2153493,
        23.7006467
      ],
      [
        116.2207982,
        23.6988403
      ],
      [
        116.2220048,
        23.6957096
      ],
      [
        116.2262303,
        23.6944228
      ],
      [
        116.2282114,
        23.6903491
      ],
      [
        116.2312094,
        23.688002
      ],
      [
        116.2409189,
        23.6865062
      ],
      [
        116.2429572,
        23.6846409
      ],
      [
        116.2464101,
        23.6770089
      ],
      [
        116.2466332,
        23.6714698
      ],
      [
        116.2479003,
        23.6692641
      ],
      [
        116.2463475,
        23.6660943
      ],
      [
        116.2450298,
        23.6647356
      ],
      [
        116.2446647,
        23.6578301
      ],
      [
        116.2472228,
        23.6519972
      ],
      [
        116.2515018,
        23.644155
      ],
      [
        116.2557293,
        23.6412978
      ],
      [
        116.2550937,
        23.6351106
      ],
      [
        116.2647731,
        23.6112447
      ],
      [
        116.2673146,
        23.6089156
      ],
      [
        116.2701968,
        23.6085789
      ],
      [
        116.2731926,
        23.6091696
      ],
      [
        116.2747198,
        23.6082443
      ],
      [
        116.2736456,
        23.6041603
      ],
      [
        116.2731667,
        23.6017795
      ],
      [
        116.2762755,
        23.5949634
      ],
      [
        116.2738531,
        23.5907814
      ],
      [
        116.2677974,
        23.5858252
      ],
      [
        116.2674453,
        23.5831662
      ],
      [
        116.2699187,
        23.5806101
      ],
      [
        116.2740271,
        23.5785906
      ],
      [
        116.2749183,
        23.5758407
      ],
      [
        116.2738706,
        23.5726143
      ],
      [
        116.2682948,
        23.5693101
      ],
      [
        116.2687914,
        23.5679561
      ],
      [
        116.271747,
        23.5671221
      ],
      [
        116.2811335,
        23.5676763
      ],
      [
        116.2847015,
        23.569637
      ],
      [
        116.2879327,
        23.5699664
      ],
      [
        116.2958627,
        23.5685567
      ],
      [
        116.3068344,
        23.5736923
      ],
      [
        116.3145602,
        23.5810124
      ],
      [
        116.3198326,
        23.5854754
      ],
      [
        116.3228443,
        23.5854092
      ],
      [
        116.3241894,
        23.5835329
      ],
      [
        116.3251735,
        23.5758259
      ],
      [
        116.3322237,
        23.5705514
      ],
      [
        116.3375745,
        23.5682712
      ],
      [
        116.3384345,
        23.5646976
      ],
      [
        116.3357796,
        23.5547497
      ],
      [
        116.3337287,
        23.5500184
      ],
      [
        116.3426685,
        23.543189
      ],
      [
        116.350042,
        23.5435011
      ],
      [
        116.3666587,
        23.5509962
      ],
      [
        116.3787004,
        23.5473647
      ],
      [
        116.3857099,
        23.54866
      ],
      [
        116.3883955,
        23.5579894
      ],
      [
        116.3880414,
        23.562813
      ],
      [
        116.3903074,
        23.5660103
      ],
      [
        116.3972139,
        23.5687534
      ],
      [
        116.4183958,
        23.5634452
      ],
      [
        116.4386101,
        23.5474809
      ],
      [
        116.4377594,
        23.5389907
      ],
      [
        116.4568075,
        23.5178055
      ],
      [
        116.4583921,
        23.511551
      ],
      [
        116.4564831,
        23.4991842
      ]
    ]
  },
  "properties": {
    "name": "源-北河-榕江"
  }
}