{
  "type": "Feature",
  "geometry": {
    "type": "LineString",
    "coordinates": [
      [
        115.7187581,
        23.2388942
      ],
      [
        115.7179359,
        23.2394361
      ],
      [
        115.7170423,
        23.2420144
      ],
      [
        115.7167921,
        23.2425399
      ],
      [
        115.7179181,
        23.2431147
      ],
      [
        115.7181862,
        23.243788
      ],
      [
        115.7171674,
        23.2451018
      ],
      [
        115.7165955,
        23.2451182
      ],
      [
        115.7130925,
        23.2459721
      ],
      [
        115.712181,
        23.2456929
      ],
      [
        115.7089949,
        23.2463771
      ],
      [
        115.7077943,
        23.2463122
      ],
      [
        115.7066457,
        23.2466637
      ],
      [
        115.7065061,
        23.2472727
      ],
      [
        115.705791,
        23.2476894
      ],
      [
        115.7040641,
        23.2480901
      ],
      [
        115.7038982,
        23.2502082
      ],
      [
        115.7019078,
        23.2514391
      ],
      [
        115.6974319,
        23.2535637
      ],
      [
        115.6950893,
        23.2529656
      ],
      [
        115.6947791,
        23.2524431
      ],
      [
        115.6947619,
        23.2515248
      ],
      [
        115.6957096,
        23.2502899
      ],
      [
        115.6946068,
        23.2493716
      ],
      [
        115.6901437,
        23.2531714
      ],
      [
        115.6880522,
        23.2530118
      ],
      [
        115.6874663,
        23.2521885
      ],
      [
        115.6857431,
        23.2523627
      ],
      [
        115.6849504,
        23.2523152
      ],
      [
        115.6828807,
        23.2533814
      ],
      [
        115.6821244,
        23.2532077
      ],
      [
        115.6811413,
        23.2550143
      ],
      [
        115.6809943,
        23.2569122
      ],
      [
        115.6821282,
        23.2580312
      ],
      [
        115.6829472,
        23.2584363
      ],
      [
        115.6828422,
        23.2588415
      ],
      [
        115.6815953,
        23.2596827
      ],
      [
        115.6817423,
        23.260165
      ],
      [
        115.6831492,
        23.2608595
      ],
      [
        115.6827712,
        23.2629623
      ],
      [
        115.6846893,
        23.2639473
      ],
      [
        115.6847271,
        23.2645553
      ],
      [
        115.6833469,
        23.2668828
      ],
      [
        115.6834981,
        23.2676991
      ],
      [
        115.6832712,
        23.2684981
      ],
      [
        115.6835959,
        23.2692031
      ],
      [
        115.6836267,
        23.2706825
      ],
      [
        115.6841033,
        23.271527
      ],
      [
        115.6843417,
        23.2744044
      ],
      [
        115.6823159,
        23.2751863
      ],
      [
        115.6815941,
        23.2760676
      ],
      [
        115.6783925,
        23.2756493
      ],
      [
        115.677661,
        23.2763845
      ],
      [
        115.6784891,
        23.2775001
      ],
      [
        115.6794007,
        23.2786735
      ],
      [
        115.6802174,
        23.2782008
      ],
      [
        115.6814144,
        23.278653
      ],
      [
        115.6825555,
        23.2801533
      ],
      [
        115.6863562,
        23.2807919
      ],
      [
        115.6853454,
        23.2825674
      ],
      [
        115.6854703,
        23.2839668
      ],
      [
        115.6869688,
        23.2844256
      ],
      [
        115.6951107,
        23.2832556
      ],
      [
        115.6977736,
        23.2849509
      ],
      [
        115.6994149,
        23.2880114
      ],
      [
        115.7045364,
        23.2912338
      ],
      [
        115.7083022,
        23.2916057
      ],
      [
        115.7088569,
        23.2920231
      ],
      [
        115.7076581,
        23.2950282
      ],
      [
        115.7089319,
        23.297735
      ],
      [
        115.7085572,
        23.2994554
      ],
      [
        115.7107405,
        23.2999422
      ],
      [
        115.7105556,
        23.3011024
      ],
      [
        115.7083374,
        23.3028001
      ],
      [
        115.7081834,
        23.303847
      ],
      [
        115.7099087,
        23.3069594
      ],
      [
        115.7102524,
        23.3077931
      ],
      [
        115.7117186,
        23.3086296
      ],
      [
        115.7140511,
        23.3084459
      ],
      [
        115.7152063,
        23.3094864
      ],
      [
        115.7181387,
        23.3101189
      ],
      [
        115.7187967,
        23.3112831
      ],
      [
        115.7188856,
        23.3140781
      ],
      [
        115.7197172,
        23.3158955
      ],
      [
        115.7227926,
        23.3168807
      ],
      [
        115.7246879,
        23.3208542
      ],
      [
        115.7247892,
        23.3224954
      ],
      [
        115.7278341,
        23.3269911
      ],
      [
        115.7230577,
        23.3332958
      ],
      [
        115.7267668,
        23.3416631
      ],
      [
        115.7322499,
        23.3454142
      ],
      [
        115.732423,
        23.3479508
      ],
      [
        115.7334432,
        23.3494638
      ],
      [
        115.7350126,
        23.3492477
      ],
      [
        115.7363074,
        23.3483471
      ],
      [
        115.7386224,
        23.3501122
      ],
      [
        115.7464697,
        23.3504364
      ],
      [
        115.7476662,
        23.3541197
      ],
      [
        115.7468668,
        23.3567947
      ],
      [
        115.7485977,
        23.3632533
      ],
      [
        115.7518499,
        23.3659245
      ],
      [
        115.7557867,
        23.3670873
      ],
      [
        115.7574431,
        23.3677525
      ],
      [
        115.7587412,
        23.3699066
      ],
      [
        115.7575596,
        23.372877
      ],
      [
        115.7578511,
        23.3762223
      ],
      [
        115.7593453,
        23.3780621
      ],
      [
        115.7600384,
        23.382067
      ],
      [
        115.7618366,
        23.384419
      ],
      [
        115.7603081,
        23.3854092
      ],
      [
        115.7595439,
        23.3862757
      ],
      [
        115.7550934,
        23.3866471
      ],
      [
        115.75342269,
        23.39010135
      ],
      [
        115.7532693,
        23.3904185
      ],
      [
        115.7545675,
        23.3917016
      ],
      [
        115.7575632,
        23.3920224
      ],
      [
        115.7610219,
        23.39403
      ],
      [
        115.7662546,
        23.4008986
      ],
      [
        115.7706355,
        23.401792
      ],
      [
        115.77553063,
        23.40160938
      ],
      [
        115.7781195,
        23.4015128
      ],
      [
        115.7815268,
        23.4002843
      ],
      [
        115.7896192,
        23.4005635
      ],
      [
        115.8016666,
        23.3983857
      ],
      [
        115.8056188,
        23.3973255
      ],
      [
        115.8077553,
        23.3979288
      ],
      [
        115.8112614,
        23.4005936
      ],
      [
        115.8116449,
        23.4034091
      ],
      [
        115.8137267,
        23.4051185
      ],
      [
        115.8141465,
        23.4078346
      ],
      [
        115.8135455,
        23.4108133
      ],
      [
        115.8172121,
        23.4123027
      ],
      [
        115.8206985,
        23.4200249
      ],
      [
        115.8228629,
        23.4218967
      ],
      [
        115.83533927,
        23.4252741
      ],
      [
        115.8402875,
        23.4266136
      ],
      [
        115.8452945,
        23.4222642
      ],
      [
        115.8462959,
        23.4171183
      ],
      [
        115.8489625,
        23.4154876
      ],
      [
        115.8600235,
        23.4148154
      ],
      [
        115.8721832,
        23.410715
      ],
      [
        115.8776272,
        23.4110583
      ],
      [
        115.880202,
        23.4124841
      ],
      [
        115.8821108,
        23.4183093
      ],
      [
        115.88282486,
        23.41875274
      ],
      [
        115.8865055,
        23.4210385
      ],
      [
        115.8917881,
        23.4207126
      ],
      [
        115.8968931,
        23.4176983
      ],
      [
        115.9010057,
        23.4128087
      ],
      [
        115.9041119,
        23.4118586
      ],
      [
        115.90666271,
        23.41269314
      ],
      [
        115.9097818,
        23.4137136
      ],
      [
        115.9105303,
        23.4195834
      ],
      [
        115.9102066,
        23.4237042
      ],
      [
        115.9178775,
        23.4292712
      ],
      [
        115.9200527,
        23.4285381
      ],
      [
        115.9220947,
        23.4232021
      ],
      [
        115.923604,
        23.423365
      ],
      [
        115.9396802,
        23.4355489
      ],
      [
        115.9424597,
        23.4448416
      ],
      [
        115.9486483,
        23.4438606
      ],
      [
        115.950236,
        23.4356856
      ],
      [
        115.9654476,
        23.4310216
      ],
      [
        115.9790813,
        23.431325
      ],
      [
        115.9828497,
        23.426693
      ],
      [
        115.9823875,
        23.4195815
      ],
      [
        115.9776813,
        23.4147532
      ],
      [
        115.9831907,
        23.4015043
      ],
      [
        115.9786802,
        23.394467
      ],
      [
        115.9803103,
        23.3904548
      ],
      [
        115.9934531,
        23.386144
      ],
      [
        116.0073634,
        23.3823769
      ],
      [
        116.0165341,
        23.3783073
      ],
      [
        116.0224874,
        23.3741674
      ],
      [
        116.02613276,
        23.37359429
      ],
      [
        116.0264113,
        23.3735505
      ],
      [
        116.0318107,
        23.375023
      ],
      [
        116.0336104,
        23.3747357
      ],
      [
        116.0413091,
        23.369367
      ],
      [
        116.0444807,
        23.3689112
      ],
      [
        116.0492804,
        23.3701591
      ],
      [
        116.05023021,
        23.37066906
      ],
      [
        116.0589364,
        23.3753435
      ],
      [
        116.0647216,
        23.3808858
      ],
      [
        116.0735869,
        23.3808837
      ],
      [
        116.0782344,
        23.3805974
      ],
      [
        116.0825346,
        23.3847049
      ],
      [
        116.080699,
        23.3894304
      ],
      [
        116.0860629,
        23.3986549
      ],
      [
        116.0858069,
        23.4011667
      ],
      [
        116.0882257,
        23.402935
      ],
      [
        116.0917514,
        23.4020321
      ],
      [
        116.0962005,
        23.397151
      ],
      [
        116.0992593,
        23.3969858
      ],
      [
        116.106074,
        23.4035764
      ],
      [
        116.111329,
        23.4073656
      ],
      [
        116.1142645,
        23.4168623
      ],
      [
        116.1122122,
        23.4276326
      ],
      [
        116.1188041,
        23.432808
      ],
      [
        116.1234804,
        23.4418477
      ],
      [
        116.1284975,
        23.444066
      ],
      [
        116.1317187,
        23.4540406
      ],
      [
        116.1282719,
        23.4593531
      ],
      [
        116.1278765,
        23.4631257
      ],
      [
        116.1231312,
        23.4697274
      ],
      [
        116.12566939,
        23.47719557
      ],
      [
        116.1260248,
        23.4782413
      ],
      [
        116.1346252,
        23.4858457
      ],
      [
        116.1403794,
        23.495379
      ],
      [
        116.1533923,
        23.4923806
      ],
      [
        116.1563473,
        23.4931369
      ],
      [
        116.1650747,
        23.5090809
      ],
      [
        116.172074,
        23.5154668
      ],
      [
        116.2079304,
        23.528425
      ],
      [
        116.2346316,
        23.5196729
      ],
      [
        116.2609048,
        23.5197937
      ],
      [
        116.27286328,
        23.53112103
      ],
      [
        116.2803825,
        23.5382434
      ],
      [
        116.3012791,
        23.5328034
      ],
      [
        116.30350195,
        23.53333999
      ],
      [
        116.3186455,
        23.5369956
      ],
      [
        116.32993655,
        23.53454628
      ],
      [
        116.3475397,
        23.5307277
      ],
      [
        116.3627519,
        23.5236377
      ],
      [
        116.3775239,
        23.5262592
      ],
      [
        116.3875307,
        23.5197928
      ],
      [
        116.3847669,
        23.50817
      ],
      [
        116.38523535,
        23.50358155
      ],
      [
        116.3946539,
        23.5027034
      ],
      [
        116.3990302,
        23.504828
      ],
      [
        116.4027199,
        23.5154505
      ],
      [
        116.4083832,
        23.5156079
      ],
      [
        116.4103568,
        23.5026247
      ],
      [
        116.4081599,
        23.4875306
      ],
      [
        116.4139406,
        23.4739117
      ],
      [
        116.41646213,
        23.47257264
      ],
      [
        116.4204014,
        23.4704807
      ],
      [
        116.4298092,
        23.4734958
      ],
      [
        116.4391075,
        23.4876391
      ],
      [
        116.4564831,
        23.4991842
      ]
    ]
  },
  "properties": {
    "name": "源-南河-榕江"
  }
}