{
  "type": "Feature",
  "properties": {
    "name": "源-横江河-南河"
  },
  "geometry": {
    "type": "LineString",
    "coordinates": [
      [
        115.8457267,
        23.6595494
      ],
      [
        115.8459447,
        23.6588505
      ],
      [
        115.8474344,
        23.6581017
      ],
      [
        115.8467453,
        23.6571182
      ],
      [
        115.8480294,
        23.6559825
      ],
      [
        115.8480515,
        23.655293
      ],
      [
        115.8491807,
        23.6550294
      ],
      [
        115.8494242,
        23.654421
      ],
      [
        115.8509297,
        23.6540762
      ],
      [
        115.8517974,
        23.6534795
      ],
      [
        115.8519399,
        23.6512269
      ],
      [
        115.8541852,
        23.6504434
      ],
      [
        115.8549336,
        23.6493335
      ],
      [
        115.8551475,
        23.6477338
      ],
      [
        115.8530804,
        23.6476032
      ],
      [
        115.8512271,
        23.6479297
      ],
      [
        115.8486968,
        23.6477338
      ],
      [
        115.8493026,
        23.6459709
      ],
      [
        115.8509064,
        23.6427061
      ],
      [
        115.8544703,
        23.6400943
      ],
      [
        115.8568581,
        23.6381354
      ],
      [
        115.8585451,
        23.6350656
      ],
      [
        115.8623556,
        23.6301342
      ],
      [
        115.8645745,
        23.6273058
      ],
      [
        115.8659291,
        23.6258482
      ],
      [
        115.8678223,
        23.6232611
      ],
      [
        115.8696032,
        23.6203083
      ],
      [
        115.8707402,
        23.6191229
      ],
      [
        115.8703873,
        23.6184763
      ],
      [
        115.869368,
        23.6180452
      ],
      [
        115.8682215,
        23.6184048
      ],
      [
        115.867457,
        23.6175074
      ],
      [
        115.867242,
        23.6169164
      ],
      [
        115.8663104,
        23.6166538
      ],
      [
        115.8659998,
        23.6153405
      ],
      [
        115.8659282,
        23.6138521
      ],
      [
        115.8656893,
        23.6129984
      ],
      [
        115.8651637,
        23.6120135
      ],
      [
        115.8654343,
        23.610415
      ],
      [
        115.8645568,
        23.6093918
      ],
      [
        115.8640383,
        23.6079299
      ],
      [
        115.8648759,
        23.6067604
      ],
      [
        115.8649955,
        23.6058102
      ],
      [
        115.8649557,
        23.6045676
      ],
      [
        115.8667106,
        23.6038367
      ],
      [
        115.8677077,
        23.6031057
      ],
      [
        115.8676678,
        23.6014245
      ],
      [
        115.8675481,
        23.6002184
      ],
      [
        115.8637027,
        23.5994656
      ],
      [
        115.8619091,
        23.5977788
      ],
      [
        115.8600448,
        23.5956378
      ],
      [
        115.8586307,
        23.5940723
      ],
      [
        115.8574625,
        23.5936888
      ],
      [
        115.8572654,
        23.5931455
      ],
      [
        115.8568469,
        23.5931615
      ],
      [
        115.8571259,
        23.5922827
      ],
      [
        115.8573177,
        23.5915317
      ],
      [
        115.8539426,
        23.5879467
      ],
      [
        115.8492938,
        23.5841073
      ],
      [
        115.8475516,
        23.5834725
      ],
      [
        115.8473367,
        23.5830274
      ],
      [
        115.8445476,
        23.5819755
      ],
      [
        115.8444021,
        23.5809719
      ],
      [
        115.845073,
        23.5793628
      ],
      [
        115.8449813,
        23.5784701
      ],
      [
        115.8455535,
        23.5774945
      ],
      [
        115.8444358,
        23.5762994
      ],
      [
        115.8423999,
        23.5762628
      ],
      [
        115.8405743,
        23.5740731
      ],
      [
        115.839474,
        23.5734404
      ],
      [
        115.8402733,
        23.5722621
      ],
      [
        115.8413951,
        23.5712042
      ],
      [
        115.8434635,
        23.5690722
      ],
      [
        115.8443417,
        23.5682306
      ],
      [
        115.8443794,
        23.5659788
      ],
      [
        115.8453991,
        23.5645293
      ],
      [
        115.8450149,
        23.5638655
      ],
      [
        115.8432097,
        23.564592
      ],
      [
        115.8423599,
        23.5642999
      ],
      [
        115.8420413,
        23.5635291
      ],
      [
        115.8407312,
        23.5636508
      ],
      [
        115.8396641,
        23.5631001
      ],
      [
        115.8375522,
        23.5628675
      ],
      [
        115.8367972,
        23.5617502
      ],
      [
        115.837768,
        23.5600693
      ],
      [
        115.8403335,
        23.5581891
      ],
      [
        115.8409323,
        23.5572987
      ],
      [
        115.8406225,
        23.5539772
      ],
      [
        115.8406499,
        23.5528409
      ],
      [
        115.8412753,
        23.552231
      ],
      [
        115.8439757,
        23.5446441
      ],
      [
        115.8432756,
        23.5429616
      ],
      [
        115.8410136,
        23.5417295
      ],
      [
        115.8376604,
        23.5420101
      ],
      [
        115.8371474,
        23.5414531
      ],
      [
        115.8366151,
        23.5390865
      ],
      [
        115.8353163,
        23.5378579
      ],
      [
        115.8341327,
        23.5374022
      ],
      [
        115.8329018,
        23.5378145
      ],
      [
        115.8318043,
        23.5375883
      ],
      [
        115.8307864,
        23.5367854
      ],
      [
        115.8306166,
        23.5365272
      ],
      [
        115.8311563,
        23.5363045
      ],
      [
        115.8311473,
        23.5358757
      ],
      [
        115.8302298,
        23.5358674
      ],
      [
        115.8301849,
        23.5356365
      ],
      [
        115.8294653,
        23.5353809
      ],
      [
        115.8287097,
        23.5353891
      ],
      [
        115.8264801,
        23.5333051
      ],
      [
        115.8236387,
        23.5324897
      ],
      [
        115.8205791,
        23.5313882
      ],
      [
        115.8199802,
        23.5306991
      ],
      [
        115.8199597,
        23.5300475
      ],
      [
        115.819438,
        23.5290909
      ],
      [
        115.8194929,
        23.5288203
      ],
      [
        115.8166992,
        23.5287762
      ],
      [
        115.8149593,
        23.52775
      ],
      [
        115.8140282,
        23.526713
      ],
      [
        115.812262,
        23.5255629
      ],
      [
        115.8114823,
        23.5241793
      ],
      [
        115.8109867,
        23.522346
      ],
      [
        115.8094843,
        23.5205669
      ],
      [
        115.8071659,
        23.5196193
      ],
      [
        115.8046826,
        23.5161253
      ],
      [
        115.8049927,
        23.5153512
      ],
      [
        115.8042346,
        23.5146245
      ],
      [
        115.8029253,
        23.5142454
      ],
      [
        115.8005133,
        23.5147193
      ],
      [
        115.7999922,
        23.5131372
      ],
      [
        115.798877,
        23.5128772
      ],
      [
        115.7981208,
        23.5107104
      ],
      [
        115.8027972,
        23.5037885
      ],
      [
        115.794301,
        23.4948265
      ],
      [
        115.7987838,
        23.4874534
      ],
      [
        115.8054514,
        23.486718
      ],
      [
        115.8092494,
        23.4866406
      ],
      [
        115.8107686,
        23.4847828
      ],
      [
        115.8104719,
        23.4820046
      ],
      [
        115.8113078,
        23.4790773
      ],
      [
        115.81013,
        23.478206
      ],
      [
        115.8088761,
        23.4762196
      ],
      [
        115.809408,
        23.4740588
      ],
      [
        115.8140058,
        23.4710755
      ],
      [
        115.8266212,
        23.4333127
      ],
      [
        115.83533927,
        23.4252741
      ]
    ]
  }
}